,park,longitude,latitude,postcode,suburb
0,EDYTHE MCCALLUM RESERVE,144.960769971768,-37.8348999953819,3205,SOUTH MELBOURNE
1,BLUEBELL HILL RESERVE,145.106499990065,-37.8293199883503,3127,SURREY HILLS
2,HARRISON PARK,145.460859949309,-35.9994701113972,3640,KATUNGA
3,HARROW RECREATION RESERVE,141.598549979375,-37.145069987685,3317,HARROW
4,IRREWILLIPE RECREATION RESERVE,143.442119961432,-38.411009987836,3249,IRREWILLIPE
5,BOROUGH DEPOT RESERVE ,143.834089990907,-37.5997599985387,3356,SEBASTOPOL
6,Freshbrook Avenue Park,144.717139979323,-37.814449995727,3029,TRUGANINA
7,Lough Way Park,144.596849974569,-37.8772599960442,3024,MANOR LAKES
8,Raffles Walk Park,144.595719973728,-37.9057999941448,3030,WERRIBEE
9,Durrell Road Park,144.712409980769,-37.8273199954882,3029,TRUGANINA
10,Gathering Grove Park,144.687249973306,-37.8164599957285,3029,TARNEIT
11,Stanmore Crescent Park,144.590819991451,-37.8506399964768,3024,WYNDHAM VALE
12,Matheson Avenue Park,144.620459974101,-37.871159997586,3024,WYNDHAM VALE
13,Clifton Circuit Park,144.655339980818,-37.8543199968196,3029,TARNEIT
14,Congo Drive Park,144.645949982247,-37.8562599962018,3029,TARNEIT
15,Tributary Street Park,144.649669974302,-37.8496699974106,3029,TARNEIT
16,Townley Boulevard Park,144.605389982126,-37.9143799958443,3030,WERRIBEE
17,Lynne Fleming Pavilion,145.141059963337,-37.9813499956765,3172,DINGLEY VILLAGE
18,MAYFIELD PARK,145.101829974018,-37.991959992035,3195,MORDIALLOC
19,Maranoa Gardens,145.090519976002,-37.8095599891265,3103,BALWYN
20,Maranoa Botanic Gardens,145.090519976002,-37.8095599891265,3103,BALWYN
21,Jenny Elford Park,146.868060011236,-36.1257600042092,3690,WODONGA
22,Haeusler Park,146.833950016255,-36.1212099715876,3690,WEST WODONGA
23,Whitla Park,146.853039918565,-36.135200029129,3690,WEST WODONGA
24,Mulholland Drive Park,144.649219971261,-37.8320399952714,3029,TARNEIT
25,Millbrook Drive Park,144.596889988585,-37.8488399968713,3024,WYNDHAM VALE
26,Barrabool Boulevard Park,144.593589974214,-37.8953399929379,3024,MAMBOURIN
27,Universal Road Park,144.67196995937,-37.8220199957362,3029,TARNEIT
28,Jernigan Road Park,144.650799971686,-37.8348499953948,3029,TARNEIT
29,Horton Drive Park,144.627779981906,-37.9172799973609,3030,WERRIBEE
30,Parkwood Terrace Park,144.74965997248,-37.9093599965059,3030,POINT COOK
31,Beehive Drive Park ,144.751219984092,-37.8638999993304,3027,WILLIAMS LANDING
32,WAYNE LANDRY OVAL,145.145160006214,-38.1929299972638,3199,FRANKSTON SOUTH
33,BRADVALE RECREATION RESERVE,143.394240021391,-37.7918799990996,3361,BRADVALE
34,BRADVALE RECREATION RESERVE,143.394240021391,-37.7918799990996,3361,BRADVALE
35,DERRINALLUM RECREATION RESERVE,143.227930013161,-37.9493599918253,3325,DERRINALLUM
36,BOOKAAR SCHOOL WETLAND RESERVE,143.10578003218,-38.1399499975372,3260,BOOKAAR
37,BOOKAAR SCHOOL WETLAND RESERVE,143.10578003218,-38.1399499975372,3260,BOOKAAR
38,DES LEONARD OVAL,144.252869971654,-37.2961599986865,3461,GLENLYON
39,MOONAH PARK,144.189099929877,-38.4119302633956,3230,ANGLESEA
40,BRANKO PALAVESTRA PARK,146.889109985424,-36.1380499448914,3690,WODONGA
41,MCLEAN PARK,146.897249995642,-36.1421199315379,3690,WODONGA
42,VERONICA EGAN PARK,146.871109983014,-36.1493799705956,3690,WODONGA
43,JIM COSTELLOE PARK,146.873250098505,-36.1161999715414,3690,WODONGA
44,COMMUNITY GROW AND PLAY GARDENS,144.825119985103,-38.3713299974465,3941,RYE
45,MAIDSTONE PARK,144.875650023577,-37.788490001292,3012,MAIDSTONE
46,DAVID COOPER PARK,145.225649973565,-37.8729899968643,3152,WANTIRNA SOUTH
47,BAYVIEW PARK,145.328969977323,-38.0013499988544,3805,NARRE WARREN
48,SCOTT PARK,145.260109967733,-38.04279999631,3976,HAMPTON PARK
49,EDITHVALE PUBLIC GOLF COURSE,145.122579981538,-38.035999995738,3196,EDITHVALE
50,NAPTHINE RESERVE,143.986869970135,-38.2366700502298,3241,WINCHELSEA
51,BARWON RIVER RESERVE,143.989429975364,-38.2397300504132,3241,WINCHELSEA
52,MATHISON RESERVE,143.992359993349,-38.244520051631,3241,WINCHELSEA
53,GUYE RESERVE,143.993379994272,-38.2435100516905,3241,WINCHELSEA
54,CWA PARK,143.989749980099,-38.241740050446,3241,WINCHELSEA
55,PLATYPUS RESERVE,143.989069977362,-38.2403700503939,3241,WINCHELSEA
56,HESSE STREET RESERVE,143.986079982758,-38.2416700502093,3241,WINCHELSEA
57,WINCHELSEA CRICKET GROUND,143.985899983745,-38.2421000502004,3241,WINCHELSEA
58,BENNETT RESERVE,143.988889966841,-38.236050049356,3241,WINCHELSEA
59,THOMAS OVAL,145.005659981229,-37.8324999994391,3141,SOUTH YARRA
60,CRAIGIEBURN ANZAC PARK,144.913129981648,-37.5885300016001,3064,CRAIGIEBURN
61,MCCORMACK PARK,146.26975999829,-37.1007200057126,3723,MERRIJIG
62,JENSEN PARK,144.901580005974,-37.7894399980623,3032,MARIBYRNONG
63,JOHNSON RESERVE,144.874910015319,-37.7920700012639,3012,WEST FOOTSCRAY
64,MARTIN RESERVE,144.876780006786,-37.794000001403,3012,WEST FOOTSCRAY
65,YARRAVILLE OVAL,144.88326999133,-37.815560000978,3013,YARRAVILLE
66,VIN HEFFERNAN PARK,145.051069970847,-37.7453700010143,3081,HEIDELBERG HEIGHTS
67,GOSCHS PADDOCK,144.986969977213,-37.8257299961171,3004,MELBOURNE
68,POWLETT RESERVE,144.987369988699,-37.8114299950558,3002,EAST MELBOURNE
69,ROYAL PARK,144.953969959148,-37.7869999966204,3052,PARKVILLE
70,STURT STREET RESERVE,144.964849974613,-37.8297999956292,3006,SOUTHBANK
71,TAHARA BRIDGE RESERVE PICNIC AREA,141.664590146246,-37.6656800344674,3315,TAHARA BRIDGE
72,COLLEGE CRESCENT RESERVE,144.958869979664,-37.7928499979914,3052,PARKVILLE
73,ERROL STREET RESERVE,144.950579960521,-37.7982099964583,3051,NORTH MELBOURNE
74,VICTORIA MARKET RESERVE,144.957899978056,-37.8092099970266,3004,MELBOURNE
75,CURZON STREET RESERVE,144.949199959719,-37.7985899963665,3051,NORTH MELBOURNE
76,HAWKE AND CURZONE STREET RESERVE,144.947709974169,-37.8060399963109,3003,WEST MELBOURNE
77,STOCK ROUTE RESERVE,144.925099966886,-37.7895000006654,3031,KENSINGTON
78,LEVESON STREET RESERVE,144.951639966081,-37.8005699965454,3051,NORTH MELBOURNE
79,LIDDY STREET RESERVE,144.925609964746,-37.7899800007032,3031,KENSINGTON
80,PEPPERCORN PARK,144.922659963984,-37.7925100015177,3031,KENSINGTON
81,CLUNIES ROSS RESERVE,144.957469972339,-37.788859996871,3052,PARKVILLE
82,WILDLIFE SANCTUARY,144.914489983375,-37.8019900000196,3003,WEST MELBOURNE
83,WOMENS PEACE GARDEN,144.923979965904,-37.7911300015992,3031,KENSINGTON
84,EXIBITION STREET RESERVE,144.968589978385,-37.8075099977468,3000,MELBOURNE
85,GILIOT RESERVE,144.972559979455,-37.809729997032,3002,EAST MELBOURNE
86,MILES AND DODDS STREET PARK,144.967389973291,-37.8286999957961,3006,SOUTHBANK
87,NEILL STREET RESERVE,144.974069986995,-37.7931399980324,3053,CARLTON
88,CANNING STREET RESERVE,144.974089986991,-37.7931399980337,3053,CARLTON
89,WEEDON RESERVE,144.989149988735,-37.817449995215,3002,EAST MELBOURNE
90,STAPLEY PARADE RESERVE,144.983929975621,-37.8268299969158,3004,MELBOURNE
91,CLAYTON RESERVE,144.93911995771,-37.7963599956645,3051,NORTH MELBOURNE
92,PARLIAMENT RESERVE,144.974119981059,-37.8108799971458,3002,EAST MELBOURNE
93,LYNCHES BRIDGE HISTORIC PRECINCT RESERVE,144.925489967959,-37.788200000684,3031,KENSINGTON
94,POINT PARK,144.942329990213,-37.8234699970516,3008,DOCKLANDS
95,QUAY PARK,144.937499968894,-37.8156999976738,3008,DOCKLANDS
96,MOLLY RYAN PAVILION,146.153769984052,-38.2118499981651,3824,TRAFALGAR
97,HILTON CHADWICK RESERVE,145.231859946436,-38.4655899989418,3922,COWES
98,PELICAN PARK,145.400109988195,-36.4299299859167,3631,KIALLA
99,WATERBIRD PARK,145.396069983088,-36.4371199886799,3631,KIALLA
100,CHAFFEY PARK,142.078840011458,-34.1709500342977,3505,MERBEIN
101,MANSELL RESERVE,142.154989996299,-34.1769200316334,3500,MILDURA
102,RIO VISTA CULTURAL PARK,142.160010002644,-34.1755200319082,3500,MILDURA
103,NANGILOC RECREATION RESERVE,142.363119865272,-34.4781700684863,3494,NANGILOC
104,DOMINIC COURT RESERVE,142.141739961965,-34.1691600328328,3500,MILDURA
105,WASHINGTON PARK,142.151879976293,-34.1706000314156,3500,MILDURA
106,BAINES COURT RESERVE,142.077260013397,-34.1746700332334,3505,BIRDWOODTON
107,BINGARA PARK,142.145029981755,-34.1777800330758,3500,MILDURA
108,FLAMINGO PARK,142.141350006342,-34.1897200319466,3500,MILDURA
109,WILSON PARK,142.136740007959,-34.1908200306933,3500,MILDURA
110,WALNUT PARK,142.135600014753,-34.1954700296597,3500,MILDURA
111,WIRRAWAY DRIVE DRAINAGE RESERVE,142.180400026762,-34.1969400242046,3500,MILDURA
112,GREENPINES ESTATE PARK,142.137680021958,-34.2012900308156,3500,MILDURA
113,MEADOW GROVE PARK,142.125430016838,-34.2012800281237,3500,MILDURA
114,DENNIS PARK,142.155450036066,-34.2033100308337,3500,MILDURA
115,LISA COURT PARKLAND,142.162880043813,-34.2046900312633,3500,MILDURA
116,SEMMENS PARK,142.146000028306,-34.2058800313162,3500,MILDURA
117,MARSDEN DRIVE DRAINAGE RESERVE,142.132710024346,-34.205860029565,3500,MILDURA
118,RODGER STREET DRAINAGE RESERVE,142.166100052888,-34.2099500294804,3500,MILDURA
119,MORRIS PARK,142.166680055676,-34.2114400295231,3500,MILDURA
120,BATEY CRESCENT DRAINAGE RESERVE,142.145150034944,-34.2118900303078,3500,MILDURA
121,THE GRANGE - PARK,142.134360028487,-34.2132700307072,3500,MILDURA
122,HOLLYWOOD BOULEVARD DRAINAGE RESERVE,142.131450027678,-34.2163900295633,3500,MILDURA
123,FRANCESCA DRIVE RESERVE,142.167760066301,-34.2261800266816,3498,IRYMPLE
124,FORRESTER COURT RESERVE,142.215550037353,-34.2335900144417,3501,NICHOLS POINT
125,ORANA COURT PARK,142.17209007207,-34.2330700259723,3498,IRYMPLE
126,CASSIA STREET NORTH DRAINAGE RESERVE,142.203980004103,-34.306740034267,3496,RED CLIFFS
127,COCKLIN AVENUE DRAINAGE RESERVE,142.186859983352,-34.3235900344064,3496,RED CLIFFS
128,HILLVIEW RESERVE,142.270869967322,-34.3366700352722,3496,RED CLIFFS
129,ANDAMIFI PARK,142.143799985819,-34.1793000330162,3500,MILDURA
130,HENSHILWOOD RESERVE,142.16539006809,-34.2331800255935,3498,IRYMPLE
131,BARCLAY SQUARE,142.187339996585,-34.3077200343291,3496,RED CLIFFS
132,CARDROSS RESERVE,142.142290031442,-34.2843600286242,3496,CARDROSS
133,CULGOA RECREATION RESERVE,143.101009975109,-35.7168199600982,3530,CULGOA
134,CUMBERLAND,143.946809973405,-38.5726299936909,3232,LORNE
135,LIONS PARK,147.154409989341,-36.7330699791025,3698,TAWONGA SOUTH
136,LIONS PARK,146.962819988518,-36.727669987344,3741,BRIGHT
137,MYSTIC FLIGHT PARK,146.978119995804,-36.7462399846341,3741,BRIGHT
138,NORTH MOUNT BEAUTY PARK,147.178419985265,-36.7341199779649,3699,MOUNT BEAUTY
139,RIVERSIDE PARK,146.909849996587,-36.6992399791162,3740,POREPUNKAH
140,SWINBURNE PARK,146.729729979271,-36.5527499885031,3737,MYRTLEFORD
141,ARARAT AND DISTRICT PONY CLUB,142.942390002004,-37.2904199664692,3377,ARARAT
142,MOYSTON CRICKET AND RECREATION RESERVE,142.766150007543,-37.2990599750116,3377,MOYSTON
143,LAKE BOLAC RECREATION RESERVE,142.842250004994,-37.7189999911174,3351,LAKE BOLAC
144,PURA PURA RECREATION RESERVE,143.08065999288,-37.8170099940469,3271,PURA PURA
145,KOKODA PARK,142.939680001442,-37.2800799652425,3377,ARARAT
146,MAROONA RECREATION RESERVE,142.860560012207,-37.4386299784879,3377,MAROONA
147,ELMHURST RECREATION RESERVE,143.243239979541,-37.1832299840429,3469,ELMHURST
148,WARRAWEE PARK,142.921539991187,-37.2734299711137,3377,ARARAT
149,EDITH CAVELL MEMORIAL RESERVE,142.926400020277,-37.2848699664759,3377,ARARAT
150,FLINT HILL PUBLIC RECREATION RESERVE,142.951749972063,-37.272659966921,3377,ARARAT
151,FLATTELY STREET RESERVE,142.936850007124,-37.2886499661258,3377,ARARAT
152,POMONAL BUSHLAND RESERVE,142.608320005359,-37.19425997106,3381,POMONAL
153,ASBURTON POOL AND RECREATION CENTRE,145.08510999567,-37.8668399901091,3147,ASHBURTON
154,BACK CREEK RESERVE,145.070789981492,-37.8546699910482,3146,GLEN IRIS
155,BOROONDARA PARK,145.068839994195,-37.8239099917234,3126,CANTERBURY
156,CASCADE PARK,145.073729991224,-37.7884299918396,3104,BALWYN NORTH
157,COLVILLE RESERVE,145.085769993327,-37.8232599868845,3126,CANTERBURY
158,COOPER RESERVE,145.095940003743,-37.8398699856879,3124,CAMBERWELL
159,DEEPDENE PARK,145.068009993566,-37.8126799895967,3103,DEEPDENE
160,EDGEVALE RESERVE,145.041800020862,-37.8149999868097,3101,KEW
161,FAIRMONT AVENUE RESERVE,145.072139996494,-37.8433699940711,3124,CAMBERWELL
162,FAIRVIEW PARK,145.026560000965,-37.8291399948513,3122,HAWTHORN
163,FROG HOLLOW RESERVE,145.072989996773,-37.8394699931053,3124,CAMBERWELL
164,GORDON STREET RESERVE,145.071709988385,-37.808459990825,3103,DEEPDENE
165,HILDA NOTT STREETS RESERVE,145.076539984848,-37.8057099911402,3103,BALWYN
166,KELLET RESERVE,145.04525001538,-37.81392998704,3101,KEW
167,LEIGH PARK,145.084499980152,-37.7902999905925,3104,BALWYN NORTH
168,MADELINE STREET RESERVE,145.089229989967,-37.8575899873356,3146,GLEN IRIS
169,MORANG RESERVE,145.024300010888,-37.8242799936661,3122,HAWTHORN
170,NORWAY RESERVE,145.0614999951,-37.8181399891828,3126,CANTERBURY
171,HULL STREET RESERVE,145.039180013034,-37.8175899876459,3122,HAWTHORN
172,HOWARD DAWSON RESERVE,145.054389986733,-37.8510999918985,3146,GLEN IRIS
173,WATSON PARK,145.074319980255,-37.869499992383,3147,ASHBURTON
174,AUBURN STATION RESERVE,145.045859992371,-37.8221999881333,3123,HAWTHORN EAST
175,CHELMSFORD STREET RESERVE,145.088059975033,-37.7948899908661,3104,BALWYN NORTH
176,DEAN AVE RESERVE,145.039969983097,-37.8249199877455,3122,HAWTHORN
177,FENTON RESERVE,145.030790004547,-37.8078999900099,3101,KEW
178,FITZWILLIAM STREET RESERVE,145.042880017876,-37.8131499878724,3101,KEW
179,HELSTON STREET RESERVE,145.095669978912,-37.7839399923223,3104,BALWYN NORTH
180,LIDDIARD STREET (EAST) RESERVE,145.045110000771,-37.8197299870664,3122,HAWTHORN
181,MMBW PIPE TRACK LINEAR RESERVE,145.099419954796,-37.8064699887205,3103,BALWYN
182,OCLP BARNSBURY ROAD TO MONT ALBERT ROAD,145.065109995752,-37.8155899884153,3103,DEEPDENE
183,OCLP MONT ALBERT ROAD TO RUBENS GROVE,145.065979994345,-37.8179299894896,3126,CANTERBURY
184,PEEL STREET RESERVE,145.03507998612,-37.7958199942293,3101,KEW
185,RADNOR RESERVE,145.062319986552,-37.8401499923757,3124,CAMBERWELL
186,ROWELL AVENUE RESERVE,145.061949986025,-37.8364099913271,3124,CAMBERWELL
187,SEYMOUR GROVE RESERVE,145.061649986132,-37.8359099913033,3124,CAMBERWELL
188,SIR WILLIAM STREET RESERVE,145.026059984798,-37.8039499906608,3101,KEW
189,LE BRAY PARK,145.031490019416,-37.8171599891153,3122,HAWTHORN
190,JACK OTOOLE RESERVE,145.03966998282,-37.7912699955162,3101,KEW
191,RON SINCLAIR RESERVE,143.728369990402,-37.0536399994296,3465,MARYBOROUGH
192,ROSCHOLLER PARK,143.75124996339,-37.044769999822,3465,MARYBOROUGH
193,APEX PARK,146.715009980944,-36.5677499854891,3737,MYRTLEFORD
194,MATARANKA CAMPSITE,143.687089991126,-36.8215899983654,3472,DUNOLLY
195,CALIFORNIA GULLY RECREATION RESERVE,143.733349961931,-37.0396700006571,3465,MARYBOROUGH
196,GORDON GARDENS RECREATION RESERVE,143.732950015767,-36.8587299974955,3472,DUNOLLY
197,RENE FOX MEMORIAL GARDENS,143.731860012796,-36.8603099974365,3472,DUNOLLY
198,MARKET RESERVE,143.812069996669,-37.0487699997068,3464,CARISBROOK
199,ORME SNOWDEN PARK,143.552750004953,-36.7885600017233,3475,BEALIBA
200,TERANG RECREATION RESERVE,142.922529984725,-38.2437999921074,3264,TERANG
201,COBRICO RECREATION RESERVE,143.018289981124,-38.2903999891504,3266,COBRICO
202,JANCOURT EAST RECREATION RESERVE,143.166569998754,-38.4113899918771,3266,JANCOURT EAST
203,SCOTTS CREEK RECREATION RESERVE,143.048420012954,-38.4521599899457,3267,SCOTTS CREEK
204,SIMPSON RECREATION RESERVE,143.213549996029,-38.4953199872519,3266,SIMPSON
205,PORT CAMPBELL PUBLIC PURPOSES RESERVE,142.997289998815,-38.6191999878594,3269,PORT CAMPBELL
206,LISMORE RECREATION RESERVE,143.339409979697,-37.9578299907272,3324,LISMORE
207,APEX PARK,143.140030000399,-38.229019991159,3260,CAMPERDOWN
208,JUBILEE PARK,143.369230001273,-37.6846499968944,3361,SKIPTON
209,JAYCEES PARK,143.209569991588,-38.4968999880179,3266,SIMPSON
210,JAYCEES PARK,143.155069967787,-38.2385499911325,3260,CAMPERDOWN
211,POWER CREEK RESERVE,142.976700014963,-38.4816999887948,3268,TIMBOON
212,MARCONI PARK,146.731909977187,-36.5503899886525,3737,MYRTLEFORD
213,TIMBOON MASONIC PARK,142.977430016068,-38.4792699888242,3268,TIMBOON
214,APEX PARK,143.079099969758,-38.3263199910458,3266,COBDEN
215,BOORCAN RECREATION RESERVE,143.004810008783,-38.2362699900101,3265,BOORCAN
216,BRIGHT MEMORIAL ARBORETUM,146.971279997406,-36.7252799879756,3741,BRIGHT
217,CAMPERDOWN RACECOURSE AND RECREATION RESERVE,143.154590000219,-38.2145899929583,3260,CAMPERDOWN
218,COBDEN PLAYGROUND RESERVE,143.078179968073,-38.3247799909808,3266,COBDEN
219,J H VAGG MEMORIAL PARK,143.065929959979,-38.3276899892561,3266,COBDEN
220,RUSSELL MOCKRIDGE PARK,143.144259992846,-38.226969991404,3260,CAMPERDOWN
221,SHANTONS PLACE,147.697920004486,-37.6162700003362,3875,DEPTFORD
222,MOUNT BEAUTY RECREATION RESERVE,147.172979985536,-36.7393499785779,3699,MOUNT BEAUTY
223,CUNDY PARK,146.727989980185,-36.5559499883924,3737,MYRTLEFORD
224,ROTARY PARK,146.712339981938,-36.5543199852007,3737,MYRTLEFORD
225,DEDERANG RECREATION RESERVE,147.019479989614,-36.4782199840688,3691,DEDERANG
226,GUNDOWRING RECREATION RESERVE,147.061760046319,-36.4221799749505,3691,GUNDOWRING
227,HARRIETVILLE RECREATION RESERVE,147.061580007415,-36.8945799659899,3741,HARRIETVILLE
228,Sellick Drive Reserve,145.294399979361,-37.8121899992696,3136,CROYDON
229,Turkeith Crescent Reserve,145.29136998478,-37.7679599987834,3136,CROYDON NORTH
230,Kalinda Modified Urban Forest,145.250589989581,-37.7883999990719,3134,RINGWOOD
231,Ross Reserve Sports Pavilion,145.171379981213,-37.9617099946517,3174,NOBLE PARK
232,Beek Beek Reserve,145.168619969843,-38.2310999971208,3912,SOMERVILLE
233,Evelyn Road Reserve,145.226099992408,-37.8012299954501,3134,RINGWOOD NORTH
234,TYABB CENTRAL RESERVE,145.189249954634,-38.2631799977464,3913,TYABB
235,TROON RESERVE,145.033999988362,-38.242019996908,3931,MORNINGTON
236,MERRICKS TRAIL,145.027459980208,-38.3804799973066,3937,RED HILL SOUTH
237,POLICE POINT SHIRE PARK,144.701679960888,-38.3171799967771,3944,PORTSEA
238,GUIDE HALL,145.036819977876,-38.2328599970454,3931,MORNINGTON
239,MT MARTHA BOWLING CLUB,145.021039980805,-38.2677899981765,3934,MOUNT MARTHA
240,HASTINGS FORESHORE RESERVE,145.192709958146,-38.2979499961994,3915,HASTINGS
241,HASTINGS FORESHORE RESERVE,145.194349973151,-38.3042699963518,3915,HASTINGS
242,QUANDONG PARK,142.190480005743,-34.299940032456,3496,RED CLIFFS
243,S C MILLS RESERVE,142.146580012362,-34.1919000322567,3500,MILDURA
244,PIONEER PARK,141.183320027796,-35.2633399316636,3512,MURRAYVILLE
245,TORRITA RECREATION RESERVE,141.933970029374,-35.1553699686163,3490,TORRITA
246,WOODS BUSHLAND RESERVE,145.082179985899,-38.2868599984956,3915,TUERONG
247,WENSLEYDALE DRIVE RESERVE,145.0585499729,-38.2432199976021,3931,MORNINGTON
248,JOHANSEN MEMORIAL RESERVE,141.603240017139,-34.2764400347049,3496,CULLULLERAINE
249,COLLENDINA RESERVE,144.548949960292,-38.2675300012431,3226,OCEAN GROVE
250,ELDERSLIE RECREATION RESERVE,144.324319987427,-38.1411199975981,3220,NEWTOWN
251,ERVIN RESERVE,144.396859974844,-38.1674599945391,3219,NEWCOMB
252,FRIER RESERVE,144.340639993558,-38.159979998787,3220,NEWTOWN
253,BARWON RIVER WALK,144.321969995215,-38.156550002538,3220,NEWTOWN
254,HIGHTON RESERVE,144.31955999198,-38.1723000024759,3216,HIGHTON
255,HOPETOUN PARK RESERVE,144.367299968243,-38.1562899955204,3220,GEELONG
256,KEVIN KIRBY RESERVE,144.320659974611,-38.1360099973263,3218,HERNE HILL
257,KING LLOYD RESERVE,144.326939996624,-38.1633200019062,3220,NEWTOWN
258,PETER LOWE RESERVE,144.331239976716,-38.1362899970235,3218,HERNE HILL
259,ALLINGHAM STREET RESERVE,144.261359986253,-36.7751100019643,3555,GOLDEN SQUARE
260,PEVENSEY PARK,144.371109976158,-38.1507399957376,3220,GEELONG
261,CORIO COMMUNITY PARK,144.359759949285,-38.0737599945179,3214,CORIO
262,SPARROW PARK,144.341129986494,-38.140819996702,3218,GEELONG WEST
263,DETROIT CRESCENT PLAYGROUND,144.362359963438,-38.0774599947119,3214,CORIO
264,TIM HILL RESERVE,144.307870008994,-38.1727800087108,3216,WANDANA HEIGHTS
265,GLENBRAE RESERVE,144.345009993835,-38.1879200012454,3216,BELMONT
266,BRAHMAN RESERVE,144.330659980126,-38.1902400093154,3216,BELMONT
267,FRANK ELLIS RESERVE,144.494739980464,-38.2808600167163,3227,BARWON HEADS
268,WEST PARK,144.347079977172,-38.1433999981094,3218,GEELONG WEST
269,WINDSOR PARK,144.361749986239,-38.0898399957477,3214,NORLANE
270,GEELONG RACECOURSE,144.371259981656,-38.1741399948907,3219,BREAKWATER
271,WARE STREET PLAYGROUND,144.385059988612,-38.0190099958502,3212,LARA
272,CHIRNSIDE PARK,144.389619995626,-38.0207699961619,3212,LARA
273,LARA LAKE RESERVE,144.401149988759,-38.0287499959722,3212,LARA
274,MCCELLAND AVENUE PLAYGROUND,144.418809944019,-38.0253399971184,3212,LARA
275,GOLDFINCH GROVE RESERVE,144.415319959712,-38.0340399959411,3212,LARA
276,MCHARRY COURT PLAYGROUND,144.372219955163,-38.063619993277,3214,CORIO
277,COHUNA COURT RESERVE,144.34677995729,-38.0669099936211,3214,CORIO
278,RODBROUGH CRESCENT PLAYGROUND,144.360119942804,-38.0682399935078,3214,CORIO
279,DONAX ROAD RESERVE,144.363799935997,-38.0697499947595,3214,CORIO
280,LANDALE COURT PLAYGROUND,144.34601994809,-38.0700799925905,3214,CORIO
281,BARRACK RESERVE,144.710789989664,-36.9224799977171,3523,HEATHCOTE
282,DOWER PARK,144.23924999215,-36.7930200026321,3555,KANGAROO FLAT
283,ROTELLA AVENUE PLAYGROUND,144.365079942554,-38.0718199948566,3214,CORIO
284,TALONA CRESCENT PLAYGROUND,144.364629949439,-38.0736599948382,3214,CORIO
285,RIESLING COURT PLAYGROUND,144.34613995958,-38.0747199946268,3214,CORIO
286,KENNINGTON OVAL RESERVE,144.295319990723,-36.7636400001157,3550,KENNINGTON
287,SANDHILL ROAD FLORA AND FAUNA RESERVE,147.094059999412,-37.9566999842261,3862,STRATFORD
288,KANGAROO FLAT LEISURE CENTRE RECREATION RESERVE,144.242599983833,-36.7906000028356,3555,KANGAROO FLAT
289,LAKE WEEROONA PARK,144.288720023234,-36.7497500055951,3550,BENDIGO
290,TOM FLOOD SPORTS CENTRE,144.28140001812,-36.7531100021368,3550,BENDIGO
291,TRUSCOTT RESERVE,144.254649983865,-36.7306800032439,3556,CALIFORNIA GULLY
292,WHITE HILLS RECREATION RESERVE,144.304650015333,-36.7224400004666,3550,WHITE HILLS
293,ALBERT ROY RESERVE,144.24743999066,-36.7248400027355,3556,EAGLEHAWK
294,BACKHAUS OVAL RESERVE,144.254819982534,-36.7732800015248,3555,GOLDEN SQUARE
295,EDITH MACPHERSON PARK,145.189649980261,-37.9686399969597,3174,NOBLE PARK
296,SUNVALE COMMUNITY PARK,144.836059966094,-37.7824999995664,3020,SUNSHINE
297,NORTH BENDIGO RECREATION RESERVE,144.273920019127,-36.7456500015997,3550,NORTH BENDIGO
298,Ian Tatterson Pavilion,145.154709983023,-37.998839997728,3173,KEYSBOROUGH
299,MUNRO RECREATION RESERVE,147.186940005713,-37.9218199921803,3862,MUNRO
300,DENISON RECREATION RESERVE,146.877589990677,-38.0230799910594,3858,DENISON
301,AUSTIN PARK,144.366989983247,-38.1473099964449,3220,GEELONG
302,BARWON VALLEY PARK (STH SECTION ),144.335409993929,-38.1652099994748,3216,BELMONT
303,BURDOO RECREATION RESERVE,144.328109988287,-38.2119200162802,3216,GROVEDALE
304,WAREENA PARK,146.309769971062,-36.359109984899,3677,WANGARATTA
305,ENTERPRIZE PARK,144.959729974567,-37.8199999972186,3000,MELBOURNE
306,RYANS RESERVE,145.157409995912,-37.6680699988626,3089,DIAMOND CREEK
307,FERNTREE GULLY PICNIC GROUND,145.316919967722,-37.8908799943289,3785,TREMONT
308,ANZAC MEMORIAL PARK,145.194959979789,-37.6374699992709,3099,HURSTBRIDGE
309,GEORGE CAVANAGH RESERVE,144.689029973308,-37.9723499988106,3030,WERRIBEE SOUTH
310,LORRAINE KOVACS RESERVE,145.254029969036,-37.9776299974843,3802,ENDEAVOUR HILLS
311,RAY BASTIN RESERVE,145.307909965404,-38.0335899975835,3805,NARRE WARREN
312,NEVILLE HAMILTON RESERVE,145.345329967701,-38.026119997151,3806,BERWICK
313,WILLIAM ANGLISS NATIVE GRASSLAND RESERVE,144.775159975997,-37.8166799986549,3026,LAVERTON NORTH
314,STRATH CREEK PIONEER RESERVE,145.220009983082,-37.2378700025028,3658,STRATH CREEK
315,CHRISTOPHER BROTCHIE PARK,145.098629982462,-38.002089992877,3195,MORDIALLOC
316,ROGER PENMAN RESERVE,144.778479996389,-38.3620699952319,3942,BLAIRGOWRIE
317,ERN MILES RESERVE,145.048549980245,-36.3327500079074,3620,KYABRAM
318,COLAURA GARDENS,145.339060011757,-36.4904400200347,3614,TOOLAMBA
319,VICTORIA PARK,147.071690010608,-38.1084099844513,3850,SALE
320,BABABI DJINANANG,144.979819995862,-37.7022300048611,3060,FAWKNER
321,NORM JARDINE PAVILION,145.138889990785,-38.1616499986382,3199,FRANKSTON
322,DIANE BYRNE PAVILION,145.142499974148,-38.1074999955543,3198,SEAFORD
323,BURT-KUR-MIN RESERVE,144.898679971278,-37.5965100016657,3064,CRAIGIEBURN
324,JOHN VANDELOO RESERVE,144.919959995745,-37.7158200028576,3046,OAK PARK
325,FIDDLERS GREEN,142.237429963242,-38.3837599828336,3284,PORT FAIRY
326,THOMAS MILLETT PARK,144.707979977003,-37.5979099997666,3429,SUNBURY
327,JUNCTION SQUARE,146.88733007879,-36.1200799446383,3690,WODONGA
328,NOWINGI PLACE,142.169829973346,-34.1852000205282,3500,MILDURA
329,BILL MINNS ROTUNDA,145.348489968893,-38.0284099963861,3806,BERWICK
330,ECOTHERAPY PARK,144.74322999868,-37.3458600055676,3434,ROMSEY
331,ADA CAMBRIDGE FORECOURT,144.896149973447,-37.8584800001202,3016,WILLIAMSTOWN
332,MOIRA RESERVE,145.979029957057,-36.5481600029358,3672,BENALLA
333,Karingga Park,143.78861997647,-37.5630399964193,3350,ALFREDTON
334,Henrika Kuljurgies Reserve,146.948229999887,-36.1381799514008,3691,KILLARA
335,Kosovar Park,146.9193499982,-36.1410999382156,3691,BANDIANA
336,Bidgood Park,146.949869995568,-36.1816999478105,3691,BARANDUDA
337,Mel Read Park,146.943889999501,-36.1819699433555,3691,BARANDUDA
338,BARANDUDA FIELDS,146.938060002174,-36.1670499398129,3691,BARANDUDA
339,McCubbin Park,145.157940001732,-37.8238999898682,3130,BLACKBURN
340,Wilhelm Koschel Reserve,146.883389979283,-36.164519965629,3690,WODONGA
341,North Park Recreation Reserve,142.775840029841,-37.051099973049,3380,STAWELL
342,BILL LAWRY OVAL,145.004869969766,-37.7828999970773,3070,NORTHCOTE
343,THE RIGHI RESERVE,145.057399986754,-37.763689998563,3084,EAGLEMONT
344,DOROTHY OLSEN RESERVE,145.316529976216,-37.8059599997745,3137,KILSYTH
345,CORANDERRK BUSHLAND RESERVE,145.521259963399,-37.6842899973913,3777,BADGER CREEK
346,FRANK GRECH RESERVE,144.867309972886,-37.7619599995606,3034,AVONDALE HEIGHTS
347,FREEWAY RESERVE,145.168679965509,-37.9179799981943,3170,MULGRAVE
348,KARDINIA PARK,144.352889966443,-38.1595399975908,3220,SOUTH GEELONG
349,KATUNGA RECREATION RESERVE,145.452699938847,-35.9974101198102,3640,KATUNGA
350,SAWPIT PICNIC AREA,141.686809958549,-38.2351299871146,3305,HEATHMERE
351,SCOBORIO RESERVE,142.508809980578,-38.3930899855482,3280,WARRNAMBOOL
352,SEACOMBE PARK,142.239869975472,-38.3765099829296,3284,PORT FAIRY
353,RALPH ILLIDGE SANCTUARY,142.834380005062,-38.3936299917397,3277,NARINGAL EAST
354,RIA VISTA PARK,142.1604200015,-34.1765100309379,3500,MILDURA
355,NICOLA DAVIS CONSERVATION RESERVE,145.075880006897,-37.632070000015,3752,SOUTH MORANG
356,WANGARATTA LIONS PARK,146.313849970308,-36.3598999842053,3677,WANGARATTA
357,NELSON PARK,141.600459972517,-38.3664299951774,3305,PORTLAND
358,NEWBRIDGE RECREATION RESERVE,143.904869988666,-36.7386400056726,3551,NEWBRIDGE
359,BERRIWILLOCK RECREATION RESERVE,142.990109983105,-35.638979961904,3531,BERRIWILLOCK
360,BIG DESERT WILDERNESS PARK,141.062089725456,-35.710399480163,3490,BIG DESERT
361,BIRCHIP RECREATION RESERVE,142.911519991165,-35.9789199513716,3483,BIRCHIP
362,PRINCE OF WALES PARK,143.817110006875,-37.5497299981481,3355,LAKE GARDENS
363,PRINCES PARK OVAL,143.74125996627,-37.0429000001778,3465,MARYBOROUGH
364,NORTHCOTT PARK,143.900649961413,-37.43074999574,3363,CRESWICK
365,FAWKNER AVENUE RESERVE,144.767939998451,-38.3603099955088,3942,BLAIRGOWRIE
366,ECCO PARK,145.013539996192,-38.2762799977141,3934,MOUNT MARTHA
367,BRACKEN RIDGE BUSHLAND RESERVE,144.956049979742,-38.3453699982011,3936,DROMANA
368,BALD HILL NATURE CONSERVATION RESERVE,145.022189989476,-38.3503599967609,3937,RED HILL
369,BALCOMBE ESTUARY RESERVE,145.022629976914,-38.2642599982639,3934,MOUNT MARTHA
370,B A CAIRNS RESERVE,145.01573998323,-38.4711999950562,3929,FLINDERS
371,DAVID MACFARLAN RESERVE,144.736749955476,-38.3374099962633,3943,SORRENTO
372,JACKSON WAY RESERVE,144.969509986091,-38.3477899981362,3936,DROMANA
373,TARA DRIVE RESERVE,145.17116002198,-38.3066599967601,3915,HASTINGS
374,KING CREEK BUSHLAND RESERVE,145.170039982617,-38.2937499966034,3915,HASTINGS
375,STUMPY GULLY RESERVE,145.12829994948,-38.3701999961859,3926,BALNARRING
376,OSMENT COURT RESERVE,145.199339985615,-38.3548699970078,3919,CRIB POINT
377,HORIZONS COMMUNITY PARK,144.997359976661,-38.3160699978487,3936,SAFETY BEACH
378,OLIVERS CREEK BUSHLAND RESERVE,145.158800000409,-38.259549996616,3913,TYABB
379,CRAIGIE ROAD RESERVE,145.046839989371,-38.2576499968857,3934,MOUNT MARTHA
380,HARRAP CREEK RESERVE,145.047559991728,-38.2532699979083,3934,MOUNT MARTHA
381,BALCOMBE CREEK,145.072729974567,-38.2507399966237,3931,MORNINGTON
382,SUMMERFIELDS WETLANDS,145.069749970681,-38.2454199963859,3931,MORNINGTON
383,WARANA RESERVE,145.093739972406,-38.1916299977075,3930,MOUNT ELIZA
384,E G RITCHIE MEMORIAL FLORA RESERVE,144.768339983069,-38.3723399946092,3942,BLAIRGOWRIE
385,MILTON RESERVE,144.79663998101,-38.3726699965252,3941,RYE
386,Moonah Waren Bushland Reserve,144.79663998101,-38.3726699965252,3941,RYE
387,VERN WRIGHT RESERVE,144.870009971936,-38.3731799975059,3940,CAPEL SOUND
388,MERRICKS BEACH FORESHORE RESERVE,145.090559956163,-38.406189998803,3916,MERRICKS
389,ADELAIDE RESERVE,145.034179978547,-38.2309999968527,3931,MORNINGTON
390,WOODVALE GROVE RESERVE,144.921409983566,-38.3572999959091,3939,ROSEBUD
391,WESTPARK RESERVE,145.174819990636,-38.2949799969419,3915,HASTINGS
392,WELLINGTON ROAD RESERVE,145.159980006581,-38.2561299956766,3913,TYABB
393,WATTLE GULLY CLOSE RESERVE,145.181229977915,-38.2374499960328,3912,SOMERVILLE
394,Colston Drive Reserve,144.751199977297,-37.6846200022181,3037,HILLSIDE
395,Lachlans Field,144.755339969778,-37.6921300025441,3037,HILLSIDE
396,Toolern Creek Park,144.584079999468,-37.7389999983359,3338,MELTON SOUTH
397,The Serpentine,144.734129981817,-37.7448500024406,3023,CAROLINE SPRINGS
398,Goulding Park,144.725989989057,-37.6996300026115,3335,PLUMPTON
399,The Regency Reserve,144.730819981235,-37.690130001878,3037,HILLSIDE
400,Maloneys Biodiversity Reserve,144.603810003432,-37.7730499968654,3024,MOUNT COTTRELL
401,Mount Cottrell Volcano Biodiversity Reserve,144.627189983283,-37.7644599953769,3024,MOUNT COTTRELL
402,Anderson Avenue Reserve,144.738549983415,-37.7414400037174,3023,CAROLINE SPRINGS
403,The Grove Reserve,144.734309984238,-37.7406200044265,3023,CAROLINE SPRINGS
404,MAITS REST SCENIC RESERVE,143.554310019365,-38.7553999939027,3233,CAPE OTWAY
405,MAROXOMS PARK,142.016260024334,-34.2167900320875,3505,MERBEIN SOUTH
406,LYONS BUSHLAND RESERVE,141.449029998039,-38.0053999998166,3304,LYONS
407,NARRAPORT SCHOOL RESERVE,143.335150022297,-35.8776299694316,3527,TOWANINNY
408,WY YUNG RECREATION RESERVE,147.619789979026,-37.8132499893838,3875,WY YUNG
409,WEST BAIRNSDALE RECREATION RESERVE,147.624819987762,-37.8323599909024,3875,BAIRNSDALE
410,SWAN REACH RECREATION RESERVE,147.859040035778,-37.8242600015073,3903,SWAN REACH
411,A J FREEMAN RESERVE,147.716279988864,-37.9134399946712,3880,PAYNESVILLE
412,KOALA COURT RESERVE,148.452780002655,-37.6943599939667,3888,ORBOST
413,BALMORAL CRESCENT RESERVE,147.628469989281,-37.8153299920842,3875,EASTWOOD
414,ROTARY PARK WEST,147.598540004909,-37.8191999897402,3875,BAIRNSDALE
415,KEYTE COURT RESERVE,147.601240002381,-37.819729989957,3875,BAIRNSDALE
416,CAMERON CRESCENT RESERVE,147.650410015303,-37.8250899938841,3875,EAST BAIRNSDALE
417,HARNHAM DRIVE RESERVE,147.592859982611,-37.8372599874047,3875,BAIRNSDALE
418,LAKE BUNGA FORESHORE RESERVE,148.041440000858,-37.8616700064249,3909,LAKE BUNGA
419,A M PEARSON HISTORICAL PARK,147.592409972273,-37.1011299626919,3898,OMEO
420,BAIRNSDALE CITY OVAL,147.624479986877,-37.8319099918726,3875,BAIRNSDALE
421,BEMM RIVER RECREATION RESERVE,148.95753008023,-37.755500022513,3889,BEMM RIVER
422,BRUTHEN RECREATION RESERVE,147.835079967005,-37.7129399958859,3885,BRUTHEN
423,CANN RIVER RECREATION RESERVE,149.155649998064,-37.5682299861464,3890,CANN RIVER
424,CREIGHTON LAUGHTONS ROAD RESERVE,147.972169980762,-37.876670011928,3909,KALIMNA
425,DAVIES STREET RESERVE,147.614419984607,-37.8318299900758,3875,BAIRNSDALE
426,FERRY RESERVE,147.727429974086,-37.9202799946015,3880,RAYMOND ISLAND
427,FOREST PARK,148.452840001704,-37.7092099920659,3888,ORBOST
428,HODDINOTT STREET RESERVE,147.65418001933,-37.8276999931995,3875,EAST BAIRNSDALE
429,LIONS PARK EASTERN BEACH,148.015169974525,-37.8758200163913,3909,LAKES ENTRANCE
430,LIONS PARK MALLACOOTA,149.758439968522,-37.559359944247,3892,MALLACOOTA
431,NICHOLSON RESERVE,147.739789986063,-37.8169499929352,3882,NICHOLSON
432,NOORINBEE PUBLIC PURPOSES RESERVE,149.170700037488,-37.5166600001013,3890,NOORINBEE
433,OMEO RECREATION RESERVE,147.597839972166,-37.0946599630795,3898,OMEO
434,SKIDALE CLOSE RESERVE,148.085579993966,-37.8566999909667,3909,LAKE TYERS BEACH
435,BENDOC COMMUNITY RECREATION RESERVE,148.885320040026,-37.1474199845285,3888,BENDOC
436,COMBIENBAR RECREATION RESERVE,149.015970006356,-37.3968099861709,3889,COMBIENBAR
437,JORGENSEN STREET RESERVE,148.53748999104,-37.7955099916119,3888,MARLO
438,LOCHIEL STREET RESERVE,148.455409996911,-37.7119499922954,3888,ORBOST
439,SARSFIELD RECREATION RESERVE,147.713739978169,-37.7563099954794,3875,SARSFIELD
440,BENAMBRA PUBLIC HALL RESERVE,147.703709998758,-36.9555699455765,3900,BENAMBRA
441,METUNG FORESHORE RESERVE,147.854029965931,-37.8925500005363,3904,METUNG
442,BENDON PUBLIC RECREATION RESERVE,148.881860038726,-37.1464499852308,3888,BENDOC
443,SAW PIT PICNIC AREA,141.688259959277,-38.235259986195,3285,NARRAWONG
444,GOODMAN PARK,141.392520074622,-37.5880700252631,3311,CASTERTON
445,MOUNT RICHMOND RECREATION RESERVE,141.354839991479,-38.1961500069048,3305,MOUNT RICHMOND
446,BOLWARRA RECREATION RESERVE,141.613160106716,-38.281230017362,3305,BOLWARRA
447,CAVALIER PARK,141.616080035511,-38.368590016042,3305,PORTLAND
448,FRIENDLY SOCIETY RESERVE,141.603159999141,-38.3538000022494,3305,PORTLAND
449,YARRAMAN PARK,141.586969979984,-38.3660399844404,3305,PORTLAND WEST
450,HOMERTON RECREATION RESERVE,141.762979969543,-38.1373999917187,3304,HOMERTON
451,MUMBANNAR RECREATION RESERVE,141.199590037938,-37.9285700280549,3304,MUMBANNAR
452,STRATHDOWNIE RECREATION RESERVE,141.136419586961,-37.7274201645182,3312,STRATHDOWNIE
453,TYRENDARRA RECREATION RESERVE,141.779539960474,-38.2176299861135,3285,TYRENDARRA
454,DIGBY RECREATION RESERVE,141.531370037896,-37.8024800330419,3309,DIGBY
455,DARTMOOR PUBLIC PARK,141.271930073572,-37.9228300248509,3304,DARTMOOR
456,CANTERBURY PARK,144.254790006475,-36.7144900021504,3556,EAGLEHAWK
457,COOINDA PARK,144.244809972167,-36.7836300029359,3555,GOLDEN SQUARE
458,LONGLEA RECREATION RESERVE,144.425869987679,-36.7752199997834,3551,LONGLEA
459,WOODVALE RECREATION RESERVE,144.228109980951,-36.6845599982174,3556,WOODVALE
460,RANDAZZO PARK,144.964589980197,-37.769570003238,3056,BRUNSWICK
461,WATTLE GROVE BUSHLAND RESERVE,144.720489978789,-38.3242399970868,3944,PORTSEA
462,NARANG COURT RESERVE,145.060379974708,-38.2239399966096,3931,MORNINGTON
463,MOUNT ELIZA PARK,145.097129970368,-38.2046499970211,3930,MOUNT ELIZA
464,SHEOAK GROVE RESERVE,144.99150997892,-38.2958999993245,3934,MOUNT MARTHA
465,MILLBANK BUSHLAND RESERVE,145.10770997677,-38.1932299976803,3930,MOUNT ELIZA
466,MELBOURNE ROAD LINEAR RESERVE,144.749979978444,-38.3528999962506,3943,SORRENTO
467,VAN NESS RESERVE,145.043829983011,-38.2385599975618,3931,MORNINGTON
468,MARIE COURT RESERVE,145.103419972674,-38.1918799983762,3930,MOUNT ELIZA
469,LOMBARDY AVENUE,144.978569997013,-38.3430100007269,3936,DROMANA
470,LORD SOMERS CAMP PLAYING FIELD,145.14771997779,-38.390369996651,3927,SOMERS
471,LOMICA DRIVE RESERVE,145.180480017902,-38.3105299964292,3915,HASTINGS
472,KOALA COURT RESERVE,145.173969991181,-38.3899899974648,3927,SOMERS
473,CHILDRENS BUSHLAND RESERVE,144.784029991089,-38.3649599956249,3942,BLAIRGOWRIE
474,KARINA-KIANDRA RESERVE,145.045129991176,-38.2440399976847,3931,MORNINGTON
475,JAMES COURT RESERVE,145.019759987575,-38.271919998114,3934,MOUNT MARTHA
476,ILUKA PLACE RESERVE,145.040019977862,-38.2278799962346,3931,MORNINGTON
477,HUTCHINS PARK,145.047369981284,-38.2394899968108,3931,MORNINGTON
478,HIBISCUS GROVE RESERVE,144.791729985035,-38.3712599961843,3941,RYE
479,WARILDA RESERVE,145.045479985491,-38.2406299976879,3931,MORNINGTON
480,HOVE ROAD BUSHLAND RESERVE,145.018839994254,-38.2853599991332,3934,MOUNT MARTHA
481,TANTI CREEK RESERVE,145.047459977065,-38.2232199967171,3931,MORNINGTON
482,ROSYTH ROAD RESERVE,145.153000006431,-38.3583200008201,3918,BITTERN
483,GRANT ROAD RESERVE,145.175569957057,-38.2181699945225,3912,SOMERVILLE
484,GORIS CLOSE RESERVE,145.169669966748,-38.337999995849,3918,BITTERN
485,STRATFORD CLOSE WALKWAY,145.171599974673,-38.2368999973627,3912,SOMERVILLE
486,STAN WILLIAMS RESERVE,144.957209979368,-38.3468999982898,3936,DROMANA
487,BROXBOURNE BRAE,145.056179973557,-38.2410599974259,3931,MORNINGTON
488,RICHARDSON DRIVE RESERVE,145.05389997536,-38.2283799971914,3931,MORNINGTON
489,GASKIN AVENUE RESERVE,145.191009991558,-38.3148599961853,3915,HASTINGS
490,FLINDERS STREET RESERVE,145.177779979434,-38.3458799964587,3918,BITTERN
491,SPUNNER COURT RESERVE,144.732679958077,-38.3385199969957,3943,SORRENTO
492,SOMERVILLE CRESCENT RESERVE,145.189249988877,-38.2250999955126,3912,SOMERVILLE
493,FITZJOHNS COURT RESERVE,144.714259969241,-38.3210299966476,3944,PORTSEA
494,FINLAYSON AVENUE RESERVE,144.99860998356,-38.2877899997612,3934,MOUNT MARTHA
495,FORESHORE RESERVE,145.163579963427,-38.3953199967782,3927,SOMERS
496,VISTA COURT RESERVE,145.179520001249,-38.2461299959677,3912,SOMERVILLE
497,VILLAWOOD DRIVE RESERVE,145.18015000071,-38.3038099963652,3915,HASTINGS
498,ELIZABETH STREET RESERVE,145.186310007978,-38.3095799958272,3915,HASTINGS
499,TERN AVENUE RESERVE,144.8700099713,-38.3698599964856,3940,CAPEL SOUND
500,SINCLAIR STREET RESERVE,145.172179966488,-38.2286499963521,3912,SOMERVILLE
501,EAST CRESCENT RESERVE,145.177029995533,-38.3909299976824,3927,SOMERS
502,DUNNS ROAD RESERVE,145.042040005776,-38.252599997525,3934,MOUNT MARTHA
503,DUNNS CREEK RESERVE,144.989689976439,-38.3213099993554,3936,SAFETY BEACH
504,DOWDLE RESERVE,145.002709984535,-38.2723799979477,3934,MOUNT MARTHA
505,DELEPAN DRIVE RESERVE,145.185079984148,-38.2561999964146,3913,TYABB
506,VICTORIA RESERVE,145.017849976735,-38.2644599979372,3934,MOUNT MARTHA
507,CYPRESS COURT RESERVE,144.721579977393,-38.3261099971717,3944,PORTSEA
508,CORAL CLOSE RESERVE,144.921459982166,-38.3790299960452,3939,ROSEBUD
509,CONWAY COURT RESERVE,145.165259975919,-38.2267499968616,3912,SOMERVILLE
510,COMMUNITY CENTRE RESERVE,145.057699975202,-38.2237499974242,3931,MORNINGTON
511,COLSTAN COURT RESERVE,145.093699972973,-38.1865599976736,3930,MOUNT ELIZA
512,CLAIRMONT CLOSE RESERVE,145.167829973951,-38.2223899950126,3912,SOMERVILLE
513,TYALLA GROVE RESERVE,145.040869977596,-38.2289299962994,3931,MORNINGTON
514,GOOLGOWIE BUSHLAND RESERVE,144.929529980178,-38.3840799946266,3939,ROSEBUD
515,SEAVIEW RESERVE,145.04187997684,-38.2341599974009,3931,MORNINGTON
516,TODD GROVE RECREATION RESERVE,145.186769985524,-38.2232099953291,3912,SOMERVILLE
517,SEASCAPE AVENUE RESERVE,145.114899968822,-38.3704899992629,3926,BALNARRING
518,ALAMEDA RESERVE,145.041769979625,-38.2362899974064,3931,MORNINGTON
519,ROTARY PARK,145.187250003491,-38.31245999591,3915,HASTINGS
520,ROSINA STREET RESERVE,144.792089963437,-38.3853099972944,3941,RYE
521,RECREATION RESERVE,144.956599980533,-38.3372999981894,3936,DROMANA
522,RAYMOND STREET RESERVE,145.171569965302,-38.2222999952709,3912,SOMERVILLE
523,RAMSAY COURT RESERVE,145.014099991401,-38.2734899977354,3934,MOUNT MARTHA
524,QUINNS PARK,144.85868997031,-38.3698399977161,3941,TOOTGAROOK
525,BATMAN AVENUE,145.101649974802,-38.2025799973199,3930,MOUNT ELIZA
526,THE RIDGE RESERVE,145.099219970396,-38.2010699981431,3930,MOUNT ELIZA
527,PORT PHILLIP DRIVE RESERVE,145.046639977796,-38.2360199967393,3931,MORNINGTON
528,TERRIGAL STREET RESERVE,145.063999974065,-38.2239899958589,3931,MORNINGTON
529,POPLAR DRIVE RESERVE,144.915929983925,-38.371959997625,3939,ROSEBUD
530,TARANNA STREET RESERVE,145.058089975355,-38.2217399974387,3931,MORNINGTON
531,OSBOURNE DRIVE RESERVE,145.034080000398,-38.2506299959662,3934,MOUNT MARTHA
532,SYLVAN BUSHLAND RESERVE,144.911279984049,-38.3783299963469,3939,ROSEBUD
533,NIXON STREET RESERVE,144.914859984375,-38.3695899975375,3939,ROSEBUD
534,MALAHANG PARADE RESERVE,145.049029977742,-37.7404000028432,3081,HEIDELBERG HEIGHTS
535,MALVERN CRICKET GROUND,145.034589990491,-37.8573499925772,3144,MALVERN
536,MANGALORE FLORA PARK,145.148479974299,-36.9398500046669,3663,MANGALORE
537,J W MANSON RESERVE,145.236719971189,-37.8408899944339,3152,WANTIRNA
538,CALDER RISE NEIGHBOURHOOD PARK,144.823159981427,-37.7165000042823,3036,KEILOR
539,CALDER RISE PARK,144.823159981427,-37.7165000042823,3036,KEILOR
540,ORCHID SQUARE RESERVE,144.764579980626,-37.7066500022581,3037,SYDENHAM
541,OVERTON LEA PARK,144.76363997919,-37.7029000021713,3037,SYDENHAM
542,STAGECOACH RESERVE,144.767759981508,-37.7026100014478,3037,SYDENHAM
543,TRICKS RESERVE,145.019359977341,-37.9653299922002,3193,BLACK ROCK
544,WISHART RESERVE,145.025760004429,-37.9360399904582,3188,HAMPTON EAST
545,INDIGENOUS RESOURCE GARDEN,145.018699974106,-37.9593899921182,3191,SANDRINGHAM
546,FRANK GARTH RESERVE,146.330279979331,-36.3536799873782,3677,WANGARATTA
547,LAWRENCE RESERVE,145.138139999599,-37.8563999847015,3151,BURWOOD EAST
548,RUFFEY LAKE PARK,145.138279978434,-37.7756699922101,3106,TEMPLESTOWE
549,CANDLEBARK WALK,145.267649988552,-37.7709699981502,3136,CROYDON HILLS
550,STRINGYBARK RESERVE,145.22094998666,-37.85235999741,3152,WANTIRNA
551,LOYS PADDOCK,145.009479985566,-37.8324999997009,3142,TOORAK
552,BUCKANBE PARK,145.19892996163,-37.8328899947619,3133,VERMONT
553,OLD SCHOOL YARD BALMORAL,141.795699936437,-37.2492900081353,3407,BALMORAL
554,PANTON HILL FIREFIGHTERS MEMORIAL PARK,145.240869976417,-37.6416999984829,3759,PANTON HILL
555,Pristine Drive Park,144.618609973311,-37.8722199974688,3024,WYNDHAM VALE
556,OLIVES CORNER,144.942059993661,-37.8381999961244,3207,PORT MELBOURNE
557,COUGHLAN RESERVE,145.133219958142,-37.9773899961106,3172,DINGLEY VILLAGE
558,Frog Way Park,144.692499979579,-37.8147199950706,3029,TARNEIT
559,Greenbank Way Park,144.724719986161,-37.8783299966326,3030,POINT COOK
560,Carnboon Park,144.651389981671,-37.9183299969499,3030,WERRIBEE
561,KEVIN ADLARD RESERVE,145.252269969689,-37.992529998454,3177,EUMEMMERRING
562,ROD LAVIN RESERVE,145.26162997901,-37.9929399971077,3802,ENDEAVOUR HILLS
563,LORNA WILSON RESERVE,145.295129991972,-38.0126299985626,3805,NARRE WARREN
564,NICK DRODGE RESERVE,145.308419958985,-38.0275799985819,3805,NARRE WARREN
565,BOBBY HRYCKOW RESERVE,145.339619974399,-38.0108899986576,3806,BERWICK
566,LANCE REICHSTEIN PLAYGROUND,144.854309973523,-37.786240001828,3019,BRAYBROOK
567,Tulsi Avenue Park,144.637499984563,-37.9233299960494,3030,WERRIBEE
568,DIMMICKS BUSHLAND RESERVE,144.782019971507,-38.3827299965974,3942,BLAIRGOWRIE
569,JAMES FORD RESERVE,144.719589973641,-38.3270699970434,3944,PORTSEA
570,BRUCE AITKEN PLAYGROUND,145.145139971933,-38.1142899937786,3198,SEAFORD
571,JACK DILLON RESERVE,144.206259971432,-37.8226299949096,3342,DURDIDWARRAH
572,GARY WATSON OVAL,145.023479977576,-38.2659599983326,3934,MOUNT MARTHA
573,SLIPS RESERVE,144.766119995882,-38.3593199953797,3942,BLAIRGOWRIE
574,ALEXANDER WEBB PARK,144.343059967575,-38.1747099980363,3216,BELMONT
575,Farm Road Park,144.654439984227,-37.9174999971494,3030,WERRIBEE
576,Webster Street Reserve,144.71638997151,-37.888609997135,3030,POINT COOK
577,Rosso Drive Park,144.683329968965,-37.8166699964663,3029,TARNEIT
578,CHARLES EDWARD BROWN RESERVE,143.843240010771,-37.5356399977249,3355,WENDOUREE
579,JENKINS RESERVE,145.447639974609,-36.1292900303107,3636,NUMURKAH
580,STRINGERS CORNER PARK,144.742089964355,-38.3390099956333,3943,SORRENTO
581,NYERIMILANG PARK,147.93347996521,-37.8701300087721,3909,NYERIMILANG
582,J F O'BRIEN RESERVE,144.779309988796,-37.8862399943656,3028,ALTONA MEADOWS
583,OAK PARK RESERVE,144.924869991401,-37.7204000032209,3046,OAK PARK
584,OCEAN GROVE NATURE RESERVE,144.528479978405,-38.2442899997372,3222,WALLINGTON
585,OCEAN PARK,144.759869969964,-38.368739995015,3942,BLAIRGOWRIE
586,WINDMILL RESERVE,144.325019998067,-38.1528500007159,3220,NEWTOWN
587,WINDSOR RESERVE,144.361529986247,-38.0901299957349,3214,NORLANE
588,WINGAN INLET NATIONAL PARK,149.497369947905,-37.7212399165132,3891,WINGAN RIVER
589,WINGROVE PARK,145.144719977616,-37.7273299983545,3095,ELTHAM
590,WINSOR RESERVE,145.080049970803,-37.7181300008377,3085,MACLEOD
591,WINTER RESERVE,144.339609982192,-38.1841100028667,3216,BELMONT
592,WINDERMERE RESERVE,145.263479993417,-37.8962399966378,3156,FERNTREE GULLY
593,MARIBYRNONG PARK,144.903739986222,-37.7651800010589,3039,MOONEE PONDS
594,THE KNOB RECREATION RESERVE,147.100419998538,-37.9792899848575,3862,STRATFORD
595,THE MERRICKS STATION RESERVE,145.087919975449,-38.3898499995212,3916,MERRICKS
596,JACK MAHER PARK,146.907820040515,-36.1285099372543,3690,WODONGA
597,SISTER WILLET PARK,146.898500064216,-36.1267799295328,3690,WODONGA
598,PEG SPRY PARK,146.910020049334,-36.1270199444122,3690,WODONGA
599,GORDON HARTSMAN PARK,146.876599992082,-36.1497899650159,3690,WODONGA
600,CASTLE HEIGHTS PARK,146.883629995281,-36.1469199605322,3690,WODONGA
601,HAROLD DRAPER PARK,146.881599991685,-36.1548999634298,3690,WODONGA
602,HOLLOWAY PARK,146.899750108442,-36.1230899316039,3690,WODONGA
603,HERB HARRIS PARK,146.856009910028,-36.1357100363581,3690,WEST WODONGA
604,BILL BUCKPITT PARK,146.845629957649,-36.1361499995723,3690,WEST WODONGA
605,JOHN SCHWIND PARK,146.847269958716,-36.1332800016781,3690,WEST WODONGA
606,THOMAS REIDY PARK,146.860969910194,-36.1360100387371,3690,WEST WODONGA
607,DANIEL RHODES PARK,146.855879922554,-36.1399900263762,3690,WEST WODONGA
608,JOHN HADDLETON PARK,146.858079922261,-36.1394600275399,3690,WEST WODONGA
609,COYLE PARK,146.83777002049,-36.1225099678861,3690,WEST WODONGA
610,ELFY QUICK PARK,146.846260010833,-36.1250199775473,3690,WEST WODONGA
611,ALFRED INGRAM PARK,146.831560011679,-36.120869974404,3690,WEST WODONGA
612,BIRALLEE PARK,146.85840998463,-36.1271500024846,3690,WEST WODONGA
613,JOHN POTTER PARK,146.865569969966,-36.1488699841709,3690,WODONGA
614,TONY PLOWMAN PARK,146.86293994005,-36.1431600129337,3690,WEST WODONGA
615,MARIMBA PARK,146.860960030702,-36.1229699846511,3690,WEST WODONGA
616,ERN HART WOODLAND,146.910180028978,-36.1298699374431,3690,WODONGA
617,GAYVIEW PARK,146.857460017186,-36.1236599853895,3690,WEST WODONGA
618,RESULOGLU RESERVE,144.920959981428,-37.6523000015309,3048,MEADOW HEIGHTS
619,RECEP RESULOGLU RESERVE,144.920959981428,-37.6523000015309,3048,MEADOW HEIGHTS
620,VALENTINA GILLARD PARK,146.840230021781,-36.116549967034,3690,WEST WODONGA
621,HOWARD WILSON OVAL,145.136120005887,-37.8205399873395,3128,BOX HILL
622,SALTWATER RESERVE,144.75528996858,-37.9085899958811,3030,POINT COOK
623,PETER SIDDLE OVAL,146.407229983855,-38.2274999989533,3840,MORWELL
624,WARD MORRISON PARK,146.872089981235,-36.1633999677617,3690,WODONGA
625,BOB CROSBY PARK,146.837600025862,-36.1195199678537,3690,WEST WODONGA
626,SUSAN CAMPBELL RESERVE,146.86850994419,-36.1428400083551,3690,WODONGA
627,WESTLANDS PARK,146.857989948277,-36.1307900194764,3690,WEST WODONGA
628,WIGGY JACKSON PARK,146.856429926267,-36.1330500293726,3690,WEST WODONGA
629,BRIAN ESLER PARK,146.860549928634,-36.1327900316841,3690,WEST WODONGA
630,JOHN BYRNE PARK,146.853389975322,-36.1281600011096,3690,WEST WODONGA
631,ARTHUR DUNSTAN PARK,146.899870047791,-36.1285499256488,3690,WODONGA
632,RIFLE BUTTS,145.985979954025,-36.0134599839745,3730,YARRAWONGA
633,RIGHETTI OVAL,145.03736999598,-37.8392899916561,3144,KOOYONG
634,LINDENOW SOUTH GOLF COURSE,147.430700070974,-37.8323500136083,3875,LINDENOW SOUTH
635,A K LINES RESERVE,145.087609977005,-37.7043000002721,3087,WATSONIA
636,KEITH MCCORKELL PARK,145.417179989775,-36.3611199926706,3630,SHEPPARTON
637,WARRIGAL PARK,145.077689994758,-37.9598799911742,3202,HEATHERTON
638,AUGUSTA SQUARE,145.08006999647,-37.9587199913308,3202,HEATHERTON
639,LORNAS TRIANGLE BUSHLAND RESERVE,145.170139990311,-38.3501299979558,3918,BITTERN
640,LUNA PARK,144.977639974215,-37.8681799937416,3182,ST KILDA
641,LYNDEN PARK,145.084900010238,-37.8437299859515,3124,CAMBERWELL
642,SADDLE RIDGE PARK,145.302369992555,-37.6803999960051,3775,CHRISTMAS HILLS
643,ST ALBANS PARK,144.38125996358,-38.1770699965682,3219,THOMSON
644,OLINDA FALLS RESERVE,145.372920004575,-37.8317899968774,3788,OLINDA
645,OLYMPIC PARK,144.981289979317,-37.8246499967217,3004,MELBOURNE
646,OSWIN ROBERTS KOALA RESERVE,145.266809987498,-38.4720699994121,3923,RHYLL
647,ANDERS PARK,144.877089992498,-37.8054300014949,3012,WEST FOOTSCRAY
648,YAMMERBOOK NATURE RESERVE,145.108619976757,-38.0198799956755,3195,ASPENDALE
649,KORUMBURRA BOTANIC PARK,145.833619971221,-38.4268800002527,3950,KORUMBURRA
650,KEITH MILLAR OVAL,144.835559966746,-37.795819999615,3020,SUNSHINE
651,EVANS STREET WILDFLOWER GRASSLAND,144.724679982505,-37.5849199988102,3429,SUNBURY
652,BERT CHRISTENSEN RESERVE,146.479019970758,-38.1485099978052,3844,TYERS
653,Baillie Reserve,146.479949976328,-38.1507499978885,3844,TYERS
654,HARBOUR TOWN PARK,145.142099978867,-38.0564199942119,3197,PATTERSON LAKES
655,ROTARY CENTENARY PARK,145.722509980276,-38.6391399995832,3996,INVERLOCH
656,EDMONSTON PARK,143.724109990967,-37.429259998502,3352,LEARMONTH
657,WOODLANDS PARK,146.046240007412,-36.003460007283,3730,YARRAWONGA
658,PENNYDALE PARK,145.046589994003,-37.9615399890459,3192,CHELTENHAM
659,ICE WORKS RESERVE,145.006889990234,-37.9130199910219,3186,BRIGHTON
660,OLD DAIRY RESERVE,145.009049991087,-37.9109199911569,3187,BRIGHTON EAST
661,SUE KIRKPATRICK PARK,145.046319994708,-37.973779990103,3193,BEAUMARIS
662,CUDGEWA RECREATION GROUND,147.787370059736,-36.1742899851579,3705,CUDGEWA
663,CUMBERLAND SCENIC RESERVE,145.873479873714,-37.5620700007555,3779,CAMBARVILLE
664,CYRIL CLEMENTS RESERVE,144.77890997675,-37.7383400034229,3021,KINGS PARK
665,TAWONGA PIONEER MEMORIAL PARK,147.141109996893,-36.6880199737846,3697,TAWONGA
666,G R GILPIN RESERVE,144.951809969533,-37.7684600013578,3056,BRUNSWICK
667,GUM TREE PARK,145.07804999582,-37.9587499911919,3202,HEATHERTON
668,FROGS HOLLOW WETLAND,144.895809986066,-37.7793500006069,3032,MARIBYRNONG
669,ASH RESERVE,144.853749974176,-37.7810900007582,3019,BRAYBROOK
670,BEATON RESERVE,144.886109990644,-37.8173400001822,3013,YARRAVILLE
671,Bonnie View Reserve,145.29028998455,-37.7717299987316,3136,CROYDON NORTH
672,Viviani Reserve,145.24261998529,-37.8307099957806,3135,HEATHMONT
673,WJ Crowe Pavilion,145.226649988863,-37.9952099976903,3175,DANDENONG
674,Norman Castle Reserve,142.780560017086,-37.0613799703929,3380,STAWELL
675,BROWNS RESERVE,145.704449995066,-38.5825000029473,3995,WATTLE BANK
676,MOODIE STREET RESERVE,145.096949970285,-37.7144300019785,3088,GREENSBOROUGH
677,DERRINALLUM RECREATION RESERVE,143.227930013161,-37.9493599918253,3325,DERRINALLUM
678,QUEENS PARK,143.149179972707,-38.2296599917199,3260,CAMPERDOWN
679,M B LYNCH GARDENS,144.833479970827,-37.779850000375,3020,SUNSHINE
680,NOEL GOULD RESERVE,145.338199977105,-38.006789997533,3806,HARKAWAY
681,NOORAMUNGA FAUNAL RESERVE,146.702370031412,-38.6934600099188,3971,PORT ALBERT
682,ANDREWS PARK,146.413479975718,-38.3031800008854,3842,CHURCHILL
683,T W ANDREWS PARK,145.01801998981,-37.7155600015604,3073,RESERVOIR
684,ANNIE GREENAWAY RESERVE,146.464870056533,-38.5206800010487,3971,HIAWATHA
685,ANDERSON RESERVE,145.82097996911,-38.4384599974149,3950,KORUMBURRA
686,W L FLOYD RESERVE,144.863399974074,-37.8406299997825,3025,ALTONA NORTH
687,JEREMAL FAUNAL RESERVE,147.905980344578,-36.0359599167389,3708,TINTALDRA
688,JOAN PHILLIPS RESERVE,145.278159984047,-37.9666599940958,3802,ENDEAVOUR HILLS
689,JOHN CAIN MEMORIAL PARK,145.024369986444,-37.7639900012968,3071,THORNBURY
690,N G W ANDERSON PARK,144.97236998312,-37.7670700037543,3057,BRUNSWICK EAST
691,KOOLUNGA RESERVE,145.294589972968,-37.8695699966391,3156,FERNTREE GULLY
692,CHURCHILL RESERVE,144.814619971112,-37.7332100038074,3021,ST ALBANS
693,CLARRIE ARDERN RESERVE,146.727369978833,-36.5512399883151,3737,MYRTLEFORD
694,CLIFFORD PARK SCOUT CENTRE,145.280139992558,-37.7151299986722,3115,WONGA PARK
695,FERRERO RESERVE,145.023479977576,-38.2659599983326,3934,MOUNT MARTHA
696,MEMORIAL PARK,145.202369974079,-37.9773499968952,3175,DANDENONG
697,Peninsula Kingswood Country Golf Club,145.152919988876,-38.1295699964105,3199,FRANKSTON
698,TELOPEA RESERVE,145.163479974193,-38.1190099960758,3200,FRANKSTON NORTH
699,TEMPLE RIDGE,145.193200002736,-37.6498500012262,3099,HURSTBRIDGE
700,TEMPLESTOWE RESERVE,145.13735998393,-37.7543499920141,3106,TEMPLESTOWE
701,CHANDLER RESERVE,145.462919962518,-37.925129995776,3782,EMERALD
702,ERNEST LLOYD RESERVE,145.646950003946,-37.8155400051195,3797,GLADYSDALE
703,J J  KINGSTON WILDFLOWER SANCTUARY,142.797370025256,-37.0501299713208,3380,STAWELL
704,A H BARRETT RESERVE,143.078909969823,-38.3260099910324,3266,COBDEN
705,M. V. MCKAY MEMORIAL GARDENS,144.828059965334,-37.7838799990324,3020,SUNSHINE
706,SWALLOW RESERVE,145.127609983155,-37.9679999966652,3172,DINGLEY VILLAGE
707,WARRENSBROOK FAIRE,144.667639980348,-37.6884599976179,3335,BONNIE BROOK
708,KIRSTY LOTTKOWITZ RESERVE,145.327639981211,-38.0223499988914,3806,BERWICK
709,IAN J MCWILLIAMS PARK,144.885139986831,-37.7523500017133,3040,ESSENDON WEST
710,NORTHCOTE PARK,145.004029968911,-37.7828999970198,3070,NORTHCOTE
711,ALBERT PARK PLAYING FIELDS,144.966809963365,-37.8473499958719,3206,ALBERT PARK
712,ALBERT RESERVE,145.059869992896,-37.7676299997573,3084,EAGLEMONT
713,ALFRED NICHOLAS GARDENS,145.359310017235,-37.8740100001868,3789,SHERBROOKE
714,ALISTAIR KNOX PARK,145.143899983619,-37.7194699992489,3095,ELTHAM
715,ALTONA SPORTS PARK,144.85263999351,-37.8631800001911,3018,ALTONA
716,AMINYA RESERVE,145.078329969703,-37.712610000685,3087,WATSONIA
717,AMSTEL GOLF CLUB,145.255979982619,-38.1131799984568,3977,CRANBOURNE
718,DRUMMIES BRIDGE RESERVE,145.190959988321,-37.8754599934735,3150,GLEN WAVERLEY
719,D N DUANE RESERVE,144.842639970572,-37.8231400002645,3012,BROOKLYN
720,BOWDEN RESERVE,144.978819987576,-37.7433500030482,3058,COBURG
721,EWART PARK,145.59791997267,-37.8842899870636,3139,HODDLES CREEK
722,FAIRPARK RESERVE,145.26291997853,-37.8690099954299,3156,FERNTREE GULLY
723,FAIRY DELL SCENIC RESERVE,147.777090010852,-37.6892899941025,3875,FAIRY DELL
724,FALLS CREEK PICNIC AREA,145.567639921644,-37.4226300230321,3717,MURRINDINDI
725,BURKE STREET PARK,145.928199975952,-38.1653999984636,3820,WARRAGUL
726,R K RICHARDS RESERVE,144.781609987752,-37.8829299945007,3028,ALTONA MEADOWS
727,LAKESIDE RESERVE,145.240649977387,-37.9143099961622,3178,ROWVILLE
728,GORDON BARNARD RESERVE,145.086049975686,-37.8012499907671,3104,BALWYN NORTH
729,LANCASTER RECREATION RESERVE,145.133759999179,-36.3050900135928,3620,LANCASTER
730,SEAVIEW RESERVE,144.295269988443,-38.3411900799108,3228,JAN JUC
731,RUDDUCK RESERVE,145.222369980605,-37.9862399963377,3175,DANDENONG
732,TAVARE PARK,147.065190010407,-36.8896299652355,3741,HARRIETVILLE
733,GLENFERN PARK,145.285839980178,-37.8903899981584,3156,FERNTREE GULLY
734,GLOUCESTER RESERVE,144.886449987107,-37.8679700005189,3016,WILLIAMSTOWN
735,GODFREY BALDWIN PARK,147.090140028431,-38.1001299858201,3850,SALE
736,BRIMBANK PARK,144.840549974377,-37.7261700045215,3033,KEILOR EAST
737,BRUNSWICK PARK,144.999589995735,-37.7640100025983,3071,THORNBURY
738,DEVILBEND GOLF COURSE,145.109309984934,-38.2703999982643,3933,MOOROODUC
739,DEVON NORTH RECREATION RESERVE,146.649490012061,-38.5195600098662,3971,DEVON NORTH
740,GRANT RESERVE,144.829869985504,-37.8628999976444,3018,ALTONA
741,GRASS TREE RESERVE,145.812920000252,-38.0165100032335,3816,LABERTOUCHE
742,J T GRAY RESERVE,144.865030001061,-37.8566400009923,3016,WILLIAMSTOWN
743,HAWKER STREET RESERVE,145.037369956824,-37.7581800001529,3079,IVANHOE
744,HEALESVILLE SPORTING COMPLEX,145.539589951952,-37.6690099955912,3777,HEALESVILLE
745,BALLAM PARK,145.16052996523,-38.1503999950649,3199,FRANKSTON
746,MONT ALBERT PARK,145.100729956039,-37.8113099888408,3103,BALWYN
747,MONTFORT PARK,144.960979984214,-37.7659600019688,3056,BRUNSWICK
748,MONTMORENCY PARK,145.112629986301,-37.7169400000748,3094,MONTMORENCY
749,POUND BEND RESERVE,145.202369977733,-37.7356800023963,3113,WARRANDYTE
750,WORLAND PARK,145.159309967029,-38.1451299949481,3199,FRANKSTON
751,WRIGHTS RESERVE,145.482089965655,-37.9298499971556,3781,COCKATOO
752,WUCHATSCH RESERVE,145.645810026506,-38.3043599980629,3987,NYORA
753,WULGULMERANG RECREATION GROUND,148.259309982905,-37.0670699820705,3885,WULGULMERANG EAST
754,WYATTS RESERVE,148.189870038813,-37.4403999917985,3885,BUCHAN
755,WYETH MCNAMARA PARK,145.728200002664,-38.6356799989689,3996,INVERLOCH
756,WYLIE RESERVE,144.944079968544,-37.7714999998488,3055,BRUNSWICK WEST
757,TAYLOR PARK,144.324819993493,-38.3289000757773,3228,TORQUAY
758,TED JEFFS RESERVE,146.890700007315,-38.6101299996936,3874,MCLOUGHLINS BEACH
759,BERBERT PARK,144.886709989017,-37.794420000081,3011,FOOTSCRAY
760,FRANKLIN CHAPLIN RESERVE,143.875419970058,-36.8354000014017,3463,LAANECOORIE
761,BRAZENER PARK,143.932090012696,-37.5526299975094,3352,GONG GONG
762,BREE PARK,142.028640056952,-37.7377900121029,3300,HAMILTON
763,BRIDGEWATER RECREATION RESERVE,143.945489998971,-36.6059000004333,3516,BRIDGEWATER ON LODDON
764,BRIM GOLF COURSE,142.419310073609,-36.0731800420328,3391,BRIM
765,STRINGER ROAD RESERVE,144.764389988923,-38.3617599952777,3942,BLAIRGOWRIE
766,STUDIO PARK,145.179159969387,-38.1465399963306,3910,LANGWARRIN
767,STUDLEY PARK,145.012340012121,-37.8044799957231,3101,KEW
768,STRATHBOGIE RECREATION RESERVE,145.739689980214,-36.8498499966447,3666,STRATHBOGIE
769,WELSHPOOL RECREATION RESERVE,146.441529978737,-38.6690100072203,3966,WELSHPOOL
770,Werribee Gorge National Park,144.343759973394,-37.6603299919159,3342,INGLISTON
771,WATTLES PARK,145.527549944411,-37.6476599966068,3777,HEALESVILLE
772,JAMES PARK,144.125070006966,-35.6318298867557,3580,KOONDROOK
773,KOONDROOK ENVIRONMENTAL RESERVE,144.125179997781,-35.633549907774,3580,KOONDROOK
774,RATS OF TOBRUK RESERVE,144.952269960344,-37.8431999958526,3206,ALBERT PARK
775,DELAHEY EMERALD PARK,144.765559980873,-37.721440003416,3037,DELAHEY
776,WIELAND RESERVE,145.240329985126,-37.8267399965969,3135,HEATHMONT
777,WILLEY LANGDON RESERVE,144.677249970876,-38.1165599959059,3223,PORTARLINGTON
778,DUNNSTOWN RECREATION RESERVE,143.959779966387,-37.5873699975012,3352,DUNNSTOWN
779,COFFEE PALACE PARK,142.777660024936,-37.057539971197,3380,STAWELL
780,GRAMPIANS GOLF COURSE,142.323480022405,-37.6031800030437,3294,DUNKELD
781,FRAMLINGHAM ABORIGINAL SETTLEMENT,142.648199997172,-38.3020699881628,3265,FRAMLINGHAM
782,EDDIE BARRON RESERVE,145.345699972046,-38.04928999832,3806,BERWICK
783,ELMHURST PARK,144.886869963792,-37.6942900014704,3043,GLADSTONE PARK
784,BRONZEWING PICNIC AREA,141.475980043603,-37.9315100068251,3303,HOTSPUR
785,BUANGOR COMMON,143.207649988756,-37.3178999857019,3375,BUANGOR
786,BUANGOR COMMON PICNIC AREA,143.191529983193,-37.3109599866744,3375,BAYINDEEN
787,BUNINYONG PUBLIC GARDENS,143.887089994324,-37.653179997251,3357,BUNINYONG
788,BUNINYONG RECREATION RESERVE,143.891109997029,-37.6491999964834,3357,BUNINYONG
789,YALCA RECREATION RESERVE,145.233689992633,-35.9272600470608,3637,YALCA
790,YAMALA PARK,145.104029973435,-38.165959997259,3199,FRANKSTON SOUTH
791,WERRIBEE PARK,144.674309978703,-37.927349997544,3030,WERRIBEE SOUTH
792,GEORGE A BISHOP RESERVE,144.964819978607,-38.332499997722,3936,DROMANA
793,Broberg Street Park,144.619439974501,-37.8690799975049,3024,WYNDHAM VALE
794,Natal Road Park,144.64069998128,-37.855149996843,3029,TARNEIT
795,Vestige Circuit Park,144.687799973348,-37.8245299958153,3029,TARNEIT
796,wonguim wilam,145.222029996235,-37.7365799997657,3113,WARRANDYTE
797,SUMMERHILL RESERVE,145.051599975883,-38.2273099970267,3931,MORNINGTON
798,ST CATHERINES COURT RESERVE,145.057739973721,-38.2370799965087,3931,MORNINGTON
799,SOMERSET DRIVE RESERVE,145.02153999721,-38.2814299992944,3934,MOUNT MARTHA
800,SHERWOOD AVENUE RESERVE,144.918729982284,-38.3823599958794,3939,ROSEBUD
801,ST ELMOS CLOSE RESERVE,144.87760997395,-38.3789899970582,3940,CAPEL SOUND
802,ROMNEY PARK,144.847189952168,-38.3714999949452,3941,TOOTGAROOK
803,MARSHALL STREET RESERVE,144.842439954218,-38.3787399966668,3941,TOOTGAROOK
804,RADNOR RISE RESERVE,145.17983999254,-38.2430099959707,3912,SOMERVILLE
805,SOMERS KOALA RESERVE,145.153059973931,-38.3895899970155,3927,SOMERS
806,PITT RESERVE,145.029009978267,-38.2327299965084,3931,MORNINGTON
807,OLSTEAD DRIVE RESERVE,145.153729990325,-38.1963599978773,3911,BAXTER
808,NOEL STREET RESERVE,144.810859980013,-38.3769999955146,3941,RYE
809,PENTON PARK,145.173229966974,-38.231609996443,3912,SOMERVILLE
810,MATHIS AVENUE RESERVE,144.844369950254,-38.3844099968325,3941,TOOTGAROOK
811,LORNAS TRIANGLE BUSHLAND RESERVE,145.170179990303,-38.3501399979586,3918,BITTERN
812,CAMELOT COURT RESERVE,145.112679969285,-38.1897099970014,3930,MOUNT ELIZA
813,LANGRIGG AVENUE RESERVE,145.014259981066,-38.2672099977079,3934,MOUNT MARTHA
814,KENNEDY ROAD RESERVE,145.171249986566,-38.3908599972818,3927,SOMERS
815,INVERNESS COURT RESERVE,145.18014997521,-38.2365099959523,3912,SOMERVILLE
816,HOPETOUN NORFOLK FLORA & FAUNA RESERVE,145.025219995876,-38.2785700005293,3934,MOUNT MARTHA
817,HARRY BLYTHE PLAYGROUND,144.785979989538,-38.3668399957683,3942,BLAIRGOWRIE
818,MONGANS BRIDGE RECREATION RESERVE & CAMPING PARK,147.096260008491,-36.5848499816598,3691,MONGANS BRIDGE
819,SCENIC RESERVE,146.461949968156,-37.1344300051589,3723,MOUNT BULLER
820,SCORESBY RECREATION RESERVE,145.227089981715,-37.89650999611,3179,SCORESBY
821,MARY CHECKLEY RESERVE,145.938969990502,-38.4790199971734,3953,LEONGATHA
822,MAX PAWSEY RESERVE,145.297929983931,-38.0175899997885,3805,NARRE WARREN
823,MAYFIELD PARK RESERVE,145.117919974683,-37.8876299944992,3149,MOUNT WAVERLEY
824,MAYGAR PARK,145.515789983552,-36.9687199984977,3666,RUFFY
825,State Wildlife Reserve,145.290699979364,-38.2398499976541,3912,PEARCEDALE
826,WESTLANDS,146.856809977832,-36.1276300033661,3690,WEST WODONGA
827,WHARPARILLA FLORA RESERVE,144.722089954435,-36.1223499243647,3564,ECHUCA
828,WHATMOUGH PARK,145.104089987626,-37.7000100013808,3088,GREENSBOROUGH
829,MOUNT TANGLEFOOT PICNIC AREA,145.536529933308,-37.5092900243752,3777,TOOLANGI
830,MOUNT WORTH PICNIC PARK,146.056259997402,-38.2948499975563,3871,ALLAMBEE RESERVE
831,PAT ROLLO RESERVE,145.160169970167,-38.115459996825,3200,FRANKSTON NORTH
832,PENINSULA COUNTRY GOLF CLUB,145.152919988876,-38.1295699964105,3199,FRANKSTON
833,PERCE ALLISON OVAL,145.368199978139,-38.0401299968378,3807,BEACONSFIELD
834,MERRICKS STATION GROUND RESERVE,145.086809974739,-38.3890099994396,3916,MERRICKS
835,MUCKATAH RECREATION RESERVE,145.634310014276,-35.9995700346551,3644,MUCKATAH
836,MULBERRY RESERVE,145.160139970179,-38.1153999968225,3200,FRANKSTON NORTH
837,RESERVOIR RESERVE,145.058230003441,-37.8110499889141,3101,KEW
838,MOUNTAIN VIEW PICNIC GROUND,147.215420024206,-36.7756799790972,3699,BOGONG
839,RETA MATTHEWS RESERVE,145.277639984035,-37.8684599984512,3155,BORONIA
840,RICHARDS RESERVE,144.955579997091,-37.729590003374,3058,COBURG NORTH
841,G SCHOLTE,144.802739992491,-37.7302200029844,3021,ST ALBANS
842,GUASTALEGNAME PARK,143.557970049679,-35.358619978892,3585,SWAN HILL
843,Maffra Recreation Reserve,146.974010034251,-37.9555599849999,3860,MAFFRA
844,HICKS RESERVE,146.851109959367,-36.1309500059546,3690,WEST WODONGA
845,DAVID BISHOP RESERVE,146.862130082419,-36.1151299676888,3690,WEST WODONGA
846,JOSEPH BROWN OVAL,144.834449980337,-37.7177600040555,3036,KEILOR
847,MERRIGUM RECREATION RESERVE,145.128199995092,-36.3715100026367,3618,MERRIGUM
848,MERRIWA PARK,146.324589979719,-36.358459985989,3677,WANGARATTA
849,SLADEN PARK,144.346679976765,-38.1573999981687,3220,NEWTOWN
850,METHVEN PARK,144.973289979494,-37.771370002844,3057,BRUNSWICK EAST
851,WILLIAM J BARDOEL PARK,145.117919958786,-37.977629994056,3172,DINGLEY VILLAGE
852,WILLIAM RICKETTS SANCTUARY,145.355159986556,-37.8326699976398,3767,MOUNT DANDENONG
853,MICK JORDAN MEMORIAL GARDEN,144.960979975613,-37.7715100020032,3056,BRUNSWICK
854,WILLISON PARK,145.072519996808,-37.8398899930756,3124,CAMBERWELL
855,WILLSMERE PARK,145.047640004077,-37.7945699940841,3102,KEW EAST
856,WILSON OVAL,145.036260009475,-37.8456799926195,3144,MALVERN
857,Cuthbert Street Reserve,145.231679979785,-37.8343599950433,3135,HEATHMONT
858,Gilda Court Reserve,145.244459989429,-37.7993999977141,3134,RINGWOOD
859,Highland Avenue Reserve,145.267259986859,-37.7869099962222,3136,CROYDON
860,Leeds Drive Reserve,145.315449974813,-37.8202999977882,3137,KILSYTH SOUTH
861,Munro Street Reserve,145.223439991928,-37.8097699973185,3134,RINGWOOD
862,Settlers Orchard Reserve,145.263599986927,-37.7739199978867,3136,CROYDON HILLS
863,Jarrod Place Reserve,145.277609986538,-37.7645499988036,3136,CROYDON NORTH
864,Nangathan Way Reserve,145.280839986299,-37.7706999990668,3136,CROYDON NORTH
865,Rosedale Rifle Range,146.815739990951,-38.1746799943003,3847,ROSEDALE
866,Lions Park ,141.293780044907,-37.0363600066259,3318,EDENHOPE
867,YINNAR RECREATION RESERVE,146.338760031591,-38.305130002358,3840,HAZELWOOD
868,PIONEER PARK,144.760289978433,-37.6873400018485,3037,SYDENHAM
869,PROCTOR CRESCENT RESERVE,144.783389978834,-37.7116500005601,3038,KEILOR DOWNS
870,MCSHANE DRIVE RESERVE,144.824959978644,-37.7302000044893,3021,KEALBA
871,RIVIERA PARK,145.132369977184,-38.0870699967287,3198,SEAFORD
872,ROBERT BARRETT RESERVE,144.886759987823,-37.7776200009803,3032,MARIBYRNONG
873,ROBERT HEATLEY RESERVE,144.892369981619,-37.7890099994327,3011,FOOTSCRAY
874,ROBERTS RESERVE,144.981459991263,-37.760450002335,3057,BRUNSWICK EAST
875,ROBERTSON RECREATION RESERVE,145.123479978084,-38.3903999969768,3926,BALNARRING BEACH
876,ROCHESTER GOLF COURSE,144.651810031233,-36.3931799943865,3561,ROCHESTER
877,ROCHESTER RECREATION RESERVE,144.70698999623,-36.3631099808977,3561,ROCHESTER
878,YEA RIVER PARK,145.413199985857,-37.4781800074939,3763,KINGLAKE
879,Yarraduct Place Reserve,145.264729985021,-37.8074999981741,3136,CROYDON
880,CLYDE CAMERON RESERVE,146.879009967736,-36.1407799801404,3690,WODONGA
881,GRAHAM ANDREW PARK,146.884629995293,-36.154059961655,3690,WODONGA
882,W Jackson Reserve,145.30482997482,-37.83683999615,3137,KILSYTH SOUTH
883,SUSAN CAMPBELL RESERVE,146.868519944189,-36.1428300083558,3690,WODONGA
884,Sherbrook Park,145.218219988521,-37.8125999969738,3134,RINGWOOD
885,MURNONG RESERVE,144.309249995897,-38.3228800737173,3228,TORQUAY
886,Nugget Park,144.666249995471,-37.7271799967649,3335,ROCKBANK
887,Jackwood Park,144.661769998515,-37.7246599964485,3335,ROCKBANK
888,Aviation Reserve,144.555840010409,-37.710229997273,3338,BROOKFIELD
889,Botanica Springs Entry Reserve,144.549800000214,-37.7030499968259,3338,BROOKFIELD
890,Illawong Terrace Reserve,144.755369979572,-37.7501000029059,3023,BURNSIDE
891,Carinya Boulevard Reserve,144.752409979882,-37.7520000027178,3023,BURNSIDE
892,Burnside Heights Recreation Reserve,144.756689980775,-37.736720002912,3023,BURNSIDE HEIGHTS
893,Brookfield Village Park,144.740169982536,-37.7470300008613,3023,CAROLINE SPRINGS
894,The Ridge Park,144.729999986109,-37.7301000040708,3023,CAROLINE SPRINGS
895,Dobell Crescent Reserve,144.738249980359,-37.7050200014712,3023,CAROLINE SPRINGS
896,The Avenue Reserve,144.741899984573,-37.7251800018425,3023,CAROLINE SPRINGS
897,The Parkway Reserve ,144.72848997949,-37.7477000010781,3023,CAROLINE SPRINGS
898,Botanical Drive Reserve,144.733619985999,-37.7252600032847,3023,CAROLINE SPRINGS
899,Springside Recreation Reserve,144.7365599869,-37.712060001401,3023,CAROLINE SPRINGS
900,Kipling Circuit Reserve,144.712289982123,-37.6273999992402,3427,DIGGERS REST
901,Splendour Circuit Reserve,144.701129994514,-37.623029998462,3427,DIGGERS REST
902,Diggers Rest Recreation Reserve,144.707229985757,-37.6202499988552,3427,DIGGERS REST
903,Lancefield Circuit Reserve,144.557929931904,-37.7966599929475,3338,EYNESBURY
904,Mawson Gardens,144.725679988691,-37.703560001615,3336,FRASER RISE
905,Marlo Drive Reserve,144.557080001808,-37.6665299960847,3337,MELTON WEST
906,Parkview Street Reserve,144.572079987406,-37.6552199950152,3337,MELTON WEST
907,Arnolds Creek Recreation Reserve,144.543760006814,-37.6693699962146,3337,MELTON WEST
908,Hillside Recreation Reserve,144.738169972565,-37.6844900013384,3037,HILLSIDE
909,Parkwood Green Recreation Reserve,144.746269969671,-37.6984600019714,3037,HILLSIDE
910,Chelsea Gardens,144.753739974497,-37.6879900024104,3037,HILLSIDE
911,The Outlook Reserve,144.745179974412,-37.6839300018077,3037,HILLSIDE
912,Warringah Reserve,144.7538199723,-37.6897100024265,3037,HILLSIDE
913,Kurunjang Recreation Reserve,144.583789981404,-37.673919994913,3337,MELTON
914,Centenary Park,144.57431996541,-37.6704499932592,3337,KURUNJANG
915,Wordon Court Reserve,144.593159975825,-37.6640599954779,3337,KURUNJANG
916,Croydon Community Garden,145.302099979106,-37.8024399987459,3136,CROYDON
917,Judy Court Reserve,144.5822299922,-37.6878599948954,3337,MELTON
918,FJC Rogers Reserve,145.244159982444,-37.826899996864,3135,HEATHMONT
919,Grayswood Park,145.30410997506,-37.8358099960933,3137,KILSYTH SOUTH
920,Power Street Flora Reserve,145.278239987258,-37.7660999988571,3136,CROYDON NORTH
921,Staley Gardens,145.225399990971,-37.8153599984893,3134,RINGWOOD
922,CRANAGES PICNIC AREA,142.413199994626,-37.1084599801711,3401,ZUMSTEINS
923,CROCHAN BUSHLAND RESERVE,142.847089973046,-37.2942899757934,3377,CATHCART
924,ROCKY RANGE STATE FAUNAL RESERVE,148.286810145443,-36.9248500564013,3885,SUGGAN BUGGAN
925,H ROGERS RESERVE,144.938199980403,-37.7267900021699,3044,PASCOE VALE
926,SYDNEY PARGETER RECREATION AREA,145.248469970424,-37.9648499960186,3802,ENDEAVOUR HILLS
927,TAGGERTY RIVER CROSSING PICNIC GROUND,145.840139759577,-37.4901300059034,3779,MARYSVILLE
928,TALBOT PICNIC AREA,146.40145998498,-37.855790003213,3833,BAW BAW
929,YELLINGBO STATE FAUNAL RESERVE,145.497639979557,-37.8353999966655,3139,YELLINGBO
930,L J YORK RESERVE,144.974869996651,-37.7581800018702,3056,BRUNSWICK
931,YOU YANGS FOREST PARK,144.421809985291,-37.9609599949211,3211,LITTLE RIVER
932,YOUNG CREEK PICNIC AREA,148.514589983269,-37.6556799958286,3888,ORBOST
933,YULONG PARK,145.061529978269,-37.6973499994345,3083,BUNDOORA
934,ZERBES RESERVE,145.161019995208,-37.778289987798,3109,DONCASTER EAST
935,ZILLAH CRAWCOUR PARK,144.32191999149,-38.1445399984612,3220,NEWTOWN
936,ZOOLOGICAL GARDENS,144.945699944936,-37.7837399960354,3052,PARKVILLE
937,H P ZWAR RESERVE,144.996120010764,-37.7416600032219,3072,PRESTON
938,SMITHS MILL PICNIC AREA,142.425699985609,-37.1070699788853,3401,ZUMSTEINS
939,WALLAROO WILDLIFE PARK,142.564309981148,-37.1478999711975,3381,HALLS GAP
940,PIONEERS RESERVE FOR NATURAL FLORA,145.710699969405,-38.5181800010006,3951,KONGWAK
941,DALVUI TROTTING AND RECREATION RESERVE,142.945700012021,-38.2290099934087,3264,TERANG
942,CHAFFEY LANDING RESERVE,142.080420010622,-34.1659600343536,3505,MERBEIN
943,TALLANGATTA RECREATION GROUND,147.173480094264,-36.2178998022297,3700,TALLANGATTA
944,TALLANGATTA VALLEY RECREATION RESERVE,147.391529925841,-36.2873498466346,3701,TALLANGATTA VALLEY
945,LLEWELLYN PARK,145.217409972976,-37.8822399953496,3152,WANTIRNA SOUTH
946,LLOYD PARK,145.191049984013,-38.1491099951701,3910,LANGWARRIN
947,LLOYD RESERVE,144.822879991362,-37.7640900015586,3020,SUNSHINE NORTH
948,SORRENTO GOLF COURSE,144.724589975514,-38.3292899973939,3944,PORTSEA
949,WOMBOLANO PARK,145.253549974231,-37.8231399974935,3135,RINGWOOD EAST
950,CHAPMANS PICNIC AREA,143.423760006725,-37.4398499937593,3373,BEAUFORT
951,CHARLTON GOLF COURSE,143.327649992223,-36.2556799933875,3525,CHARLTON
952,CHATEAU REMY,143.405150014792,-37.0698499983058,3478,PERCYDALE
953,CHILLINGOLLAH FAUNAL RESERVE,143.02930997725,-35.2559599827852,3585,CHILLINGOLLAH
954,CHISHOLM STREET RESERVE,143.879839976029,-37.5496799981474,3350,BLACK HILL
955,CLAUDE LEE RESERVE,143.586259985532,-38.3428999904212,3250,COLAC
956,CLUNES GOLF CLUB,143.752649986436,-37.284569998409,3370,CLUNES
957,CLUNES RECREATION GROUND,143.785149994404,-37.2992899955618,3370,CLUNES
958,MYRTLE GULLY RESERVE,145.639870013784,-37.7126299949743,3799,WARBURTON
959,MYRTLEFORD SHOWGROUNDS,146.726259976788,-36.5445699871882,3737,MYRTLEFORD
960,NAMATIJIRA PARK,145.112369982919,-37.9306799913829,3169,CLAYTON SOUTH
961,NAPIER PARK,144.918939990157,-37.7414100039471,3041,STRATHMORE
962,NARIOKA RECREATION RESERVE,145.077919972822,-36.032630059987,3639,PICOLA
963,NARR MEIAN RESERVE,145.261049985941,-37.7777899977334,3136,CROYDON HILLS
964,NATHALIA RECREATION RESERVE,145.213759984667,-36.0529000534946,3638,NATHALIA
965,Kaniva Wetlands and Fauna Park,141.232310021096,-36.3787799712963,3419,KANIVA
966,JAMES SCULLIN MEMORIAL PARK,143.468760016148,-37.4378999985415,3373,TRAWALLA
967,MOOR PARK GOLF COURSE,142.399870005048,-36.5359599798317,3390,MURTOA
968,NINE CREEKS RESERVE,142.02348003611,-36.4559599769,3414,DIMBOOLA
969,OAKLANDS PARK,142.199590008032,-36.7028999753993,3400,HORSHAM
970,TINTALANDRA FAUNAL RESERVE,147.961530293132,-36.0490098782892,3708,TINTALDRA
971,TOM GRIFFIN RESERVE,145.413199978419,-37.9942899977092,3808,BEACONSFIELD UPPER
972,MCDONALD RESERVE,144.324359978098,-38.1821000058514,3216,BELMONT
973,COGLIN PARK,142.209309995195,-36.7165099740375,3400,HORSHAM
974,ROSALIND PARK,144.276560017762,-36.7547800018304,3550,BENDIGO
975,ROSANNA GOLF CLUB,145.102550006914,-37.745579997558,3083,CHADSTONE
976,ROSANNA PARKLANDS,145.067109964079,-37.7361299980594,3084,ROSANNA
977,ROSE RESERVE,145.229309985747,-37.9920699978556,3177,DOVETON
978,ROSEBUD COUNTRY CLUB,144.899309986127,-38.3787399965338,3939,ROSEBUD
979,ROSEBUD PUBLIC PARK,144.923479982787,-38.3701299961287,3939,ROSEBUD
980,ROTARY PARK,144.904899999986,-37.8671399997697,3016,WILLIAMSTOWN
981,ROMA RESERVE,145.324989980684,-37.9055899969835,3158,UPWEY
982,ROWAN RESERVE,145.236339977146,-37.9864299993091,3177,DOVETON
983,ROWVILLE RESERVE,145.22597997693,-37.9415099983116,3178,ROWVILLE
984,ROY PITMAN PLANTATION,145.293029982291,-37.7878599950229,3136,CROYDON
985,ROYAL AGRICULTURAL SHOWGROUNDS,144.911809996876,-37.7831800017203,3031,FLEMINGTON
986,RONALD E GRAY RESERVE,145.179029996986,-37.8065099912195,3131,NUNAWADING
987,RONALD RESERVE,146.421809960682,-38.2327199970687,3840,MORWELL
988,TALLINTYRE RESERVE,144.811259964593,-37.7992899989895,3020,SUNSHINE WEST
989,WICKS RESERVE,145.320449969844,-37.8572599973667,3154,THE BASIN
990,ALAN GOYNE PARK,146.850969935016,-36.1341800179651,3690,WEST WODONGA
991,ALBERT TERRILL RESERVE,146.843180013314,-36.1251499733143,3690,WEST WODONGA
992,KIAH RESERVE,144.712259975431,-37.8587399926724,3029,HOPPERS CROSSING
993,YOUNG PARK,144.210870069615,-35.8010090214293,3568,COHUNA
994,BINGLEY RESERVE,145.170969998558,-38.4718099987569,3922,VENTNOR
995,FERN TREE GULLY RESERVE,145.292259987011,-37.8908499956086,3156,FERNTREE GULLY
996,DUNOLLY RECREATION RESERVE,143.731260020459,-36.8545699973624,3472,DUNOLLY
997,RIDGE PARK PICNIC AREA,145.29152997863,-37.6603999981247,3775,CHRISTMAS HILLS
998,RINGWOOD NORTH RESERVE,145.238669990899,-37.7951699972855,3134,RINGWOOD NORTH
999,J R RISCBIETH GARDENS,144.899589980467,-37.7695700008035,3032,MARIBYRNONG
1000,C H SULLIVAN RESERVE,145.037919982662,-37.7312400010232,3073,RESERVOIR
1001,SUMMERHILL PARK,145.081409985238,-37.8583999888022,3146,GLEN IRIS
1002,SUMNER PARK,144.985699975085,-37.7737400017077,3057,BRUNSWICK EAST
1003,SUNBURY VILLAGE GREEN,144.7318099718,-37.5799899982599,3429,SUNBURY
1004,SUNSHINE GOLF COURSE,144.774729983609,-37.7930400014795,3026,DERRIMUT
1005,YARINGA CARAVAN PARK,145.241259975233,-38.2473499962587,3912,SOMERVILLE
1006,YARRA PARK,144.985099986203,-37.8196099959511,3002,EAST MELBOURNE
1007,YARRA VALLEY METROPOLITAN PARK,145.096530012459,-37.7501299981715,3107,TEMPLESTOWE LOWER
1008,YARRAMBAT PARK,145.131979984291,-37.6223499998207,3091,YARRAMBAT
1009,YARRAVILLE GARDENS,144.899369999703,-37.8139799990639,3013,YARRAVILLE
1010,BASS AVENUE BUSHLAND RESERVE,144.910189985,-38.3714399972305,3939,ROSEBUD
1011,CLARKES AVENUE RESERVE,145.029239986909,-38.253729995653,3934,MOUNT MARTHA
1012,A C CAMPBELL RESERVE,145.031099983113,-38.2398499966955,3931,MORNINGTON
1013,BERRY RESERVE,145.039929978988,-38.2178199951666,3931,MORNINGTON
1014,MEMORIAL PARK,142.342979992728,-37.6501400014517,3294,DUNKELD
1015,NIGRETTA FALLS RESERVE,141.925580076329,-37.6556800128301,3301,BOCHARA
1016,VICTORIA PARK,142.020500045288,-37.7500700097198,3300,HAMILTON
1017,WOODHOUSE-NAREEB RECREATION RESERVE,142.49249003517,-37.8064699990542,3293,GLENTHOMPSON
1018,BALMORAL RECREATION RESERVE,141.835259985006,-37.2446500062955,3407,BALMORAL
1019,LONGFELLA PARK,141.836859985453,-37.2478400054038,3407,BALMORAL
1020,DANS NATURE RESERVE,144.376529970732,-38.2684300608142,3227,CONNEWARRE
1021,RICE NATURE RESERVE,144.348519978675,-38.2686200439693,3217,MOUNT DUNEED
1022,EASTERN RESERVE,143.997870005819,-38.2402000519594,3241,WINCHELSEA
1023,KALKARRA PARK,144.34159997224,-38.2559800314367,3217,MOUNT DUNEED
1024,SARABANDE RESERVE,144.315499994841,-38.3318100771824,3228,TORQUAY
1025,ST ANNES RESERVE,144.344959991281,-38.316030071024,3228,TORQUAY
1026,JAN JUC CREEK RESERVE,144.302229992789,-38.3451300813917,3228,JAN JUC
1027,GREENLAW RESERVE,145.024009991474,-38.2750899994249,3934,MOUNT MARTHA
1028,BOB PETTITT RESERVE,144.294029983903,-38.3483700858732,3228,JAN JUC
1029,BUSHFIELD RECREATION RESERVE,142.506989959219,-38.325899987039,3281,BUSHFIELD
1030,MERRIVALE RECREATION RESERVE,142.455609978692,-38.3765299833553,3280,WARRNAMBOOL
1031,THUNDER POINT RACEWAY,142.465829956194,-38.3942599850549,3280,WARRNAMBOOL
1032,WARRNAMBOOL CIVIC GREEN,142.482469976984,-38.3859399859722,3280,WARRNAMBOOL
1033,CHARLES STREET RECREATION RESERVE,147.565180004713,-38.0567599875958,3851,LOCH SPORT
1034,HEYFIELD RACECOURSE RESERVE,146.778420002848,-37.9816999932681,3858,HEYFIELD
1035,Rosedale Recreation Reserve,146.779979988486,-38.1556899964701,3847,ROSEDALE
1036,APEX PARK,147.079730020078,-37.9713899882145,3862,STRATFORD
1037,LONGFORD RECREATION RESERVE,147.088129995136,-38.162039987051,3851,LONGFORD
1038,LIONS PARK,147.577880025478,-38.0491999905515,3851,LOCH SPORT
1039,PINE LODGE RECREATION RESERVE,147.08052003216,-37.9533299861623,3862,STRATFORD
1040,CULLINAN PARK,147.062150003798,-38.1121699837407,3850,SALE
1041,LITTLE MCMILLAN PARK,147.06882000669,-38.1117799842515,3850,SALE
1042,GORDON ROLFE RESERVE,145.236769976408,-38.2528599959805,3912,SOMERVILLE
1043,MEMORIAL PARK,147.186779991103,-38.37800999401,3851,SEASPRAY
1044,MACALISTER SWAMP RESERVE,146.968910020694,-37.9591399856319,3860,MAFFRA
1045,CANAL RESERVE,147.067160003138,-38.1185899841662,3850,SALE
1046,PORTSEA LAGOON,144.713809964523,-38.3283799976622,3944,PORTSEA
1047,Adams Reserve,145.2933399819,-37.7909099960634,3136,CROYDON
1048,Appletree Hill Reserve,145.309739973816,-37.838219996501,3137,KILSYTH SOUTH
1049,Carol Hancock Reserve,145.276379986829,-37.7728899977698,3136,CROYDON NORTH
1050,ELIZABETH DRIVE RESERVE,144.914929983794,-38.3747599965739,3939,ROSEBUD
1051,DROMANA PARADE RESERVE,144.993419976726,-38.3127299975583,3936,SAFETY BEACH
1052,PEEL STREET OVAL,143.731809966093,-37.040680000566,3465,MARYBOROUGH
1053,BEALIBA RECREATION RESERVE,143.548880000182,-36.792930000509,3475,BEALIBA
1054,BEAUFORT RECREATION RESERVE,143.380419998208,-37.4398499930761,3373,BEAUFORT
1055,BEAUTY SPOT SCENIC RESERVE,143.387649996792,-38.7037399902178,3238,JOHANNA
1056,BEN MAJOR FLORA RESERVE,143.39347998769,-37.3087399950712,3373,CHUTE
1057,BEN MORE RESERVE,143.43458999118,-37.2206799880707,3468,AMPHITHEATRE
1058,BETLEY RECREATION RESERVE,143.800149960569,-36.9081800000665,3472,BETLEY
1059,BICENTENNARY COMMUNITY PARK,142.02903003711,-36.4567899772169,3414,DIMBOOLA
1060,SUTCLIFFE RESERVE,144.348839970389,-38.0625299937299,3214,CORIO
1061,SUNSHINE RESERVE,145.008479997971,-38.286379999429,3934,MOUNT MARTHA
1062,LIMESTONE CREEK SCENIC RESERVE,148.051260333959,-36.8551301537905,3900,COBBERAS
1063,LINCOLN SQUARE,144.962879986929,-37.8024199983249,3053,CARLTON
1064,YARROWEYAH RECREATION GROUND,145.559869940858,-35.9195701308586,3644,YARROWEYAH
1065,YARRUNGA RESERVE,145.269639987758,-37.775039997314,3136,CROYDON HILLS
1066,H W LEE RESERVE,144.832289996267,-37.8704599948553,3018,ALTONA
1067,JAWBONE CONSERVATION RESERVE,144.875150003766,-37.8615699997107,3016,WILLIAMSTOWN
1068,LAVERTON CREEK RESERVE,144.768929966627,-37.8581399954905,3028,LAVERTON
1069,MARKET STREET RESERVE,144.877579988835,-37.8477800007905,3015,NEWPORT
1070,R V LONG RESERVE,144.87519000238,-37.8558300006779,3016,WILLIAMSTOWN NORTH
1071,CROPLEY RESERVE,144.776309965395,-37.8483399949285,3028,LAVERTON
1072,E G SMITH RESERVE,144.881109990209,-37.8293999999168,3015,SPOTSWOOD
1073,W G CRESSER RESERVE,144.845479990351,-37.8669399987283,3018,SEAHOLME
1074,WILLIAMSTOWN RAILWAY RESERVE,144.896609986661,-37.8649900001919,3016,SUNSHINE
1075,NEWPORT LAKES RESERVE,144.871769985933,-37.8377200013333,3015,NEWPORT
1076,RIVERSIDE RECREATION RESERVE,142.237300014829,-36.701009974536,3401,RIVERSIDE
1077,GREEN LAKE RECREATION RESERVE,142.29721000429,-36.7849199804852,3401,BUNGALALLY
1078,HORSHAM POLICE PADDOCK,142.211290017911,-36.6931599770045,3401,DOOEN
1079,DURHAM OX RECREATION RESERVE,143.919879784765,-36.1304598377605,3576,DURHAM OX
1080,ARNOLD CRICKET RESERVE,143.867549947166,-36.685390005952,3551,ARNOLD
1081,CALIVIL RECREATION RESERVE,144.072250021127,-36.2999800026444,3573,CALIVIL
1082,KELLY PARK,144.115389928254,-36.0541399588589,3575,PYRAMID HILL
1083,LIONS PARK PYRAMID HILL,144.114609926348,-36.0544799568105,3575,PYRAMID HILL
1084,TARNAGULLA PARK,143.831549980791,-36.7709200051984,3551,TARNAGULLA
1085,YARRAWALLA RECREATION RESERVE,144.033489962416,-36.178820013367,3575,YARRAWALLA
1086,WEDDERBURN HISTORICAL ENGINE PARK,143.618710008197,-36.422509995539,3518,WEDDERBURN
1087,SOLDIERS MEMORIAL PARK,143.83250998271,-36.7701100052544,3551,TARNAGULLA
1088,SERPENTINE NETBALL COURTS,143.970570031108,-36.4098200107958,3517,SERPENTINE
1089,BURSTON RESERVE,144.975229982807,-37.811419996225,3002,EAST MELBOURNE
1090,GARDINER RESERVE,144.943729960612,-37.7991099959962,3051,NORTH MELBOURNE
1091,MURCHISON SQUARE,144.9730699874,-37.8002099970079,3053,CARLTON
1092,J  MURPHY RESERVE,144.782639989396,-37.8845699945804,3028,ALTONA MEADOWS
1093,MURRINDINDI SCENIC RESERVE,145.576809894997,-37.4323500297426,3717,MURRINDINDI
1094,WON WRON RECREATION RESERVE,146.716050020159,-38.4717700045899,3971,WON WRON
1095,WONGANOOKAH FAUNA & FLORA SANCTUARY,145.757640030611,-36.7559600033286,3669,MARRAWEENEY
1096,C R WOOD PARK,145.688479953341,-36.0754000200015,3649,KATAMATITE
1097,KATAMATITE RECREATION RESERVE,145.688479953341,-36.0754000200015,3649,KATAMATITE
1098,INGLETON SPRING PICNIC AREA,142.369870060738,-37.3006799918573,3314,GRAMPIANS
1099,JACK FLETCHER FLORA RESERVE,143.203960001997,-38.4928599866505,3266,SIMPSON
1100,LINDSAY PARK,143.882919986421,-37.4212399975474,3363,CRESWICK
1101,BELMONT PARK,144.355699988389,-38.1837399969239,3216,BELMONT
1102,CHARLES WALKER RESERVE,145.399869970887,-37.921509996323,3159,MENZIES CREEK
1103,CHELSWORTH PARK,145.048719988691,-37.7780599990558,3079,IVANHOE
1104,CHEONG PARK,145.268109984238,-37.8092899984204,3136,CROYDON
1105,AMPHITHEATRE RECREATION RESERVE,143.398110009879,-37.1849799915881,3468,AMPHITHEATRE
1106,ANNYA CAMP PICNIC AREA,141.582120008225,-38.0183999960975,3303,HOTSPUR
1107,APEX PARK,143.884849895285,-35.686910001663,3579,REEDY LAKE
1108,ARNOLD RECREATION RESERVE,143.866259947244,-36.6867900058786,3551,ARNOLD
1109,ALBERT NEWCOMBE PLAYGROUND,143.568199973997,-38.3503999893346,3250,COLAC
1110,ALEXANDRA GARDENS,142.930330006884,-37.2818499676928,3377,ARARAT
1111,ALEXANDRA PARK,141.584660100091,-38.3467799912,3305,PORTLAND
1112,R W STONE RESERVE,145.163139973138,-38.3896499967131,3927,SOMERS
1113,REABURN RESERVE,144.951159981973,-37.7654400022947,3056,BRUNSWICK
1114,G F STIRLING RESERVE,144.78647998058,-37.8766399937911,3028,ALTONA MEADOWS
1115,WOODSIDE BEACH PICNIC AREA,146.978479983151,-38.5509599950372,3874,WOODSIDE BEACH
1116,WOODFIELD PARK,145.565139942087,-35.9001301251046,3644,YARROWEYAH
1117,WOORALLA RESERVE,145.093479980451,-38.2187399988561,3931,MORNINGTON
1118,WOODLANDS PARK,144.911899994227,-37.7427900024759,3040,ESSENDON
1119,HUDSON PARK,145.840419996283,-38.4503999988863,3950,KORUMBURRA
1120,HURSTBRIDGE PARK,145.189599986535,-37.6390899999097,3099,HURSTBRIDGE
1121,BEMM RIVER RESERVE,148.961530073419,-37.7565100228576,3889,BEMM RIVER
1122,BEN FRILAY OVAL,145.188759986597,-37.6398500008562,3099,HURSTBRIDGE
1123,BENNETTSWOOD SPORTS GROUND,145.114310006488,-37.8495699880144,3125,BURWOOD
1124,EVAN PARK,145.460419985982,-37.6115099896472,3777,HEALESVILLE
1125,FAIRY PARK,144.26180995357,-37.8915099959647,3213,ANAKIE
1126,BALMORAL GOLF CLUB,141.869310002567,-37.2395700041535,3407,BALMORAL
1127,BAMBILL BUSHLAND RESERVE,141.504310029175,-34.4070700382106,3496,WERRIMULL
1128,WANTIRNA RECREATION RESERVE,145.205139988548,-37.8601299963614,3152,WANTIRNA
1129,WAR MEMORIAL PARK RESERVE,145.097089982198,-37.7058500019347,3088,GREENSBOROUGH
1130,WARATAH RESERVE,145.247909969367,-37.9932799981555,3177,EUMEMMERRING
1131,WARR PARK,144.964479995223,-37.7602900021728,3056,BRUNSWICK
1132,WARRAWEE PARK,145.072730000407,-37.6966799992006,3083,BUNDOORA
1133,WARRINGAL PARK,145.071259970894,-37.7587400004853,3084,HEIDELBERG
1134,WARWICK K GLENDENNING RESERVE,145.335139988219,-37.9926299972316,3804,NARRE WARREN NORTH
1135,SOLENT CRESCENT RESERVE,144.786089979684,-37.7086800017242,3038,TAYLORS LAKES
1136,NANCY STREET RESERVE,144.793399980397,-37.7834500006824,3020,SUNSHINE WEST
1137,BELLARA CRESCENT RESERVE,144.819909974469,-37.73066000415,3021,KEALBA
1138,CAPESTHORNE DRIVE RESERVE,144.760909991897,-37.7940899995524,3026,DERRIMUT
1139,BOTHWELL GREEN RESERVE,144.756509996856,-37.7922699992441,3026,DERRIMUT
1140,KINGS PARK RESERVE,144.776559977807,-37.7322800032265,3021,KINGS PARK
1141,ESPLANADE RESERVE,144.766149978821,-37.692940001279,3037,SYDENHAM
1142,WEST ESPLANADE RESERVE,144.797349989158,-37.7420300036929,3021,ST ALBANS
1143,CLARIAN STREET RESERVE,144.789239985859,-37.7672400023005,3023,CAIRNLEA
1144,KENWOOD GREEN RESERVE,144.768279982523,-37.7949600010556,3026,DERRIMUT
1145,HAMMERWOOD AVENUE RESERVE,144.770279995134,-37.7860300041354,3026,DERRIMUT
1146,ARTHUR STREET RESERVE,144.80604998653,-37.7338300042309,3021,ST ALBANS
1147,NICKSON GARDENS,144.805109979634,-37.7623200003439,3021,ST ALBANS
1148,HECTOR ANDERSON RESERVE,145.255839972766,-38.0761699962189,3975,LYNDHURST
1149,IVY ONEIL PARK,145.83388998552,-38.4411000003594,3950,KORUMBURRA
1150,PETER AVOLA MEMORIAL PAVILION,145.268060000644,-37.5333200016965,3099,STRATHEWEN
1151,ROBERTSON RESERVE,144.944190014557,-37.6972900033954,3046,GLENROY
1152,TAGGS RESERVE,144.935040001395,-37.7134200008712,3046,GLENROY
1153,TRUSCOTT RESERVE,144.935600009708,-37.7096300008859,3046,GLENROY
1154,CAPTAIN CHRIS SLATTERY RESERVE,144.907389988455,-37.7016000019128,3046,GLENROY
1155,JOE MALLIA RESERVE,144.915920002164,-37.7184200025985,3046,AIRPORT WEST
1156,JACINTA BARTLETT RESERVE,144.946130007276,-37.7152800006397,3044,PASCOE VALE
1157,FATHER GAVAN FITZPATRICK RESERVE,144.907200005179,-37.7137300029751,3046,OAK PARK
1158,IVAN PAGE RESERVE,144.908479996356,-37.7100400020394,3046,GLENROY
1159,MCCLEAN PARK,144.912389984489,-37.7025400012592,3046,GLENROY
1160,NAPOLI PARK,144.888149975219,-37.6232400011155,3059,GREENVALE
1161,HILLSIDE RESERVE,144.75566997555,-37.7030800036343,3037,HILLSIDE
1162,ST ANDREWS PARK,144.770039996786,-37.7803400030839,3023,DEER PARK
1163,MONTE CHRISTO BUSHLAND RESERVE,143.898079982863,-37.5497999973141,3350,NERRINA
1164,JUDD MEMORIAL PARK,145.131189998538,-36.3721100018469,3618,MERRIGUM
1165,FRIENDLY SOCIETIES PARK,142.46916997927,-38.3763799841418,3280,WARRNAMBOOL
1166,KNOX REGIONAL SPORTS PARK,145.209699967552,-37.8800999948014,3152,WANTIRNA SOUTH
1167,VICTORY PARK,143.838479991812,-37.5931400007775,3356,SEBASTOPOL
1168,LLANBERRIS ATHLETICS RESERVE,143.866709985334,-37.5691999954298,3350,GOLDEN POINT
1169,LLANBERRIS NETBALL RESERVE,143.866669984401,-37.5685999954235,3350,GOLDEN POINT
1170,EASTERN OVAL,143.863479977053,-37.5576799971523,3350,BALLARAT EAST
1171,CITY OVAL,143.837779983436,-37.5583200015174,3350,LAKE WENDOUREE
1172,BALLARAT BOTANICAL GARDENS,143.821380009248,-37.5486099984129,3350,LAKE WENDOUREE
1173,ALFREDTON RECREATION RESERVE,143.799089996357,-37.5560699950414,3350,ALFREDTON
1174,MARTY BUSCH RESERVE,143.843329998926,-37.6035299981508,3356,SEBASTOPOL
1175,PALAROO PARK,143.561280036898,-35.3290999819064,3585,SWAN HILL
1176,FERDINAND VON MUELLER RAIN GARDEN,145.319989969999,-37.8565799973304,3154,THE BASIN
1177,FALCON PARK,145.399129986085,-36.4324599868643,3631,KIALLA
1178,KENNY PARK,142.053310014859,-34.1649500308231,3505,MERBEIN
1179,SANDILONG PARK RACECOURSE,142.209699914119,-34.1865999777989,3501,NICHOLS POINT
1180,RIVERVIEW WAY RESERVE,142.157939985571,-34.1680800357418,3500,MILDURA
1181,MUNRO COURT RESERVE,142.078310013263,-34.1743400342902,3505,BIRDWOODTON
1182,HENLEY PARK,142.147410000906,-34.1837000332494,3500,MILDURA
1183,CURETON AVENUE EAST DRAINAGE RESERVE,142.181870013783,-34.1939400202681,3500,MILDURA
1184,BUXTON - SOBEE PARK,142.17586003908,-34.2015500309778,3500,MILDURA
1185,KALIMNA PARK,142.146020023624,-34.2019500312914,3500,MILDURA
1186,FEDERATION DRIVE RESERVE,142.127350019886,-34.2093200302851,3500,MILDURA
1187,HERITAGE GARDENS,142.179790070991,-34.2318100244003,3498,IRYMPLE
1188,IRYMPLE LIONS PARK,142.174940073533,-34.2342900271418,3498,IRYMPLE
1189,SIMON COURT PARK,142.193519996531,-34.3089700346879,3496,RED CLIFFS
1190,DELAMERE COURT RESERVE,142.065790013931,-34.1651400315255,3505,MERBEIN
1191,WILKIE DRIVE RECREATION RESERVE,142.175750070196,-34.2368700272047,3498,IRYMPLE
1192,JAYCEE PARK,142.16325999276,-34.1802300261232,3500,MILDURA
1193,NICHOLS POINT RESERVE,142.204470088966,-34.2103700086589,3501,NICHOLS POINT
1194,BLACKBURN PARK,142.320190017887,-35.072729981907,3490,OUYEN
1195,UNDERBOOL RECREATION RESERVE,141.814879974334,-35.1679099660922,3509,UNDERBOOL
1196,TYABB PARK,145.164129992381,-38.2603399959895,3913,TYABB
1197,OLYMPIC PARK,144.895179987868,-38.3695699961965,3939,ROSEBUD
1198,LONG POINT RESERVE,144.913839979485,-38.4519699949706,3939,CAPE SCHANCK
1199,KORONG VALE RECREATION RESERVE,143.699090001449,-36.3542499961625,3520,KORONG VALE
1200,LAKE MUNDI STATE GAME RESERVE,141.009309752087,-37.4998502295007,3312,LAKE MUNDI
1201,BARRAPORT RECREATION RESERVE,143.627090051788,-36.0148499884617,3537,BARRAPORT
1202,BATS RIDGE FAUNAL RESERVE,141.496810007551,-38.3395699893919,3305,PORTLAND WEST
1203,CAL GULLY OVAL,143.734589960731,-37.039570000735,3465,MARYBOROUGH
1204,CALEMBEEN PARK,143.889079980694,-37.4179199979204,3363,CRESWICK
1205,MOUNT BULLER ROAD SCENIC RESERVE,146.423759966993,-37.1134600001854,3722,MIRIMBAH
1206,MOUNT CRAVENSVILLE SCENIC RESERVE,147.603760069493,-36.4701299725111,3701,DARTMOUTH
1207,MOUNT DANDENONG OBSERVATORY RESERVE,145.347919986124,-37.8298499971158,3767,MOUNT DANDENONG
1208,MOUNT DONNA BUANG RESERVE,145.678479983288,-37.7112400037143,3799,WARBURTON
1209,MOUNT HOTHAM ALPINE RESORT,147.119309979153,-36.9840099890085,3741,HOTHAM HEIGHTS
1210,MOUNT MARTHA PUBLIC GOLF COURSE,145.02430998819,-38.2862399985139,3934,MOUNT MARTHA
1211,MOTSCHALL RESERVE,145.258989994188,-37.6426799967486,3759,PANTON HILL
1212,LALBERT RECREATION RESERVE,143.378880017297,-35.6719899718032,3542,LALBERT
1213,MIDLANDS GOLF COURSE,143.855420035304,-37.5292899944622,3350,INVERMAY PARK
1214,MALAKOFF BUSHLAND RESERVE,142.984030061134,-36.9676299879647,3387,GREENS CREEK
1215,M W W CLIFTON RESERVE,144.953199977473,-37.7667900014424,3056,BRUNSWICK
1216,FARNHAM STREET PARK,144.929869963802,-37.7826299989482,3031,FLEMINGTON
1217,FAULKNER RESERVE,146.959310003232,-36.7434599861774,3741,BRIGHT
1218,W B FERRARI PARK,145.350479980212,-36.3938700092116,3629,MOOROOPNA
1219,IVAN SWINBURNE RESERVE,146.746529976081,-36.5737399849079,3737,MYRTLEFORD
1220,JACK GRUT RESERVE,145.098779990638,-38.0093399939321,3195,MORDIALLOC
1221,CAMP HILL PICNIC AREA,143.379030026041,-37.4234599928887,3373,BEAUFORT
1222,CARISBROOK SHOWGROUNDS,143.797649994108,-37.0387400017275,3464,CARISBROOK
1223,BOMJINNA PICNIC AREA,142.612919999483,-37.2715099688073,3381,POMONAL
1224,REDCOURT RESERVE,145.219899983193,-37.8944499945981,3179,SCORESBY
1225,REES PARK,144.50897998009,-37.9792399938142,3211,LITTLE RIVER
1226,STRAIGHT SIX PICNIC AREA,145.509589970787,-37.5553999977614,3777,TOOLANGI
1227,D MCDONALD RESERVE,144.974309990616,-37.7409600027249,3058,COBURG
1228,J A MCDONALD GARDENS,144.895139988359,-37.7684600014938,3032,MARIBYRNONG
1229,MCDONALD/HEALY PLAYGROUND,145.072089997895,-37.9948499940048,3195,PARKDALE
1230,MCDONNELL PARK,145.014290013609,-37.7693300026387,3070,NORTHCOTE
1231,MCGRATH RECREATION GROUND,147.318759972118,-36.0973498327125,3701,GRANYA
1232,H V MCKAY MEMORIAL GARDENS,144.828389965299,-37.7836699990535,3020,SUNSHINE
1233,MCKENZIE FLORA RESERVE,145.716529974397,-37.2070699972599,3714,ALEXANDRA
1234,R C MCNAMARA RESERVE,146.723029979664,-36.5674499860923,3737,MYRTLEFORD
1235,OUTER CIRCLE RAILWAY LINEAR PARK,145.075980000695,-37.8445699913427,3124,CAMBERWELL
1236,MERINDA PARK,145.268299978365,-38.0781399960981,3977,CRANBOURNE NORTH
1237,J.R. PARSONS RESERVE,144.835419965935,-37.794289999596,3020,SUNSHINE
1238,MELBOURNE CRICKET GROUND,144.984589985206,-37.8203999959212,3002,EAST MELBOURNE
1239,PATTERSON PARK,147.854309966369,-37.8887400005347,3904,METUNG
1240,PAUL HUCKIN PARK,144.936370004004,-37.7518900042009,3044,PASCOE VALE SOUTH
1241,PAUL LARKINGS RECREATION RESERVE,146.28564997836,-36.3292299859267,3678,WALDARA
1242,PEANUT FARM RESERVE,144.978439971869,-37.8700799928081,3182,ST KILDA
1243,PEARCEDALE RESERVE,145.229869981108,-38.2037399971993,3912,PEARCEDALE
1244,A M PEARSON PARK,147.593199972197,-37.1006799627514,3898,OMEO
1245,ADRIAN BUTLER OVAL,145.142919996953,-38.153739996868,3199,FRANKSTON
1246,GOULBURN PARK CARAVAN PARK,145.131529987404,-37.0306800090722,3660,SEYMOUR
1247,GRACEDALE PARK,145.263149981654,-37.8223499971563,3135,RINGWOOD EAST
1248,KEVIN SHORTEN RESERVE,144.878010004555,-37.7941600014876,3012,WEST FOOTSCRAY
1249,KEVIN WHEELAHAN GARDENS,144.838479962271,-37.7862399997537,3020,SUNSHINE
1250,KILLINGWORTH RIVER RESERVE,145.426019998305,-37.1635500054129,3717,KILLINGWORTH
1251,KOW SWAMP PICNIC RESERVE,144.315700144586,-35.9534599352701,3566,GUNBOWER
1252,KUDD PARK RESERVE,145.907470010101,-38.0311799981344,3818,JINDIVICK
1253,KURRAJONG RESERVE,145.303809979685,-37.794539997816,3136,CROYDON
1254,KYABRAM RECREATION GROUND,145.041809996547,-36.31179000631,3620,KYABRAM
1255,KYVALLEY RECREATION RESERVE,145.005700001284,-36.2848499856619,3621,KYVALLEY
1256,LA TROBE RIVER PICNIC AREA,146.088199962636,-37.9712400058806,3825,FUMINA SOUTH
1257,LAVERTON RECREATION RESERVE,144.784589965477,-37.8620699945732,3028,ALTONA MEADOWS
1258,LEISURELAND FAIR,145.212369982714,-38.1720699957897,3910,LANGWARRIN
1259,LEITCHVILLE RECREATION RESERVE,144.298080104243,-35.9050498338019,3567,LEITCHVILLE
1260,HOFFMAN RESERVE,144.87806998653,-37.8405700007792,3015,NEWPORT
1261,LES ROGERS RESERVE,144.872920023204,-37.7870700010976,3012,MAIDSTONE
1262,LEWIS PARK,145.246349981762,-37.8658199952578,3152,WANTIRNA SOUTH
1263,BUNARONG PARK,145.157399970999,-38.1574399958918,3199,FRANKSTON
1264,BUNDALAGUAH RECREATION RESERVE,147.022490037211,-38.0263899831586,3851,BUNDALAGUAH
1265,BADEN POWELL RESERVE,145.108479971977,-38.1720699986034,3199,FRANKSTON SOUTH
1266,J A  BABINGTON PARK,145.189869952745,-38.2970699959972,3915,HASTINGS
1267,D S BAIN RESERVE,144.961259986224,-37.7192900026981,3058,COBURG NORTH
1268,SALE PRIMARY SCHOOL,145.189869952745,-38.2970699959972,3915,HASTINGS
1269,BUSH RESERVE,144.958479995569,-37.7390100036307,3058,COBURG
1270,BUTTERFIELD RESERVE,145.436089973538,-37.8951699977028,3791,KALLISTA
1271,SMART STREET RESERVE,145.022700018058,-37.8160899915056,3122,HAWTHORN
1272,C B SMITH RESERVE,144.96865998766,-37.7034400021055,3060,FAWKNER
1273,SKINNER RESERVE,144.854869975367,-37.7867900018695,3019,BRAYBROOK
1274,SORRENTO DOWNS GOLF COURSE,144.752369984262,-38.3506799963984,3943,SORRENTO
1275,SOUTH BARWON RESERVE,144.357899989026,-38.1834899970673,3216,BELMONT
1276,SOMERS PARK,145.72041995495,-37.6415100132711,3778,FERNSHAW
1277,C W SOUTHON RESERVE,147.722609976172,-37.9103399931554,3880,PAYNESVILLE
1278,SPADONI RESERVE,145.351259959941,-37.6820699964296,3770,YERING
1279,SPARKS RESERVE,145.037679970525,-37.7787899993021,3079,IVANHOE
1280,SPENCER SQUARE,144.954029988664,-37.819009996823,3004,MELBOURNE
1281,R A WADESON RESERVE,145.151990000019,-37.6664999994782,3089,DIAMOND CREEK
1282,SPRING STREET RESERVE,145.020699964102,-37.9562399922359,3191,SANDRINGHAM
1283,BUNDALEER PARK,144.264529981826,-36.7345000029144,3550,LONG GULLY
1284,WATSON PARK,146.4138099768,-38.3103700009544,3842,CHURCHILL
1285,WATSON RESERVE,145.079869988556,-37.8670699907499,3147,ASHBURTON
1286,WATTLE PARK,145.103200003424,-37.8403999861915,3125,BURWOOD
1287,L L STEVENSON RESERVE,145.118599970705,-38.022659995381,3195,ASPENDALE GARDENS
1288,UPWEY RECREATION RESERVE,145.337089967909,-37.9026299968105,3158,UPWEY
1289,URALLA NATURE RESERVE,146.144309984754,-38.2284599975753,3824,TRAFALGAR SOUTH
1290,VAL BOYD RESERVE,145.292919982656,-37.8840099956122,3156,FERNTREE GULLY
1291,VALE STREET OVAL,146.25652997356,-38.1823499995291,3825,MOE
1292,VALLEY RESERVE,145.137779996265,-37.8781999888117,3149,MOUNT WAVERLEY
1293,VAN CLEEF RESERVE,145.791179993697,-38.6762999947284,3956,VENUS BAY
1294,VENTNOR KOALA RESERVE,145.216529946024,-38.4667899998846,3922,VENTNOR
1295,VERMONT RECREATION RESERVE,145.191939974308,-37.8377499933076,3133,VERMONT
1296,VICTORIA PARK,144.73791981065,-36.1145697923802,3564,ECHUCA
1297,VICTORIA PARK,144.135569991514,-37.357049997422,3460,DAYLESFORD
1298,VICTORIA PARK,145.04739001327,-37.8023699911153,3101,KEW
1299,VICTORIA PARK,146.982350029251,-37.9601599856672,3860,MAFFRA
1300,HAZELWOOD PONDAGE PARK,146.356260028217,-38.2992900026173,3840,HAZELWOOD
1301,HAZELWOOD RECREATION RESERVE,146.421529958171,-38.295960002439,3842,CHURCHILL
1302,HAZELWOOD SOUTH RECREATION RESERVE,146.345420037422,-38.3051300028508,3840,HAZELWOOD
1303,HAYES PARK,145.017949994306,-37.7570900008136,3071,THORNBURY
1304,HAYES RESERVE,144.783479965457,-37.01763000722,3522,TOOBORAC
1305,HEANY PARK,145.254309990241,-37.9392899982665,3178,ROWVILLE
1306,BALFE PARK,144.977569979409,-37.7745300031563,3057,BRUNSWICK EAST
1307,BANDIANA GOLF COURSE,146.919029997979,-36.1520699422629,3691,BANDIANA
1308,BANKSIA RESERVE,145.042229983028,-37.9864999919006,3193,BEAUMARIS
1309,BANKSIA SQUARE,145.174869994882,-38.3912399975348,3927,SOMERS
1310,BARBARA BAYER RESERVE,144.899590001811,-37.8126299990705,3013,YARRAVILLE
1311,BARNGEONG RESERVE,145.304489981523,-37.7768799977536,3136,CROYDON
1312,BASSETT RESERVE,144.870489992166,-37.8098500010736,3012,WEST FOOTSCRAY
1313,BATCHELORS GREEN,146.31441997017,-36.36029998425,3677,WANGARATTA
1314,BATES RESERVE,144.898479961796,-37.8515099992357,3016,WILLIAMSTOWN
1315,BATMAN PARK,144.992739978481,-37.7680700021544,3070,NORTHCOTE
1316,BAULKAMAUGH RECREATION RESERVE,145.391259981242,-36.0590100459,3636,NUMURKAH
1317,BAW BAW ALPINE RESERVE,146.274870006135,-37.8445699897796,3833,BAW BAW
1318,BAXTER RECREATION RESERVE,145.141399996837,-38.193269997006,3199,FRANKSTON SOUTH
1319,BAYSWATER PARK,145.269309977895,-37.8376299966799,3153,BAYSWATER
1320,MARIE WALLACE BAYSWATER PARK,145.269309977895,-37.8376299966799,3153,BAYSWATER
1321,BAYSWATER ROAD PARK,144.923779960656,-37.7937400016018,3031,KENSINGTON
1322,CATHKIN RESERVE,145.580980005569,-37.1595700033178,3714,CATHKIN
1323,CATJUMP PARK,145.17514000353,-37.7803999907881,3109,DONCASTER EAST
1324,BELMONT COMMON,144.351689968485,-38.1706099965794,3216,BELMONT
1325,BELMONT PARK,145.069689993946,-37.8156899887309,3103,BALWYN
1326,CHARLES GREEN RESERVE,145.252229968441,-37.9858199984098,3802,ENDEAVOUR HILLS
1327,CHARLES GRIMES RESERVE,144.906530016448,-37.804849997495,3011,FOOTSCRAY
1328,CHARLES MUTTON RESERVE,144.970459976195,-37.7140900022947,3060,FAWKNER
1329,CHINAMANS GARDEN RESERVE,145.367639995557,-36.3923500014015,3629,MOOROOPNA
1330,CHINATOWN PLAZA,144.969309972855,-37.8112399978191,3000,MELBOURNE
1331,CHIRNSIDE RESERVE,144.391259996347,-38.0206799962696,3212,LARA
1332,CHITTICK PARK,145.148349976755,-37.0289700062226,3660,SEYMOUR
1333,BENNETT AVENUE RESERVE,145.148199999533,-37.8592899854144,3149,MOUNT WAVERLEY
1334,CHURCHILL RESERVOIR PARK,146.416259980037,-38.3215100012052,3842,CHURCHILL
1335,CIVIC PARK,145.934579990704,-38.1579099978786,3820,WARRAGUL
1336,CLAREMONT PARK,144.342919987433,-38.1573499989209,3220,NEWTOWN
1337,CLARKE LAGOON FAUNAL RESERVE,147.897920375282,-36.0242899030152,3708,TINTALDRA
1338,CLIPPERTON RESERVE,145.128479967521,-38.189569997091,3199,FRANKSTON SOUTH
1339,COAL CREEK HISTORICAL PARK,145.834589990058,-38.4440100004276,3950,KORUMBURRA
1340,COATESVILLE RESERVE,145.078479986891,-37.9209599929879,3165,BENTLEIGH EAST
1341,COHUNA PONY CLUB RESERVE,144.223479866064,-35.8062391282853,3568,COHUNA
1342,PAISLEY PARK,144.857949971934,-37.8414499994173,3025,ALTONA NORTH
1343,PARATEA RESERVE,145.129029966393,-38.1898499971306,3199,FRANKSTON SOUTH
1344,PARK ORCHARDS RESERVE,145.21443998194,-37.7784399954992,3114,PARK ORCHARDS
1345,PARKER RESERVE,144.967259982828,-37.7225900031287,3058,COBURG NORTH
1346,H E PARKER RESERVE,145.25483997865,-37.8354199966595,3135,HEATHMONT
1347,PARLIAMENT GARDENS,144.973499980281,-37.8098299970969,3002,EAST MELBOURNE
1348,SHADY CREEK BUSHLAND RESERVE,149.747370027223,-37.5531799102365,3892,MALLACOOTA
1349,PENDERS PARK,145.008270029251,-37.7546300001348,3071,THORNBURY
1350,PENGUIN ROOKERY RESERVE,145.15013998591,-38.5106799985528,3922,SUMMERLANDS
1351,PENINSULA RESERVE,145.144639988086,-38.1407899969072,3199,FRANKSTON
1352,FRANK STREET RESERVE,145.144639988086,-38.1407899969072,3199,FRANKSTON
1353,PENNINGTON RESERVE,144.343200008883,-36.6534300005603,3551,HUNTLY
1354,PERCE WHITE RESERVE,144.914589975137,-37.8409599982678,3207,PORT MELBOURNE
1355,PERCY TREYVAUD MEMORIAL PARK,145.080749990708,-37.8825399919063,3145,MALVERN EAST
1356,SHERBROOKE FOREST PARK,145.363480005313,-37.8937399976011,3789,SHERBROOKE
1357,F W SHORE RESERVE,144.943480000324,-37.7467900046545,3044,PASCOE VALE SOUTH
1358,SHRUBLANDS CREEK RESERVE,145.082809994959,-37.8221799876739,3126,CANTERBURY
1359,SID BAKER RESERVE,144.771489987637,-38.3711699958149,3942,BLAIRGOWRIE
1360,SID EARL RESERVE,145.479309977914,-38.0740099978521,3810,PAKENHAM
1361,SILCOCK RESERVE,145.288489983039,-37.7882099957087,3136,CROYDON
1362,KINDER SMITH RESERVE,144.849349966616,-37.784090001478,3019,BRAYBROOK
1363,KINGS PARK,145.128519980745,-37.0229100108153,3660,SEYMOUR
1364,KINGS PARK,145.300689980028,-37.8955199962253,3156,UPPER FERNTREE GULLY
1365,KINGS RESERVE,144.775979977841,-37.7329000031911,3021,KINGS PARK
1366,A E BROWN RESERVE,145.355089967861,-38.0273299958411,3806,BERWICK
1367,BRUCE COMBEN RESERVE,144.766069982573,-37.8725799953866,3028,ALTONA MEADOWS
1368,BRUCE PARK,145.139059990686,-38.1622699986538,3199,FRANKSTON
1369,BUCHAN HEADWATERS WILDERNESS ZONE,148.092089616808,-37.0573500434004,3885,BRUMBY
1370,KILORAN PARK,145.310139978832,-37.7923499982439,3138,MOOROOLBARK
1371,KIM RESERVE,144.841259980521,-37.862899998417,3018,SEAHOLME
1372,KIMBERLEY RESERVE,145.309869983369,-37.7517899999728,3116,CHIRNSIDE PARK
1373,LAKE CORRINGLE GAME RESERVE,148.511260008482,-37.7651299932476,3886,NEWMERELLA
1374,LAKE MOUNTAIN ALPINE RESERVE,145.880979789547,-37.5170699940134,3779,MARYSVILLE
1375,LAKE RESERVE,144.968389992497,-37.7330700022711,3058,COBURG NORTH
1376,LAKE TYERS ABORIGINAL RESERVE,148.108760000627,-37.8053999935224,3909,TOORLOO ARM
1377,BULBAN RESERVE,144.490669997273,-37.9605999954827,3211,LITTLE RIVER
1378,BULGA NATIONAL PARK,146.576259984948,-38.4209600007591,3971,BALOOK
1379,BULL CREEK PICNIC AREA,145.574589907119,-37.4256800265435,3717,MURRINDINDI
1380,LAHINCH RESERVE,144.925699979198,-37.6931800011083,3047,BROADMEADOWS
1381,BUNGUYAN RESERVE,145.19449998138,-38.2571599980733,3913,TYABB
1382,BURDEN PARK,145.152569969299,-37.9634799963616,3172,SPRINGVALE SOUTH
1383,Burke Road South Reserve ,145.050279991654,-37.8491999916042,3146,GLEN IRIS
1384,Lewin Reserve,145.050279991654,-37.8491999916042,3146,GLEN IRIS
1385,ROTARY PARK,144.766809988769,-37.7670700017834,3023,DEER PARK
1386,BUNDOORA PARK,145.044840001125,-37.7068000003465,3083,BUNDOORA
1387,NORTHERN SUBURBS PARK,145.044840001125,-37.7068000003465,3083,BUNDOORA
1388,DOMENEY RESERVE,145.218399983645,-37.774889997752,3114,PARK ORCHARDS
1389,CABBAGE TREE PALMS RESERVE,148.669589956549,-37.7356799942123,3889,CABBAGE TREE CREEK
1390,BUNGALOOK CONSERVATION RESERVE,145.307799974983,-37.8307299953192,3137,KILSYTH SOUTH
1391,BILL HEYWOOD PARK,145.157569969132,-37.0389300079227,3660,SEYMOUR
1392,E J WHITTEN OVAL,144.886749991374,-37.8003000001202,3011,FOOTSCRAY
1393,BARBER RESERVE,145.184919978475,-38.2265799952217,3912,SOMERVILLE
1394,DROMANA COMMON,144.970139985426,-38.3437399981546,3936,DROMANA
1395,DROMANA RACECOURSE RESERVE,145.011529992619,-38.3390099979603,3936,DROMANA
1396,DROUIN DISTRICT RESERVE,145.812549991577,-38.0838800016243,3816,LONGWARRY NORTH
1397,TURTONS CREEK PICNIC AREA,146.243759955375,-38.531239994739,3960,TURTONS CREEK
1398,UNTHANK RESERVE,145.162639983685,-38.2240099966635,3912,SOMERVILLE
1399,UNDERA RECREATION RESERVE,145.215989982714,-36.2766800160962,3629,UNDERA
1400,UNION STREET RESERVE,145.023569999339,-37.8579799938249,3143,ARMADALE
1401,UNIVERSITY SQUARE,144.960279984527,-37.8010699981388,3053,CARLTON
1402,WALLABY PARK,145.596259968846,-38.334010000724,3984,LANG LANG
1403,WALLACE AVENUE RESERVE,145.14545000311,-38.157339997065,3199,FRANKSTON
1404,WALLACE RECREATION RESERVE,144.049780008424,-37.5519199970779,3352,WALLACE
1405,WALHALLA CRICKET GROUND,146.453759967394,-37.9365100056045,3825,WALHALLA
1406,WALLINGTON SPORTS RESERVE,144.503199972657,-38.2276299969534,3222,WALLINGTON
1407,WALLOWA COMMUNITY RESERVE,145.130979976213,-37.6887400021655,3088,SAINT HELENA
1408,WALTER GALT RESERVE,145.090639987039,-37.9913499932602,3195,PARKDALE
1409,WALTER STREET RESERVE,144.907779985401,-37.7755400003984,3032,ASCOT VALE
1410,WALHALLA HISTORIC AREA,146.443759977221,-37.9356800038551,3825,WALHALLA
1411,MODEWARRE RECREATION RESERVE,144.139569999389,-38.2527100362032,3240,MODEWARRE
1412,WALKER RESERVE,145.239039982225,-37.873109995795,3152,WANTIRNA SOUTH
1413,WALKLEY PARK,146.413139982375,-38.3149000009326,3842,CHURCHILL
1414,WAVERLEY PARK,145.069309971206,-37.8778999940903,3145,MALVERN EAST
1415,WEATHERHEAD FOREST RESERVE,145.61402999626,-38.0309599991169,3812,MARYKNOLL
1416,MOONDARRA PICNIC GROUND,146.252639983567,-38.0948499997003,3825,TANJIL SOUTH
1417,VIVA STREET RESERVE,145.04092997793,-37.8615499920385,3146,GLEN IRIS
1418,MORNING MIST RECREATION RESERVE,145.232889994918,-38.1468599980592,3977,CRANBOURNE SOUTH
1419,MORRIS PICNIC AREA,145.654309985027,-37.3406799956683,3714,TAGGERTY
1420,WA Wurrong Reserve,145.215059989978,-37.8043499947032,3134,RINGWOOD NORTH
1421,MORTIMORE RESERVE,145.59536996576,-37.9846799945057,3783,GEMBROOK
1422,BALNARRING RECREATION RESERVE,145.11718997933,-38.3622799993706,3926,BALNARRING
1423,BALYANG SANCTUARY,144.330929995816,-38.1643000001745,3220,NEWTOWN
1424,BAMAWM EXTENSION RECREATION RESERVE,144.61126001249,-36.2209600585672,3564,BAMAWM EXTENSION
1425,CAMP HILL PARK,144.881089976194,-37.6998400011117,3043,TULLAMARINE
1426,CAMPBELL RESERVE,144.977659998397,-37.7560700020479,3058,COBURG
1427,CAMPBELLS BEND RESERVE,145.232089986446,-36.6212400054261,3610,MURCHISON EAST
1428,BARRINGO WILDLIFE RESERVE,144.637089962266,-37.4176299958826,3431,RIDDELLS CREEK
1429,CARLOGIE GOLF COURSE,144.870139970803,-38.4015099976876,3939,BONEO
1430,C W CARLSSON RESERVE,144.792129979249,-37.8798599941932,3028,ALTONA MEADOWS
1431,CAROLINE CHISHOLM PARK,144.840709977019,-37.7199400044936,3036,KEILOR
1432,CARRUM DOWNS RECREATION RESERVE,145.188200026616,-38.0851299985785,3201,CARRUM DOWNS
1433,BARRY RESERVE,145.274059979111,-37.918479997512,3156,LYSTERFIELD
1434,CEMENT CREEK RESERVE,145.707919951966,-37.7134600018282,3799,WARBURTON
1435,CENTENARY PARK,145.069009988982,-37.9260599893678,3165,BENTLEIGH EAST
1436,CENTENARY PARK PUBLIC GOLF COURSE,145.176809978929,-38.1273499930497,3200,FRANKSTON NORTH
1437,CENTRAL PARK,145.048739979988,-37.8668999926081,3145,MALVERN EAST
1438,CAULFIELD PARK,145.029529974797,-37.8717699913192,3161,CAULFIELD NORTH
1439,CAUSON RESERVE,145.591259979047,-38.592629998952,3995,NORTH WONTHAGGI
1440,ELTHAM CENTRAL PARK,145.144999988911,-37.7150599992975,3095,ELTHAM
1441,ELTHAM COMMON,145.146259986504,-37.7167899993953,3095,ELTHAM
1442,ELTHAM LOWER PARK,145.141789991314,-37.734719997198,3095,ELTHAM
1443,ELTHAM NORTH RESERVE,145.149739976331,-37.6946099994978,3095,ELTHAM NORTH
1444,CHICQUITA PARK,145.074589988619,-37.9842899951116,3195,PARKDALE
1445,CHILTERN VALLEY RECREATION RESERVE,146.545479958288,-36.1429299929991,3683,CHILTERN VALLEY
1446,ESSEX HEIGHTS RESERVE,145.113650003053,-37.8636999870564,3149,MOUNT WAVERLEY
1447,ESSEX RESERVE,145.235419972268,-37.9687399971357,3177,DOVETON
1448,J P ESSLEMONT RESERVE,144.977919979374,-37.7742900031787,3057,BRUNSWICK EAST
1449,EVANS RESERVE,144.349959992097,-38.0918999949837,3214,NORLANE
1450,EVELYN RESERVE,145.131259956819,-37.9198499976193,3168,CLAYTON
1451,EVERGREEN RESERVE,145.085249995249,-37.8156599878015,3103,BALWYN
1452,S J CLEMENT RESERVE,144.852869979288,-37.8463500001026,3025,ALTONA NORTH
1453,FAWKNER PARK,144.981729969462,-37.8409999978531,3141,SOUTH YARRA
1454,J P FAWKNER RESERVE,144.910800011976,-37.7191000032538,3046,OAK PARK
1455,FEARON RESERVE,144.895139990702,-37.8669800001041,3016,WILLIAMSTOWN
1456,S FELL RESERVE,144.843759972356,-37.8603999995712,3018,SEAHOLME
1457,FERNBANK RECREATION RESERVE,147.322679970345,-37.8736999934235,3864,FERNBANK
1458,FERNDALE PARK,145.069259983973,-37.8526999919308,3146,GLEN IRIS
1459,FERNSHAW RESERVE,145.60402997594,-37.6148500358171,3778,FERNSHAW
1460,FERNTREE GULLY NATIONAL PARK,145.318199967725,-37.8798499963498,3785,TREMONT
1461,FERNTREE GULLY RECREATION RESERVE,145.292919986853,-37.8912399956571,3156,FERNTREE GULLY
1462,FERNY CREEK RESERVE,145.346810022312,-37.8748499983176,3787,SASSAFRAS
1463,JOHN FIELD RESERVE,146.294250007574,-38.1772499992783,3825,NEWBOROUGH
1464,SCOVELL RESERVE,144.877990020627,-37.7842600014249,3012,MAIDSTONE
1465,SEAL ROCKS STATE FAUNAL RESERVE,145.099310020222,-38.5262399951382,3922,SUMMERLANDS
1466,SELBY PARK,145.369189975122,-37.913449996123,3159,SELBY
1467,SERENDIP WILDLIFE RESEARCH STATION,144.406809975495,-38.0028999951874,3212,LARA
1468,SHELIS RESERVE,144.939590001554,-37.7601300034718,3055,BRUNSWICK WEST
1469,SHELLEY PARK,145.04994997553,-37.7408800029094,3081,HEIDELBERG HEIGHTS
1470,A E SHEPHERD GARDENS,144.868480008705,-37.7895700018113,3012,MAIDSTONE
1471,SHEPPARD RESERVE,145.230659981373,-37.8939899963423,3179,SCORESBY
1472,TOONGABBIE RECREATION RESERVE,146.630889977913,-38.0603799986259,3856,TOONGABBIE
1473,TOORONGO PICNIC AREA,146.12306998067,-37.7900199982971,3833,TOORONGO
1474,SIR DOUGLAS NICHOLLS RESERVE,144.996930001428,-37.7526700023457,3071,THORNBURY
1475,SIR WILLIAM G FRY RESERVE,145.048479990315,-37.9556799891395,3190,HIGHETT
1476,SIXTH AVENUE RESERVE,145.102919993493,-37.8584599842841,3147,ASHWOOD
1477,SILVERTOP PICNIC AREA,146.391079986417,-37.8503100044086,3825,THOMSON
1478,TRARALGON SOUTH FIRE STATION,146.538479925611,-38.296509997162,3844,TRARALGON SOUTH
1479,TRARALGON SOUTH RECREATION RESERVE,146.540669923471,-38.2944899973133,3844,TRARALGON SOUTH
1480,TREASURY GARDENS,144.976149984355,-37.8141099963047,3002,EAST MELBOURNE
1481,TRICIA MAHON RESERVE,144.799309981098,-37.7487400028671,3021,ST ALBANS
1482,BUCKLEY NATURE RESERVE,145.090420021408,-38.3412399973962,3926,MERRICKS NORTH
1483,BUCKLEY PARK,144.896599983719,-37.7442600024429,3040,ESSENDON
1484,DEER PARK RESERVE,144.7772599944,-37.7722500025216,3023,DEER PARK
1485,JOHN MCLEOD RESERVE,144.7772599944,-37.7722500025216,3023,DEER PARK
1486,DELACOMBE PARK,145.126889972871,-38.1618599988108,3199,FRANKSTON SOUTH
1487,DELVIN PARK,145.2576399891,-37.5545700011045,3099,STRATHEWEN
1488,DEMPSTER PARK,144.837809980574,-37.7752200006399,3020,SUNSHINE NORTH
1489,DEN OF NARGUN PICNIC GROUND,147.360700044073,-37.7023499913117,3875,IGUANA CREEK
1490,DENZIL DON RESERVE,144.938959991153,-37.764840002458,3055,BRUNSWICK WEST
1491,BUCKINGHAM PARK,144.917639982968,-38.3778999967778,3939,ROSEBUD
1492,DIAMOND RESERVE,144.773199976983,-37.7454000030808,3021,ALBANVALE
1493,DIGMAN RESERVE,144.890389973482,-37.8396899986119,3015,NEWPORT
1494,BULN BULN RECREATION RESERVE,145.936200002463,-38.09716999762,3821,BULN BULN
1495,DIXON FIELD,144.584059964419,-37.4836499997476,3437,GISBORNE
1496,DOAKS RESERVE,144.51521998751,-36.8161799959655,3551,EPPALOCK
1497,DOBSON PARK,145.285909983615,-37.8773299980823,3156,FERNTREE GULLY
1498,DOBSON RESERVE,144.866840004203,-37.7875900016876,3012,MAIDSTONE
1499,DONNYBROOK MINERAL SPRING RESERVE,144.974309972205,-37.532070001424,3064,DONNYBROOK
1500,DONVALE RESERVE,145.175660000795,-37.7953699909171,3111,DONVALE
1501,DOOKIE RECREATION RESERVE,145.684079981119,-36.3329799983572,3646,DOOKIE
1502,A B SHAW RESERVE,144.778919968294,-37.8636599951997,3028,ALTONA MEADOWS
1503,DOROTHY LAVER RESERVE,145.064029978432,-37.8659599926532,3147,ASHBURTON
1504,DONALD MCLEAN RESERVE,144.883899990021,-37.8266500000896,3015,SPOTSWOOD
1505,DORSET HILL WILDLIFE PARK,145.670139950516,-36.5062399994813,3669,EARLSTON
1506,DORSET GOLF,145.300129979119,-37.805409998627,3136,CROYDON
1507,DOUGLAS RESERVE,145.248479967569,-37.999569998234,3177,EUMEMMERRING
1508,J A DOUGLAS PARK LAND RESERVE,145.350509975918,-36.3778600081106,3629,MOOROOPNA
1509,R B DOUGLAS RESERVE,144.974309981788,-37.776240001944,3057,BRUNSWICK EAST
1510,DOWTON PARK RESERVE,146.059089977038,-38.2083499952284,3823,YARRAGON
1511,H M A S TINGIRA MEMORIAL GARDEN,144.959869973925,-37.7704000019205,3056,BRUNSWICK
1512,DONCASTER RESERVE,145.15139998073,-37.7887199921976,3109,DONCASTER EAST
1513,HAGENAUER RESERVE,145.117660002297,-37.8095299889971,3129,BOX HILL NORTH
1514,HAINES RESERVE,144.321400010569,-38.1161899962536,3215,HAMLYN HEIGHTS
1515,MERRI CREEK RESERVE,144.988979971199,-37.7766600009503,3070,NORTHCOTE
1516,MERRI PARK,144.988099974765,-37.7728600018665,3070,NORTHCOTE
1517,MERUKA PARK,145.134879996967,-37.712259998581,3095,ELTHAM
1518,TUNGAMAH RECREATION RESERVE,145.876290029762,-36.1685399940598,3728,TUNGAMAH
1519,MYERS CREEK RESERVE,145.517639943093,-37.5851299955158,3777,TOOLANGI
1520,MICHAEL LAFFAN RESERVE,144.830699962664,-37.7951299992811,3020,SUNSHINE
1521,MICHAEL MCCOY RESERVE,144.897619999363,-37.7921999988098,3011,FOOTSCRAY
1522,TURNER ROAD RESERVE,145.055140003006,-37.9478999895491,3190,HIGHETT
1523,MILLER PARK,145.305999973436,-37.8474899972977,3155,BORONIA
1524,MILTON GRAY RESERVE,145.035239979595,-37.8645199916662,3144,MALVERN
1525,MITCHAM RESERVOIR RESERVE,145.183199978367,-37.8237399926152,3131,NUNAWADING
1526,W MITCHELL RESERVE,144.937919993588,-37.7440100032577,3044,PASCOE VALE SOUTH
1527,MITIAMO RECREATION RESERVE,144.236050018905,-36.2120000087211,3573,MITIAMO
1528,PINE HILL RESERVE,145.259779986322,-37.9209499975335,3178,ROWVILLE
1529,MONASH RESERVE,146.29900999199,-38.1836000006689,3825,NEWBOROUGH
1530,MONTAGUE PARK,145.120599983744,-38.1549199963339,3199,FRANKSTON
1531,MONTROSE RESERVE,145.343759983667,-37.8134599987232,3765,MONTROSE
1532,POOWONG RECREATION RESERVE,145.763679986526,-38.340930000704,3988,POOWONG
1533,DONCASTER EAST RESERVE,145.161529995101,-37.7784599878343,3109,DONCASTER EAST
1534,MOORAK PARK,144.340269995271,-38.1538499987252,3220,NEWTOWN
1535,J E MOORE PARK,144.993970008828,-37.7168600029205,3073,RESERVOIR
1536,MOOROOPNA RECREATION RESERVE,145.350699980189,-36.3937400092262,3629,MOOROOPNA
1537,MOORPANYAL PARK,144.373609957986,-38.1008799985971,3214,NORTH SHORE
1538,PRIDMORE PARK,145.01509999839,-37.8159799959837,3122,HAWTHORN
1539,PRIMROSE PARK PICNIC AREA,146.280979987894,-38.3962399956517,3870,BOOLARRA
1540,PROCLAMATION PARK,145.221829976189,-37.8280599973203,3134,RINGWOOD
1541,PROGRESS PARK,144.981609984635,-36.3958699937276,3624,GIRGARRE
1542,MIDDLE GULLY RESERVE,144.561529992015,-37.4195699958442,3440,MACEDON
1543,QUINN RESERVE,145.366809972237,-37.7903999961923,3796,MOUNT EVELYN
1544,RACV COUNTRY CLUB,145.502639961451,-37.6498499958618,3777,HEALESVILLE
1545,RAEBURN RESERVE,144.943599991192,-37.7293400025543,3044,PASCOE VALE
1546,RAES PARK,145.338479972404,-37.9678199963115,3804,NARRE WARREN NORTH
1547,QUEEN VICTORIA GARDENS,144.971199972371,-37.8218799960143,3004,MELBOURNE
1548,RALPH RESERVE,144.799259977421,-37.7923700001342,3020,SUNSHINE WEST
1549,QUEENS LAKE PARK,144.924369983912,-37.7627100004494,3039,MOONEE PONDS
1550,QUEENS PARK,144.32026999145,-38.147679999372,3216,HIGHTON
1551,QUEENS PARK GOLF COURSE,144.319589989752,-38.1459599983168,3216,HIGHTON
1552,RAMSDEN RESERVE,145.00236998502,-37.7937399959733,3068,CLIFTON HILL
1553,RANCEBY RESERVE,145.840419994291,-38.3728999994106,3951,RANCEBY
1554,RAOUL WALLENBERG GARDENS,145.029149999929,-37.8070099898918,3101,KEW
1555,RATHMINES ROAD RESERVE,145.047089994233,-37.8215099872134,3123,HAWTHORN EAST
1556,RAY GILES RESERVE,145.234029973989,-37.982459999124,3177,DOVETON
1557,PINE LODGE RECREATION RESERVE,145.540980009195,-36.3545699993441,3631,PINE LODGE
1558,DUNCAN MACKINNON RESERVE,145.063939957134,-37.905359993891,3163,MURRUMBEENA
1559,CANTERBURY GARDENS RESERVE,145.294209976324,-37.8308699963724,3153,BAYSWATER NORTH
1560,DUNSTAN RESERVE,144.939970014041,-37.755020005466,3055,BRUNSWICK WEST
1561,HAROLD HOLT MARINE RESERVE,144.662089938186,-38.3145699921,3944,PORTSEA
1562,CAPE WOOLAMAI STATE FAUNAL RESERVE,145.34875998894,-38.551510000616,3925,CAPE WOOLAMAI
1563,EAST BURWOOD PARK,145.159589996554,-37.8592899912018,3151,BURWOOD EAST
1564,POREPUNKAH RECREATION RESERVE,146.910769996538,-36.6983699791807,3740,POREPUNKAH
1565,EDWARD HUNTER HERITAGE BUSHLAND RESERVE,146.261259990453,-38.1931799979444,3825,MOE
1566,EDWARDS RESERVE,144.870089985312,-37.8276600011568,3015,SOUTH KINGSVILLE
1567,R D EGAN-LEE RESERVE,145.250009979593,-37.8796699945981,3180,KNOXFIELD
1568,EGLINTON RESERVE,145.03904000201,-37.7996999925253,3101,KEW
1569,EILDON PARK,145.965979972853,-37.184290006055,3713,LAKE EILDON
1570,EILDON STATE PARK,145.942370002868,-37.1751300102881,3713,LAKE EILDON
1571,ELCHO PARK GOLF COURSE,144.363759995298,-38.0290099965069,3212,LARA
1572,ELDER STREET RESERVE,145.09122996717,-37.7153800005904,3087,WATSONIA
1573,ELIZABETH BRIDGE RESERVE,145.321909975899,-37.8004200001156,3137,KILSYTH
1574,ELMORE RECREATION RESERVE,144.607789991452,-36.4912300010679,3558,ELMORE
1575,ENSAY SOUTH RECREATION RESERVE,147.820139996241,-37.3823499925918,3895,ENSAY
1576,EPPING RESERVE,145.029029990008,-37.6409600018514,3076,EPPING
1577,ERIC BELL RESERVE,145.147369983342,-38.1251299969995,3200,FRANKSTON NORTH
1578,ERN BARKER RESERVE,145.284859983777,-38.0035399967906,3803,HALLAM
1579,HOOPER RESERVE,144.960239977088,-37.77752999999,3056,BRUNSWICK
1580,FAIRVIEW PARK RESERVE,145.024030003297,-37.8301299956839,3121,BURNLEY
1581,Hubbard Reserve,145.224759990902,-37.7988599953423,3134,RINGWOOD NORTH
1582,B J Hubbard Reserve,145.224759990902,-37.7988599953423,3134,RINGWOOD NORTH
1583,W E HUBBLE RESERVE,144.783119996592,-37.8912599946542,3028,ALTONA MEADOWS
1584,HUDSON RESERVE,144.941439979321,-37.7685500006503,3055,BRUNSWICK WEST
1585,HUGH HODSON RESERVE,145.325809988247,-38.0248899997793,3806,BERWICK
1586,BRUSHY HILL PARK,145.299139983542,-37.7669999993191,3136,CROYDON NORTH
1587,HUGHES PARK,145.299139983542,-37.7669999993191,3136,CROYDON NORTH
1588,HUME RESERVE,144.341179998956,-38.1079099955038,3215,BELL PARK
1589,FAIRBAIRN PARK,144.900489986607,-37.7760800009052,3032,ASCOT VALE
1590,FAIRBAIRN PARK,145.010310000935,-38.2837799985385,3934,MOUNT MARTHA
1591,FAIRFIELD PARK,145.011529972308,-37.785679996551,3078,FAIRFIELD
1592,INVERGORDON RECREATION RESERVE,145.61098000993,-36.1492900169719,3636,INVERGORDON
1593,J A IRVINE RESERVE,146.072919936667,-36.3415099974216,3726,THOONA
1594,IRWIN RESERVE,144.853199978362,-37.8451300001175,3025,ALTONA NORTH
1595,W ISON RESERVE,144.657369972938,-37.8873499961599,3030,WERRIBEE
1596,IVANHOE RECREATION RESERVE,145.044099977277,-37.7708600006938,3079,IVANHOE
1597,IVENS RESERVE,145.315659977964,-37.9895199978519,3804,NARRE WARREN NORTH
1598,JACANA RESERVE,144.904399982956,-37.6832100005948,3047,JACANA
1599,JACK KIRKHAM RESERVE,145.357339979464,-38.0363099950541,3806,BERWICK
1600,JACK THOMAS RESERVE,145.306819978966,-37.994369997265,3804,NARRE WARREN NORTH
1601,JACK TRIPOVICH RESERVE,144.952979977526,-37.7666500014265,3056,BRUNSWICK
1602,FIRTH ENVIROMENTAL PARK,144.40958999655,-37.4342900048512,3458,TRENTHAM EAST
1603,J J JACKSON RESERVE,144.976809985148,-37.7320700018407,3058,COBURG NORTH
1604,TINTALDRA RECREATION RESERVE,147.92176033071,-36.047069891079,3708,TINTALDRA
1605,TINGARINGY NATIONAL PARK,148.676259975847,-37.0145700021503,3888,BONANG
1606,TOM O'BRIEN PARK,144.842089969836,-37.7937400000451,3020,SUNSHINE
1607,TONERS LANE RESERVE,146.385789972666,-38.2269899973589,3840,MORWELL
1608,TONGIO BUSHLAND RESERVE,147.69375996549,-37.1892899892867,3896,TONGIO
1609,TORRUMBARRY RECREATION RESERVE,144.515420522708,-36.0276309919351,3562,TORRUMBARRY
1610,TOWN HALL PLAZA,144.966529962066,-37.8137399976446,3000,MELBOURNE
1611,MEDWAY GOLF COURSE,144.866529982781,-37.7734599995789,3012,MAIDSTONE
1612,MEENIYAN RECREATION RESERVE,146.010699994426,-38.5756799999667,3956,MEENIYAN
1613,DEBNEYS PARK,144.935729944499,-37.7852799953644,3031,FLEMINGTON
1614,GOODS YARD PLACE,144.889869989109,-37.8162400004312,3013,YARRAVILLE
1615,H D GRAHAM RESERVE,144.796259971661,-37.8786399944651,3028,ALTONA MEADOWS
1616,GRANDFILL RESERVE,145.271439985317,-37.7943099975591,3136,CROYDON
1617,D K  GRANT RESERVE,144.807919982619,-37.878739993255,3018,ALTONA
1618,GREENSBOROUGH PARK,145.105909989316,-37.699970001506,3088,GREENSBOROUGH
1619,GREENVALE CATCHMENT RESERVE,144.91652998405,-37.6165100030061,3064,ROXBURGH PARK
1620,GREENWICH RESERVE,144.900079960393,-37.8526599993518,3016,WILLIAMSTOWN
1621,GREENWOOD PARK,145.231399988633,-37.8180599999227,3134,RINGWOOD
1622,GREG RIDSDALE MEMORIAL CAMPING PARK,147.834029964399,-37.711239995791,3885,BRUTHEN
1623,GREYS RESERVE,145.757919983459,-35.9798500293368,3644,COBRAM EAST
1624,GREYTHORN PARK,145.093009966851,-37.7978499902254,3104,BALWYN NORTH
1625,D GRIEVE RESERVE,144.780419987813,-37.8842899944286,3028,ALTONA MEADOWS
1626,ROBERT C GRIEVE RESERVE,144.993199995995,-37.9187399941194,3186,BRIGHTON
1627,GRIFF HUNT RESERVE,145.291629985015,-37.7654299987858,3136,CROYDON NORTH
1628,E E GUNN RESERVE,145.038860000291,-37.898139993123,3204,ORMOND
1629,BETTY CLIFT CONSERVATION RESERVE,144.905699985055,-38.3781799969657,3939,ROSEBUD
1630,LAVERTON LAKE RESERVE,144.757369985142,-37.8534599986809,3026,LAVERTON NORTH
1631,LAVERTON NORTH RECREATION RESERVE,144.756259986454,-37.852349998599,3026,LAVERTON NORTH
1632,R J HAMER ABORETUM,145.383759981941,-37.8565099967903,3788,OLINDA
1633,HAMILTON RESERVE,145.451350009186,-37.9994699964223,3808,BEACONSFIELD UPPER
1634,HANSEN RESERVE,144.876480032501,-37.7229600029419,3042,AIRPORT WEST
1635,HAROLD BOX RESERVE,145.158759982186,-37.9909599959594,3173,KEYSBOROUGH
1636,AVIAN PARK,146.307919976341,-36.3681799858213,3677,WANGARATTA
1637,HALL RESERVE,145.00263996294,-37.7848499969366,3068,CLIFTON HILL
1638,G  HALLAM RESERVE,144.939589997213,-37.7170700012044,3044,PASCOE VALE
1639,PETER CUNNINGHAM RESERVE,147.738759985504,-37.8148499928399,3882,NICHOLSON
1640,PETER FRANKE RESERVE,145.273799994183,-37.6195499966348,3760,SMITHS GULLY
1641,PETER SHELMERDINE RESERVE,144.72042997343,-38.3276399971035,3944,PORTSEA
1642,PETER VERGERS RESERVE,145.254509988077,-37.7958699983908,3134,RINGWOOD
1643,PETERSON STREET RESERVE,145.026029955294,-37.9459799915382,3190,HIGHETT
1644,PETRIE PARK,145.125759997001,-37.7172199989824,3094,MONTMORENCY
1645,PETTYS RESERVE,145.151889981696,-37.7609099870588,3106,TEMPLESTOWE
1646,R J PHELAN RESERVE,144.232380018619,-36.2108800064743,3573,MITIAMO
1647,PHILLIP STOKES PLANTATION,144.913199992359,-37.7487400016014,3040,ESSENDON
1648,PICNIC POINT,147.597640009855,-37.8128999896293,3875,BAIRNSDALE
1649,PICNIC POINT RESERVE,145.812089990833,-38.0823500015818,3816,LONGWARRY NORTH
1650,PIONEER MEMORIAL GARDEN,144.736259959238,-38.3403999962486,3943,SORRENTO
1651,PIONEER PARK,147.064850010414,-36.890039965212,3741,HARRIETVILLE
1652,PIONEER PARK RECREATION RESERVE,146.973029998589,-36.738229986193,3741,BRIGHT
1653,BRIGHT RECREATION RESERVE,146.973029998589,-36.738229986193,3741,BRIGHT
1654,PLENTY PARK,145.119030002369,-37.6695699992214,3090,PLENTY
1655,PINKS RESERVE,145.319139974978,-37.8130500010007,3137,KILSYTH
1656,R T POLLARD GARDENS,144.830899962283,-37.7890599992571,3020,SUNSHINE
1657,SNOWY RIVER WILDERNESS ZONE,148.375420040287,-37.171789990259,3888,DEDDICK VALLEY
1658,POWLETT RIVER RESERVE,145.505419956219,-38.5762399977767,3995,KILCUNDA
1659,POSSY NEWLAND PARK,144.499030000418,-37.9642899950608,3211,LITTLE RIVER
1660,PRAIRIE PARK,144.283479954135,-36.1817900276286,3573,MITIAMO
1661,PORTSEA GOLF COURSE,144.702089962526,-38.319849996821,3944,PORTSEA
1662,AYSONS RESERVE,144.669300005551,-36.459369996983,3558,BURNEWANG
1663,STANHOPE RECREATION RESERVE,144.990249991748,-36.4480599946533,3623,STANHOPE
1664,STANLEY HOMESTEAD PICNIC AREA,145.559589972368,-37.2843999995918,3717,LIMESTONE
1665,STANLEY PARK,144.580039967237,-37.4062699979962,3441,MOUNT MACEDON
1666,STANLEY STREET RESERVE,145.059309983162,-37.8667899933338,3145,MALVERN EAST
1667,STARLIGHT RESERVE,145.225959977525,-37.9361599992771,3178,ROWVILLE
1668,STEAD PARK,144.364259985533,-38.0828699948704,3214,CORIO
1669,STEELS CREEK PICNIC GROUND,145.372639992694,-37.5787400012805,3775,STEELS CREEK
1670,DUMBALK RECREATION RESERVE,146.101029971385,-38.5335099982884,3956,DUMBALK
1671,HARRIS RESERVE,144.890699990867,-37.8079000004361,3011,SEDDON
1672,HARRIS RESERVE,144.837089987454,-37.8331799999502,3025,ALTONA NORTH
1673,HARRY OAKES RESERVE,145.313059979913,-38.0119900008093,3805,NARRE WARREN
1674,HARTWELL SPORTS GROUND,145.087069995711,-37.854229987166,3146,GLEN IRIS
1675,HAVANA CRESCENT RESERVE,145.167369967891,-38.1426299954904,3199,FRANKSTON
1676,HEATHERTON PARK,145.129689991983,-37.957189996742,3169,CLAYTON SOUTH
1677,HEATHERTON RECREATION RESERVE,145.111529990094,-37.9667899955482,3172,DINGLEY VILLAGE
1678,HEATHMONT PARK,145.236479982037,-37.8335899943719,3135,HEATHMONT
1679,HEDGELEY DENE GARDENS,145.058009983321,-37.8673999932483,3145,MALVERN EAST
1680,EASTFIELD PARK,145.278429982517,-37.8086799981351,3136,CROYDON
1681,CROYDON TOWN PARK SOUTH,145.278429982517,-37.8086799981351,3136,CROYDON
1682,EAST RINGWOOD RESERVE,145.246079976185,-37.8081199988809,3135,RINGWOOD EAST
1683,HEIDELBERG GOLF CLUB,145.114029996466,-37.731509998262,3093,LOWER PLENTY
1684,HEIDELBERG PARK,145.07272997216,-37.7539700005568,3084,HEIDELBERG
1685,HENDY STREET RESERVE,144.365289954211,-38.0652399928301,3214,CORIO
1686,HENRY B DEMPSTER PARK,144.837089979679,-37.7754000005922,3020,SUNSHINE NORTH
1687,HENRY TURNER MEMORIAL RESERVE,144.89941000311,-37.7916599979283,3011,FOOTSCRAY
1688,EASTERN PARK,144.381279971064,-38.1535699954257,3219,EAST GEELONG
1689,HEATHCOTE RECREATION RESERVE,144.703759987829,-36.9034599961238,3523,HEATHCOTE
1690,HIGHFIELD PARK,145.085680000926,-37.8361999859585,3124,CAMBERWELL
1691,HIGHTON RECREATION RESERVE,144.320979990871,-38.1709600025611,3216,HIGHTON
1692,HIGHVIEW PARK,145.167689993621,-37.8640699907918,3150,GLEN WAVERLEY
1693,HILL 'N' DALE PARK,145.073479981853,-37.856239990243,3146,GLEN IRIS
1694,HILLSIDE PARK,145.249399976184,-37.9114199967525,3178,ROWVILLE
1695,HISLOP RESERVE,145.080959977696,-37.8000899914096,3104,BALWYN NORTH
1696,HISTORIC PINDI MILL SITE PICNIC AREA,145.555419904575,-37.4779000235143,3777,TOOLANGI
1697,A W HODGETTS RESERVE,144.663760002235,-38.2651299939099,3225,QUEENSCLIFF
1698,HOLBROOK RESERVE,144.936209984042,-37.770260001304,3055,BRUNSWICK WEST
1699,HOLEY PLAINS PARK,146.895139989603,-38.2198499886214,3851,LONGFORD
1700,HOLGATE MEMORIAL PARK,145.729589974805,-38.0948499997469,3815,BUNYIP
1701,BARRY SIMON RESERVE,145.264719982283,-37.9676199971661,3802,ENDEAVOUR HILLS
1702,MOSSGIEL PARK RESERVE,145.264719982283,-37.9676199971661,3802,ENDEAVOUR HILLS
1703,BARWIDGEE CREEK PUBLIC RECREATION RESERVE,146.718479981097,-36.5528999856548,3737,MYRTLEFORD
1704,HOSKEN RESERVE,144.957969996161,-37.7251300035096,3058,COBURG NORTH
1705,STEPHEN CALLEJA RESERVE,144.760699979299,-37.7440100022279,3021,ALBANVALE
1706,HOVELL FLORA AND FAUNA RESERVE,145.582919949978,-38.6581800027599,3995,HARMERS HAVEN
1707,BEAU MONDE RESERVE,144.979449999128,-37.7556900021679,3058,COBURG
1708,BECKETT PARK,145.092349972575,-37.8105599892588,3103,BALWYN
1709,BEDFORD PARK,145.237209984995,-37.8147100013054,3134,RINGWOOD
1710,BEN ALEXANDER PLAYGROUND,144.998199985994,-37.8190099958444,3121,RICHMOND
1711,BEN CAIRN RESERVE,145.616810013758,-37.7215099913909,3799,WESBURN
1712,BEN-KURNAI COASTAL RESERVE,148.750139998879,-37.7887399962782,3888,MARLO
1713,HURSTBRIDGE MEMORIAL PARK,145.189599986535,-37.6390899999097,3099,HURSTBRIDGE
1714,BENAMBRA RECREATION RESERVE,147.699559916937,-36.9434699291688,3900,BENAMBRA
1715,HUTCHISON PLACE RESERVE,144.978759983329,-37.7365100030016,3058,COBURG
1716,BENDIGO WHIPSTICK FOREST PARK,144.406809900142,-36.4970700057556,3570,KAMAROOKA
1717,IAN MUSGROVE RESERVE,144.879739984849,-37.6773499998801,3049,WESTMEADOWS
1718,IAN TATTERSON LEISURE PARK,145.155699982923,-37.9981799977924,3173,KEYSBOROUGH
1719,BERNIE LARSEN RESERVE,145.353199983202,-37.9017899969317,3160,BELGRAVE
1720,Brentwood Park Reserve,145.299669980926,-37.7898099964979,3136,CROYDON
1721,BERRYS GREEN,145.02458996463,-36.6423500042481,3612,WHROO
1722,Brentwood Park,145.299669980926,-37.7898099964979,3136,CROYDON
1723,JAMES BALFOUR OAK TREE PARK,146.155979984378,-38.214289998342,3824,TRAFALGAR
1724,BETULA RESERVE,145.230419981862,-37.9892899979155,3177,DOVETON
1725,BEVERLEY ANTON RESERVE,144.77318996559,-37.8515799947377,3028,LAVERTON
1726,BEWSELL RESERVE,145.23072998159,-37.8919199963343,3179,SCORESBY
1727,JAMES D BELLIN RESERVE,144.691259971679,-37.9745699989743,3030,WERRIBEE SOUTH
1728,BEREMBOKE RESERVE,144.237369975247,-37.7817899916894,3342,BEREMBOKE
1729,BOOTH RESERVE,145.229309978487,-37.9853999978144,3175,DANDENONG
1730,CRINIGAN ROAD PUBLIC RESERVE,146.422609974771,-38.2140599970127,3840,MORWELL
1731,CUMBERLAND MEMORIAL SCENIC RESERVE,145.873479873714,-37.5620700007555,3779,CAMBARVILLE
1732,GEORGE TINDALE GARDENS,145.365980008365,-37.8803999986932,3789,SHERBROOKE
1733,BOND RESERVE,144.842369975195,-37.8270700002706,3025,ALTONA NORTH
1734,NAGAMBIE SPORTS GROUND,145.155699989616,-36.7853999971839,3608,NAGAMBIE
1735,NAMBROK RECREATION RESERVE,146.853770004161,-38.0694299925353,3847,NAMBROK
1736,Maud Jan See Chin Reserve,144.571959971701,-37.6810299931673,3337,MELTON
1737,Thomas Maddock Reserve,145.86972996134,-38.1294299990203,3818,DROUIN
1738,LEMNOS SQUARE,144.946879971178,-37.8441399964903,3206,ALBERT PARK
1739,HARKNESS PARK,145.912399982094,-38.1535099972481,3820,WARRAGUL
1740,STRACHAN PARK,145.917339979238,-38.1534399976046,3820,WARRAGUL
1741,DAREBIN CREEK RESERVE,145.031259995232,-37.6445700020269,3076,EPPING
1742,DARGILE RESERVE,144.746810017879,-36.8528999947023,3523,MOUNT CAMEL
1743,DARNUM RECREATION GROUND,146.010699997253,-38.1848499975631,3822,DARNUM
1744,DAVID SPURLING RESERVE,144.887179990475,-37.7986800001394,3011,FOOTSCRAY
1745,JACK CANN RESERVE,144.292649981249,-37.4767900004185,3458,BLACKWOOD
1746,JACK O'TOOLE RESERVE,145.039589983777,-37.791789995514,3102,KEW EAST
1747,CLIFTON PARK,144.952979977526,-37.7666500014265,3056,BRUNSWICK
1748,JACOBS RESERVE,144.94602001377,-37.7570800048918,3055,BRUNSWICK WEST
1749,JAMES ALEXANDER RESERVE,145.258979969552,-37.9832199978632,3802,ENDEAVOUR HILLS
1750,BEZZANT RESERVE,144.615399968031,-38.2721799927109,3225,POINT LONSDALE
1751,TOM THUMB RESERVE,144.262650006405,-36.7120700026492,3556,EAGLEHAWK
1752,TARRAVILLE RECREATION RESERVE,146.717949965449,-38.6380900127558,3971,TARRAVILLE
1753,MCKECHNIE RESERVE,144.798089983544,-37.7465600027711,3021,ST ALBANS
1754,TARWIN RECREATION RESERVE,145.866529977805,-38.7056799963269,3956,TARWIN LOWER
1755,ROTARY PARK,144.734509969903,-36.1468500033587,3564,ECHUCA
1756,ROW RESERVE,145.226619979036,-37.921469996232,3178,ROWVILLE
1757,PENNYWEIGHT GULLY RESERVE,143.881919988222,-37.5739499974306,3350,CANADIAN
1758,LAKE LORNE RESERVE,144.55804998883,-38.182179996328,3222,DRYSDALE
1759,LARA SPORTS CLUB RESERVE,144.41390996539,-38.0205099967648,3212,LARA
1760,W H MYERS RESERVE,144.319549998963,-38.0965399990116,3215,BELL POST HILL
1761,ST LEONARDS & LAKE RESERVES,144.710600002784,-38.1742299925028,3223,SAINT LEONARDS
1762,WALLINGTON RESERVE,144.503139972583,-38.2284199969542,3222,WALLINGTON
1763,BAKERS OVAL,144.33844997747,-38.1360499964965,3218,GEELONG WEST
1764,FYANSFORD COMMON,144.311809984206,-38.1451799978008,3218,FYANSFORD
1765,FRANK MANN RESERVE,144.275310003819,-38.1720800115702,3221,CERES
1766,MOUNT DUNEED RESERVE,144.312590001999,-38.2406500324354,3217,MOUNT DUNEED
1767,ALKARA AVENUE RESERVE,144.413479968663,-38.0186399967249,3212,LARA
1768,A H FORD RESERVE,144.813489987576,-37.8608599935217,3018,ALTONA
1769,A W LANGSHAW RESERVE,144.851529976625,-37.8361200009483,3025,ALTONA NORTH
1770,ARMSTRONG RESERVE,144.888269971052,-37.8470699995133,3015,NEWPORT
1771,CHERRY LAKE RESERVE,144.832269982256,-37.8613299977974,3018,ALTONA
1772,COMMONWEALTH RESERVE,144.904029974664,-37.8622800006804,3016,WILLIAMSTOWN
1773,CORINATION RESERVE,144.890789964781,-37.8455299986753,3015,NEWPORT
1774,D GRLEVE RESERVE,144.78099998863,-37.8850499944726,3028,ALTONA MEADOWS
1775,DENNIS RESERVE,144.895529975422,-37.8597000010856,3016,WILLIAMSTOWN
1776,DUCROW RESERVE,144.876519989321,-37.8357400016439,3015,NEWPORT
1777,F RUSH RESERVE,144.81784999242,-37.8552599957824,3018,ALTONA
1778,FELL RESERVE,144.843399972424,-37.8603499995465,3018,SEAHOLME
1779,G DEN DULK RESERVE,144.808999978206,-37.8715499942837,3018,ALTONA
1780,G H RANSOM RESERVE,144.816869989667,-37.8731099938264,3018,ALTONA
1781,GRAY RESERVE,144.889459984519,-37.8593300006701,3016,WILLIAMSTOWN
1782,H C KIM RESERVE,144.843799978129,-37.8624399995865,3018,SEAHOLME
1783,J J GINIFER RESERVE,144.842789985788,-37.8394300013756,3025,ALTONA NORTH
1784,J K GRANT RESERVE,144.832389985036,-37.863169997817,3018,ALTONA
1785,JACKSON RESERVE,144.887769975781,-37.8503799994998,3016,WILLIAMSTOWN
1786,K C WHITE RESERVE,144.87720999624,-37.8538800008031,3016,WILLIAMSTOWN NORTH
1787,MACLEAN RESERVE,144.90179998192,-37.863500000536,3016,WILLIAMSTOWN
1788,MCCORMACK PARK,144.775019964563,-37.8581699949021,3028,LAVERTON
1789,QUARRY RESERVE,144.875149997819,-37.8518400006505,3016,WILLIAMSTOWN NORTH
1790,R FRAZER RESERVE,144.838429999141,-37.8709899962751,3018,SEAHOLME
1791,ROBERTSON RESERVE,144.901099986899,-37.8648100004965,3016,WILLIAMSTOWN
1792,S G MCINTOSH RESERVE,144.845159984615,-37.8650099986948,3018,SEAHOLME
1793,SADLER RESERVE,144.892839988117,-37.8668400009467,3016,WILLIAMSTOWN
1794,W J IRWIN RESERVE,144.850159980167,-37.8425700008952,3025,ALTONA NORTH
1795,ALMA AVENUE RESERVE,144.783149974934,-37.8694499945215,3028,ALTONA MEADOWS
1796,BROWN AVENUE RESERVE,144.777159986392,-37.8841899942076,3028,ALTONA MEADOWS
1797,CAMERON AVENUE RESERVE,144.772119975014,-37.8679699947668,3028,ALTONA MEADOWS
1798,ALTONA MEADOWS RESERVE,144.782829984988,-37.8787599935574,3028,ALTONA MEADOWS
1799,DUKE STREET RESERVE,144.846279977724,-37.8344000015813,3025,ALTONA NORTH
1800,WILLIAMSTOWN JUNCTION RESERVE,144.885389976456,-37.8479699993229,3015,NEWPORT
1801,HODDLE WAY RESERVE,144.784369994722,-37.8880299947188,3028,ALTONA MEADOWS
1802,PLATYPUS PARK,142.474649960795,-38.3602799853637,3280,WARRNAMBOOL
1803,BONFIELD RESERVE,144.837879978125,-37.7235100043239,3036,KEILOR
1804,VERONA DRIVE RESERVE ,144.797229979954,-37.6975000024084,3038,KEILOR LODGE
1805,DONATH PARK,145.014999986027,-37.6999500022563,3073,RESERVOIR
1806,GUMMS CORNER,144.840699973374,-37.7259600045304,3033,KEILOR EAST
1807,GUNBOWER RECREATION RESERVE,144.37447024617,-35.9521799491249,3566,GUNBOWER
1808,LEO HOFFMAN RESERVE,144.87806998653,-37.8405700007792,3015,NEWPORT
1809,LEOPOLD MEMORIAL PARK,144.457369969286,-38.185129996651,3224,LEOPOLD
1810,P A BURNS RESERVE,144.85263999351,-37.8631800001911,3018,ALTONA
1811,NAVARRE COMMUNITY PARK,143.113480005653,-36.8984599953547,3384,NAVARRE
1812,BOWMANS REDGUM RESERVE,145.158649979674,-38.0138799990934,3173,KEYSBOROUGH
1813,NORFOLK PINE PARK,145.082299998182,-37.9577999914786,3202,HEATHERTON
1814,LES ERDI PLAZA,144.963889963906,-37.8194299964993,3000,MELBOURNE
1815,PALAZZOLO PARK,144.956410006835,-37.7490900035518,3058,COBURG
1816,VILLAGE GREEN RESERVE,147.856229964167,-37.8877500006822,3904,METUNG
1817,DOLLYS GARDEN,148.959460076095,-37.7540800226672,3889,BEMM RIVER
1818,HEYWOOD RECREATION RESERVE,141.664879963887,-38.1280999872722,3304,HEYWOOD
1819,GRAHAM HUSSON FAUNA PARK,141.583910099635,-38.3421199901315,3305,PORTLAND
1820,DRUMBORG HALL RECREATION RESERVE,141.586160013467,-38.0763099956649,3304,DRUMBORG
1821,MYAMYN SPORTS & SHOWGROUND RESERVE,141.721250023531,-37.9949200035648,3304,MYAMYN
1822,MARKET SQUARE RESERVE,141.604490050769,-38.3439300142631,3305,PORTLAND
1823,BRIGHT STREET PARK,144.268210003339,-36.7233200040844,3556,CALIFORNIA GULLY
1824,EWING PARK,144.289349984627,-36.7645899997305,3550,BENDIGO
1825,PEPERCORN PARK,144.425509989146,-36.7810299997964,3551,LONGLEA
1826,QUARRY HILL RECREATION RESERVE,144.275969990877,-36.774389997916,3550,QUARRY HILL
1827,SPRING GULLY RECREATION RESERVE,144.286649980819,-36.7967799967573,3550,SPRING GULLY
1828,LONG GULLY RESERVE,144.255859992171,-36.7454500014166,3550,LONG GULLY
1829,GOLDEN SQUARE OVAL,144.259459986073,-36.7701500008085,3555,GOLDEN SQUARE
1830,STRATHFIELDSAYE RECREATION RESERVE,144.346989974913,-36.8045199977678,3551,STRATHFIELDSAYE
1831,LONDONDERRY RESERVE,144.272140003617,-36.7635300015964,3550,BENDIGO
1832,BREAKWATER RESERVE,144.369939987901,-38.1834799958608,3219,BREAKWATER
1833,COOLABAH PARK,144.321380004077,-38.206240015803,3216,GROVEDALE
1834,FREDERICK MORTON RESERVE,144.333389992192,-38.1660999993474,3216,BELMONT
1835,HERNE HILL RESERVE,144.325929980452,-38.138189997686,3218,HERNE HILL
1836,JOHNSTONE PARK,144.356739976161,-38.1463099977634,3220,GEELONG
1837,OCEAN GROVE PARK,144.523779972985,-38.2653200025528,3226,OCEAN GROVE
1838,RIPPLESIDE PARK,144.354889993519,-38.1270699935238,3215,RIPPLESIDE
1839,ANAKIE RESERVE,144.251969986815,-37.9152599944668,3213,ANAKIE
1840,SHOUBRA RESERVE,144.314709996422,-38.1762300051812,3216,HIGHTON
1841,ELINBANK RESERVE,144.337049970828,-38.2013000108033,3216,GROVEDALE
1842,JERRINGOT WETLAND RESERVE,144.352479972831,-38.1754799956613,3216,BELMONT
1843,ALLISTER RESERVE,144.387509985387,-38.0170599949999,3212,LARA
1844,BANK STREET PLAYGROUND,144.400069997408,-38.0243999968742,3212,LARA
1845,RICHARD DRIVE PLAYGROUND,144.393090004197,-38.0285399964387,3212,LARA
1846,MCSHANE COURT PLAYGROUND,144.376219949086,-38.0671599945625,3214,CORIO
1847,LINCOLN STREET PLAYGROUND,144.356459944455,-38.0681699932663,3214,CORIO
1848,MEATH COURT PLAYGROUND,144.355039940387,-38.0711799931912,3214,CORIO
1849,GOLDSWORTHY ROAD EASEMENT,144.339429981592,-38.076319996195,3214,CORIO
1850,WITHAM PARK,142.476999945881,-38.3548699854678,3280,WARRNAMBOOL
1851,WESTERN PARK,145.920419976665,-38.153739997829,3820,WARRAGUL
1852,WESTERN PORT STATE WILDLIFE RESERVE,145.290699979364,-38.2398499976541,3912,PEARCEDALE
1853,WESTGATE PARK,144.910419975856,-37.8317899999268,3207,PORT MELBOURNE
1854,MULLUM MULLUM RESERVE,145.238159987905,-37.804979998311,3134,RINGWOOD
1855,BOWER BEND,144.774029727109,-36.1209597688562,2731,MOAMA
1856,STEVE THOMPSON OVAL,145.187090019996,-38.0834599984913,3201,CARRUM DOWNS
1857,PAT WRIGHT SENIOR OVAL,145.170979981679,-37.9762399947138,3174,NOBLE PARK
1858,EILDON LIONS LEISURE PARK,145.909309952703,-37.2348499992775,3713,EILDON
1859,FERGUSONS PADDOCK,145.194439978077,-37.6356599992236,3099,HURSTBRIDGE
1860,ELDER PARK,143.726839986594,-37.9076999796255,3330,ROKEWOOD
1861,JIM HARDY PARK,145.222609980554,-37.9863199963548,3175,DANDENONG
1862,WILLIAM ROBERT LEES PARK,145.171169984186,-37.9532299965847,3174,NOBLE PARK
1863,IAN COWIE RECREATION RESERVE,144.660169997984,-37.7322599963882,3335,ROCKBANK
1864,PRITCHARD RESERVE,144.848539975893,-37.7921000004727,3019,BRAYBROOK
1865,STUART MILL RECREATION RESERVE,143.287599979024,-36.8053300044011,3477,STUART MILL
1866,TIMBEROO FOREST RESERVE,142.160149998586,-35.1881799765353,3490,OUYEN
1867,TOLMER REST AREA,140.967919968245,-36.3431799102467,3420,SERVICETON
1868,DINGLEY RESERVE,145.133979955517,-37.9818499961906,3172,DINGLEY VILLAGE
1869,DINSDALE PARK,145.257369979647,-37.8676299950353,3155,BORONIA
1870,GUNNS ROAD RESERVE,145.2635799791,-37.9980699972751,3803,HALLAM
1871,HALLIDAY PARK,145.191569989341,-37.8107899941146,3132,MITCHAM
1872,TYROL PARK,145.190189974003,-37.8614199973332,3133,VERMONT SOUTH
1873,DORSET PUBLIC GOLF COURSE,145.300129979119,-37.805409998627,3136,CROYDON
1874,PLUMRIDGE PARK,144.949589996829,-37.732350003982,3058,COBURG NORTH
1875,POINT COOK METROPOLITAN PARK,144.794590019367,-37.9026299945003,3030,POINT COOK
1876,DESTINATION PARK,144.889719970863,-37.6147400011694,3059,GREENVALE
1877,BARCLAY PARK ,145.102819975291,-37.7142400013817,3088,GREENSBOROUGH
1878,Melaleuca Reserve,144.321379995799,-38.3129000624537,3228,TORQUAY
1879,Garrong Park,144.9594900002,-37.7592500028254,3056,BRUNSWICK
1880,Bulleke-bek Park,144.960639991651,-37.762480002924,3056,BRUNSWICK
1881,Frontier Park,144.662889997645,-37.7216199965049,3336,AINTREE
1882,Wireless Park,144.667769994021,-37.7195299968194,3336,AINTREE
1883,Bullion Park,144.65824999671,-37.7191699961783,3336,AINTREE
1884,Arbourton Park,144.657089997544,-37.7226199961218,3336,AINTREE
1885,Madison Garden,144.555969999847,-37.696399996196,3338,BROOKFIELD
1886,Fieldstone Way Reserve,144.552739995012,-37.690659996945,3338,BROOKFIELD
1887,C. J. Melrose Memorial Reserve,144.558580010415,-37.7056699974275,3338,BROOKFIELD
1888,Montmarte Boulevard Reserve,144.752969980648,-37.7439300027056,3023,BURNSIDE
1889,Jai Court Reserve,144.747959981356,-37.7454300023768,3023,BURNSIDE
1890,Pilbara Avenue Reserve,144.752419980276,-37.7483000026956,3023,BURNSIDE
1891,Bullum Bullum Biodiversity Reserve,144.756609978669,-37.7565200030294,3023,BURNSIDE
1892,Inglewood Park,144.755869981578,-37.7305400028183,3023,BURNSIDE HEIGHTS
1893,Freelands Reserve,144.751189981436,-37.7394500025577,3023,BURNSIDE HEIGHTS
1894,Arbour Boulevard North Reserve,144.7524199826,-37.7265800025609,3023,BURNSIDE HEIGHTS
1895,Boathouse Reserve ,144.74689998298,-37.7319700022218,3023,CAROLINE SPRINGS
1896,Lake Caroline Waterfront,144.742779983313,-37.735530002966,3023,CAROLINE SPRINGS
1897,Kings Domain Reserve,144.73870998536,-37.7229800016138,3023,CAROLINE SPRINGS
1898,Caroline Springs Urban Wetland Reserve,144.746509983369,-37.7289600021769,3023,CAROLINE SPRINGS
1899,Milllennium Gardens,144.735589982473,-37.7457000015443,3023,CAROLINE SPRINGS
1900,Oakview Parade Reserve,144.735679986294,-37.7191500023857,3023,CAROLINE SPRINGS
1901,Salina Walk Reserve,144.740359983244,-37.7401000038312,3023,CAROLINE SPRINGS
1902,St Georges Avenue Reserve,144.730749984847,-37.740690005187,3023,CAROLINE SPRINGS
1903,Kororoit Approach Reserve,144.740679983282,-37.7392300038474,3023,CAROLINE SPRINGS
1904,Cranwell Square,144.748539983375,-37.7256200022931,3023,CAROLINE SPRINGS
1905,Mount Carberry Recreation Reserve,144.572819975855,-37.706539999383,3338,MELTON SOUTH
1906,Acacia Crescent Reserve,144.574689974199,-37.7002199994686,3338,MELTON SOUTH
1907,Cheshire Avenue Reserve,144.578279983003,-37.6961999976833,3338,MELTON SOUTH
1908,Childs Street East Reserve,144.572889978756,-37.6979099983341,3338,MELTON SOUTH
1909,Childs Street West Reserve,144.569469985425,-37.6971799971013,3338,MELTON SOUTH
1910,Bill Cahill Reserve,144.568259989309,-37.7097199990983,3338,MELTON SOUTH
1911,Wattle Place Reserve,144.566159992646,-37.7005199969012,3338,MELTON SOUTH
1912,Turf Club Reserve,144.57618998911,-37.717519996676,3338,MELTON SOUTH
1913,Exford Downs Reserve,144.562510005657,-37.7063999976941,3338,MELTON SOUTH
1914,Fairhaven Boulevard Reserve,144.550999995706,-37.686939996806,3337,MELTON WEST
1915,Cambrian Way Reserve,144.552609989571,-37.6761099968462,3337,MELTON WEST
1916,Arthur Westlake Memorial Reserve,144.549350000731,-37.6799399966526,3337,MELTON WEST
1917,Bills Park,144.568999966607,-37.6772999939466,3337,MELTON WEST
1918,The Grange Reserve,144.542220015675,-37.6826899971946,3337,MELTON WEST
1919,Westlake Drive Reserve,144.544230021559,-37.6804899963148,3337,MELTON WEST
1920,Westmelton Drive Reserve,144.559539965438,-37.6754699973042,3337,MELTON WEST
1921,Scott Street Reserve,144.575029974535,-37.6775699923508,3337,MELTON
1922,Mount Cottrell Biodiversity Reserve,144.626729982457,-37.7635799953406,3024,MOUNT COTTRELL
1923,Stewart Crescent Reserve,144.666199995697,-37.7345299968071,3335,ROCKBANK
1924,Atherstone Boulevard Reserve,144.59505998493,-37.716649996931,3338,STRATHTULLOH
1925,Rosina Drive Reserve,144.570079975396,-37.6869899950789,3337,MELTON
1926,Atherstone Entry Park,144.598079991322,-37.7174499971378,3338,MELTON SOUTH
1927,Bridge Road Regional Play Space,144.588139974233,-37.7156799984626,3338,MELTON SOUTH
1928,Heron Park,144.763849981784,-37.715700003265,3037,TAYLORS HILL
1929,Darwin Street Reserve,144.758059983288,-37.7110100038449,3037,TAYLORS HILL
1930,Burrill Court Reserve,144.755629982937,-37.7182300037257,3037,TAYLORS HILL
1931,Cardinia Crescent Reserve,144.763689981494,-37.7186700032726,3037,TAYLORS HILL
1932,Barwon Street Reserve,144.753769982861,-37.7219500026232,3037,TAYLORS HILL
1933,Springbank Park,144.763089982412,-37.7110600031848,3037,TAYLORS HILL
1934,Bloomsbury Drive Reserve,144.759679982718,-37.7137200029711,3037,TAYLORS HILL
1935,Taylors Hill Central Park,144.751699981684,-37.7082600033986,3037,TAYLORS HILL
1936,Centennial Park,144.744939985449,-37.7120500029661,3037,TAYLORS HILL
1937,Morton Homestead,144.755939981908,-37.7086500036872,3037,TAYLORS HILL
1938,North Terrace Reserve,144.742099985102,-37.7199000018232,3037,TAYLORS HILL
1939,Taylors Hill Recreation Reserve,144.753609983832,-37.7131300035577,3037,TAYLORS HILL
1940,Toolern Vale Recreation Reserve,144.594939963188,-37.6103999962635,3337,TOOLERN VALE
1941,Castletown Boulevard Wetland Reserve,144.57476001207,-37.7296899946559,3338,MELTON SOUTH
1942,Oldbridge Boulevard Reserve,144.570200007753,-37.7307099953578,3338,MELTON SOUTH
1943,Beatty Park,144.570329969494,-37.6761899940286,3337,MELTON
1944,Sidar Street Reserve,144.580689981601,-37.6771299937259,3337,MELTON
1945,Razor-Viking Wilderness Zone,146.680629965806,-37.1147399954095,3737,WONNANGATTA
1946,Drake Court Reserve,144.585899987761,-37.6765499950703,3337,MELTON
1947,Bowen Wilderness Zone,148.438160016792,-37.1491499892774,3888,DEDDICK VALLEY
1948,Genoa Wilderness Zone,149.290380112852,-37.2618301317123,3890,CHANDLERS CREEK
1949,Emil Court Reserve,144.578269981824,-37.6789899935759,3337,MELTON
1950,Fay Street Reserve,144.575759979404,-37.6870699954584,3337,MELTON
1951,The Willows,144.587580000455,-37.6861499942421,3337,MELTON
1952,Fantail Way Reserve,144.548399998865,-37.7086499967673,3338,BROOKFIELD
1953,Lake Caroline Waterfront,144.740949983633,-37.7355100028425,3023,CAROLINE SPRINGS
1954,Bourke Square,144.746799983141,-37.7306300022068,3023,CAROLINE SPRINGS
1955,Stony Hill Creek Linear Reserve,144.732079980289,-37.6875800019471,3037,HILLSIDE
1956,Kurrajong Recreation Reserve,144.574529974101,-37.7014099994653,3338,MELTON SOUTH
1957,Killarney Lakes Reserve,144.606479972845,-37.6798899944666,3337,MELTON
1958,Police Paddock Reserve,144.587859998681,-37.6835499952447,3337,MELTON
1959,Addicott Way Reserve,144.750559983984,-37.7166500033737,3037,TAYLORS HILL
1960,Brian Weightman Oval,142.165450027066,-34.1968000303567,3500,MILDURA
1961,Melton South Recreation Reserve,144.577079967016,-37.7074899996732,3338,MELTON SOUTH
1962,BARCLAY RESERVE,144.825889969976,-37.78140999987,3020,ALBION
1963,BAREENA PARK,144.344309983569,-38.1537399979904,3220,NEWTOWN
1964,C G BARKER RESERVE,144.938199983892,-37.7684600014286,3055,BRUNSWICK WEST
1965,BARKLEY SQUARE RESERVE,144.445419986532,-37.2404000000087,3444,KYNETON
1966,BARRY POWELL ATHLETICS TRACK,145.230419977385,-37.9845699978863,3175,DANDENONG
1967,CARRINGTON PARK,145.243299979002,-37.8955499952301,3180,KNOXFIELD
1968,HEPBURN GOLF COURSE,144.130419970552,-37.316239997833,3461,HEPBURN
1969,HEPBURN RECREATION RESERVE,144.124449980168,-37.3005699953477,3461,HEPBURN
1970,W E CASH RESERVE,144.976809984022,-37.7240100007906,3058,COBURG
1971,FOSTER RECREATION RESERVE,146.204809993412,-38.6558399966379,3960,FOSTER
1972,STEAVENSON FALLS RESERVE,145.767639590031,-37.5337399969736,3779,MARYSVILLE
1973,KALLISTA NATURAL RESERVE,145.380349984384,-37.8847499977266,3791,KALLISTA
1974,BOARDMAN MEMORIAL RESERVE,144.695419957881,-37.5817899988214,3429,SUNBURY
1975,GARY DAVIDSON BMX TRACK,144.625139975079,-37.9012399980851,3024,WYNDHAM VALE
1976,KEILOR RECREATION RESERVE,144.834029980305,-37.7187400040331,3036,KEILOR
1977,KELLY TREE PICNIC AREA,146.199030013972,-36.8742900040684,3723,ARCHERTON
1978,SWAN LAKE RESERVE,145.159310011745,-38.5065099981616,3922,VENTNOR
1979,FRANK GRAHAM OVAL,143.74902996391,-37.0534600007359,3465,MARYBOROUGH
1980,GOIM PITCH,144.324449985034,-38.3055400576106,3228,TORQUAY
1981,GRENVILLE OVAL,144.324729986895,-38.3063800586342,3228,TORQUAY
1982,BULUK PARK,144.940719983827,-37.8203899969226,3008,DOCKLANDS
1983,PENALUNA PARK,145.905279990035,-38.1474999966967,3820,WARRAGUL
1984,SURREY PARK,144.998269959408,-37.8426499959957,3141,SOUTH YARRA
1985,BRIDGET SHORTELL RESERVE,144.922449993222,-37.7074200009752,3046,GLENROY
1986,RICHARD MOSS RESERVE,145.078309987237,-37.8815899927324,3145,MALVERN EAST
1987,FRED LASSLETT RESERVE,145.061599970709,-37.7574299988129,3084,HEIDELBERG
1988,BRADBURY PARK,146.903390009815,-36.13207992494,3690,WODONGA
1989,COOKS SPRING RESERVE,145.5048600125,-38.0558299995416,3810,PAKENHAM
1990,LAURIE & JENNY POULTON & FAMILY MEMORIAL PLAYGROUND,142.366809999276,-35.7278999888055,3396,HOPETOUN
1991,MELVILLE CAVES PICNIC GROUND,143.69265998149,-36.6026800053344,3517,BRENANAH
1992,TAGGERTY RIVER PICNIC AREA,145.775139616136,-37.5037399983225,3779,MARYSVILLE
1993,TALI KARNG SCENIC RESERVE,146.69541997059,-37.5606799843527,3858,LICOLA
1994,LLOYD PARK,145.348979966147,-37.9537199979583,3160,BELGRAVE SOUTH
1995,NAPIER PARK RESERVE,145.189869990242,-37.8778999934132,3150,GLEN WAVERLEY
1996,NAR NAR GOON RECREATION RESERVE,145.572649990453,-38.0841199995103,3812,NAR NAR GOON
1997,NARBETHONG SPECIAL PURPOSES RESERVE,145.63652995354,-37.5776300418925,3778,NARBETHONG
1998,NARR-MAEN RESERVE,145.261049985941,-37.7777899977334,3136,CROYDON HILLS
1999,NARRE WARREN EAST RESERVE,145.360979970094,-37.9623499978513,3804,NARRE WARREN EAST
