,sec_school,longitude,latitude,postcode,suburb
0,RICHMOND HIGH SCHOOL - GLEADELL STREET CAMPUS,145.00268998739,-37.817399997142,3121,RICHMOND
1,HAWKESDALE P12 COLLEGE,142.318199972333,-38.106509999796,3287,HAWKESDALE
2,HORSHAM SECONDARY COLLEGE,142.18409996788,-36.7116599715732,3400,HORSHAM
3,IRYMPLE TECHNICAL SCHOOL,142.164700066266,-34.2323300255489,3498,IRYMPLE
4,Port Melbourne Secondary College,144.931810002113,-37.8320199973867,3207,PORT MELBOURNE
5,Greenvale Secondary College,144.890579967893,-37.650260001449,3059,GREENVALE
6,Wurun Senior Campus,144.983599975389,-37.7926999966816,3068,FITZROY NORTH
7,Clyde Secondary College,145.338119981484,-38.1287099992802,3978,CLYDE
8,MIDLANDS SECONDARY COLLEGE SENIOR CAMPUS,143.892649983338,-37.5345699958725,3350,NERRINA
9,ST PAULS TRARALGON CAMPUS,146.518219987735,-38.1834899999477,3844,TRARALGON
10,SPRINGSIDE WEST SECONDARY COLLEGE,144.727869988017,-37.7156900018379,3335,PLUMPTON
11,PRESTON HIGH SCHOOL,145.006399985981,-37.7416900019263,3072,PRESTON
12,WARRAGUL HIGH SCHOOL,145.922369974778,-38.1670699990524,3820,WARRAGUL
13,ST ALBANS SECONDARY COLLEGE - STRATHBOGIE CAMP,145.809980006621,-36.8217499975002,3669,CREEK JUNCTION
14,BENTON JUNIOR COLLEGE,145.061119972147,-38.2459299977954,3931,MORNINGTON
15,BETHEL CHRISTIAN COLLEGE,145.234539998361,-36.4399400214338,3616,TATURA
16,WILLIAM RUTHVEN SECONDARY COLLEGE,145.002770001497,-37.6966700013977,3073,RESERVOIR
17,CORIO SECONDARY COLLEGE,144.352639967749,-38.0812399960948,3214,CORIO
18,KARINGAL HIGH SCHOOL,145.146809986748,-38.1403999970547,3199,FRANKSTON
19,ALTONA NORTH HIGH SCHOOL,144.846669980383,-37.8369300016234,3025,ALTONA NORTH
20,BAYSIDE SECONDARY COLLEGE WILLIAMSTOWN CAMPUS,144.886389987192,-37.8580400004533,3016,WILLIAMSTOWN
21,MORTLAKE SECONDARY COLLEGE,142.810980007668,-38.0862399884911,3272,MORTLAKE
22,MURRAYVILLE HIGH SCHOOL,141.178200030436,-35.2656799334094,3512,MURRAYVILLE
23,MILDURA TECHNICAL SCHOOL,142.147990017832,-34.1957300323617,3500,MILDURA
24,MANSFIELD SECONDARY COLLEGE,146.088570002023,-37.0626800041914,3722,MANSFIELD
25,MANSFIELD HIGH SCHOOL,146.088570002023,-37.0626800041914,3722,MANSFIELD
26,MERRILANDS COLLEGE (P-12),145.002770001497,-37.6966700013977,3073,RESERVOIR
27,SWAN HILL SECONDARY COLLEGE,143.55285006267,-35.3352299804199,3585,SWAN HILL
28,SWAN HILL COLLEGE,143.55285006267,-35.3352299804199,3585,SWAN HILL
29,BALMORAL K-12 COMMUNITY COLLEGE,141.827379991723,-37.2405400078338,3407,BALMORAL
30,BAYSIDE CHRISTIAN COLLEGE,145.163029964659,-38.1786199964115,3911,LANGWARRIN SOUTH
31,BETH RIVKAH LADIES COLLEGE,145.00083998906,-37.8692699933366,3183,ST KILDA EAST
32,CAMBERWELL GRAMMAR SCHOOL,145.066409995472,-37.8160799885077,3126,CANTERBURY
33,CHRISTIAN COLLEGE BELLARINE,144.573559967291,-38.1710099962946,3222,DRYSDALE
34,COVENANT COLLEGE,144.317999993169,-38.0971799989137,3215,BELL POST HILL
35,CREEK STREET CHRISTIAN COLLEGE,144.27158000051,-36.7655200015724,3550,BENDIGO
36,CHRIST THE KING ANGLICAN COLLEGE,145.660059943222,-35.9242700429946,3644,COBRAM
37,MARIBYRNONG HIGH SCHOOL,144.888239983361,-37.7795200010927,3032,MARIBYRNONG
38,BOX FOREST SECONDARY COLLEGE OAK PARK CAMPUS,144.925699996917,-37.7142900022395,3046,OAK PARK
39,OAK PARK SECONDARY COLLEGE,144.925699996917,-37.7142900022395,3046,OAK PARK
40,OAKLEIGH HIGH SCHOOL,145.116529954248,-37.9028999944979,3166,OAKLEIGH EAST
41,OAKLEIGH SECONDARY COLLEGE,145.0754199631,-37.9056799946827,3166,HUGHESDALE
42,OAKLEIGH TECHNICAL SCHOOL,145.0754199631,-37.9056799946827,3166,HUGHESDALE
43,Oberon High School,144.365359994699,-38.230810023848,3217,ARMSTRONG CREEK
44,WINDSOR TECHNICAL SCHOOL,144.995979994265,-37.8567899969264,3181,WINDSOR
45,WODONGA HIGH SCHOOL,146.881050030162,-36.1256099631965,3690,WODONGA
46,MITCHELL SECONDARY COLLEGE,146.890700015054,-36.1303999399625,3690,WODONGA
47,WODONGA MIDDLE YEARS COLLEGE HUON CAMPUS,146.890700015054,-36.1303999399625,3690,WODONGA
48,WODONGA WEST COLLEGE,146.879590094319,-36.1176299620332,3690,WODONGA
49,WODONGA WEST HIGH SCHOOL,146.879590094319,-36.1176299620332,3690,WODONGA
50,Holy Eucharist Primary School,145.069449971498,-37.8841499931387,3163,CARNEGIE
51,De La Salle College - Holy Eucharist Campus,145.069449971498,-37.8841499931387,3163,CARNEGIE
52,KANIVA COLLEGE,141.244850033676,-36.382709975984,3419,KANIVA
53,KERANG CHRISTIAN COLLEGE,143.913420022501,-35.7304099987698,3579,KERANG
54,LAKESIDE LUTHERAN COLLEGE,145.455929996026,-38.0649099981493,3810,PAKENHAM
55,LIGHTHOUSE CHRISTIAN COLLEGE,145.14350998372,-38.0011899989684,3173,KEYSBOROUGH
56,LIGHTHOUSE CHRISTIAN COLLEGE CRANBOURNE,145.307299956625,-38.1399999971974,3977,DEVON MEADOWS
57,MELTON CHRISTIAN COLLEGE,144.56029000469,-37.700259996508,3338,BROOKFIELD
58,MILDURA CHRISTIAN COLLEGE,142.145330055005,-34.2474100205524,3498,IRYMPLE
59,MT HIRA COLLEGE,145.175479977722,-38.0139799942585,3173,KEYSBOROUGH
60,MURTOA COLLEGE,142.475750023518,-36.6234799817726,3390,MURTOA
61,NORTHSIDE CHRISTIAN COLLEGE,145.054679955708,-37.6950000009491,3083,BUNDOORA
62,OLIVET CHRISTIAN COLLEGE,144.205429990926,-37.0884800012871,3451,CAMPBELLS CREEK
63,PRESBYTERIAN LADIES COLLEGE,145.107010004869,-37.8485499865047,3125,BURWOOD
64,RIVER CITY CHRISTIAN COLLEGE,144.73176997856,-36.1448000041611,3564,ECHUCA
65,ST ANDREWS CHRISTIAN COLLEGE,145.244639981171,-37.8738499961888,3152,WANTIRNA SOUTH
66,ST THOMAS AQUINAS COLLEGE,145.623689991637,-38.0832100011264,3813,TYNONG
67,TRINITY LUTHERAN COLLEGE,142.128790021297,-34.2015900293154,3500,MILDURA
68,GILSON COLLEGE,144.763159980952,-37.7245900032735,3037,TAYLORS HILL
69,KINGSWOOD COLLEGE,145.118629996582,-37.8327599892081,3128,BOX HILL SOUTH
70,OXLEY CHRISTIAN COLLEGE,145.304319983098,-37.7629199986549,3116,CHIRNSIDE PARK
71,SCOTCH COLLEGE,145.03228998845,-37.8339099922741,3122,HAWTHORN
72,THE PENINSULA SCHOOL,145.090699972218,-38.1981599975382,3930,MOUNT ELIZA
73,YESHIVAH COLLEGE,145.000349990272,-37.8681099942958,3183,ST KILDA EAST
74,DARUL ULUM COLLEGE OF VICTORIA,144.971699985947,-37.705170002324,3060,FAWKNER
75,DONVALE CHRISTIAN COLLEGE,145.193460001059,-37.7740199920172,3111,DONVALE
76,BRIGHTON GRAMMAR SCHOOL,144.993529996771,-37.9110999910947,3186,BRIGHTON
77,GOOD NEWS LUTHERAN COLLEGE,144.666609983758,-37.8552299965816,3029,TARNEIT
78,GEELONG BAPTIST COLLEGE,144.330289984169,-38.0671199965373,3213,LOVELY BANKS
79,WODONGA MIDDLE YEARS COLLEGE - FLYING FRUIT FLY CIRCUS SCHOOL,146.862119988031,-36.1271600057667,3690,WEST WODONGA
80,YUILLE PARK P-8 COMMUNITY COLLEGE - GREVILLEA CAMPUS,143.820090018563,-37.5277699982018,3355,WENDOUREE
81,ISIK COLLEGE - SHEPPARTON CAMPUS,145.491730006228,-36.3641699949311,3630,SHEPPARTON
82,CARRANBALLAC P-9 COLLEGE - JAMIESON WAY CAMPUS,144.745609983714,-37.8951399991448,3030,POINT COOK
83,OVERNEWTON ANGLICAN COMMUNITY COLLEGE - KEILOR MAIN CAMPUS,144.823189983492,-37.7065400042225,3036,KEILOR
84,FLINDERS CHRISTIAN COMMUNITY COLLEGE - TRARALGON CAMPUS,146.551169977927,-38.2089499985694,3844,TRARALGON
85,SOUTH COAST CHRISTIAN COLLEGE,145.960879983655,-38.4702199977059,3953,LEONGATHA
86,FLINDERS CHRISTIAN COMMUNITY COLLEGE - MAIN CAMPUS,145.167989979504,-38.2620999962675,3913,TYABB
87,BEACONHILLS COLLEGE - VALLEY CAMPUS,145.467329996374,-38.0618899969332,3810,PAKENHAM
88,MARANATHA CHRISTIAN SCHOOL - CASEY SENIOR CAMPUS,145.278039988596,-37.9709099941138,3802,ENDEAVOUR HILLS
89,AL-TAQWA COLLEGE - MAIN CAMPUS,144.722029974383,-37.8526399962926,3029,TRUGANINA
90,MOUNT SCOPUS MEMORIAL COLLEGE - MAIN CAMPUS,145.117780003146,-37.847199987239,3125,BURWOOD
91,METHODIST LADIES COLLEGE - MAIN CAMPUS,145.03850002155,-37.8139399875766,3101,KEW
92,AUSTRALIAN INTERNATIONAL ACADEMY OF EDUCATION - SENIOR CAMPUS,144.958669995887,-37.7265400035662,3058,COBURG NORTH
93,GEELONG LUTHERAN COLLEGE,144.337069967743,-38.2304500199827,3217,ARMSTRONG CREEK
94,HEATHDALE CHRISTIAN COLLEGE,144.681339986403,-37.8813099987322,3030,WERRIBEE
95,MINARET COLLEGE - OFFICER CAMPUS,145.411009996143,-38.0536499959225,3809,OFFICER
96,The Geelong College - The Geelong College Preparatory School,144.325519996864,-38.1444599976974,3220,NEWTOWN
97,HEATHERTON CHRISTIAN COLLEGE,145.111369988108,-37.9578299954818,3169,CLARINDA
98,HENDERSON COLLEGE,142.159270055899,-34.2225900281772,3500,MILDURA
99,CAMBERWELL GIRLS GRAMMAR SCHOOL,145.060999997398,-37.8161999881364,3126,CANTERBURY
100,WILSON PARK SECONDARY COLLEGE,144.568689987378,-37.7083699991187,3338,MELTON SOUTH
101,MELTON TECHNICAL SCHOOL,144.568689987378,-37.7083699991187,3338,MELTON SOUTH
102,FOREST HILL COLLEGE,145.16372998802,-37.8485199884214,3151,BURWOOD EAST
103,ROWVILLE SECONDARY COLLEGE,145.237089977946,-37.9238899959741,3178,ROWVILLE
104,GREENSBOROUGH SECONDARY COLLEGE,145.091249975919,-37.7084900005489,3088,GREENSBOROUGH
105,MILL PARK SECONDARY COLLEGE,145.063409986557,-37.6641600013573,3082,MILL PARK
106,BRUNSWICK SECONDARY COLLEGE,144.955009966714,-37.7709000005915,3056,BRUNSWICK
107,LYNALL HALL COMMUNITY SCHOOL - THE ISLAND CAMPUS,144.976499988233,-37.741000002875,3058,COBURG
108,OZFORD COLLEGE,144.954429984259,-37.8128899968124,3004,MELBOURNE
109,CASTLEMAINE SECONDARY COLLEGE - YAPEEN CAMPUS,144.188319990425,-37.1318499994442,3451,YAPEEN
110,MELBOURNE GRAMMAR SCHOOL - SENIOR CAMPUS,144.977089971074,-37.8335899964897,3004,MELBOURNE
111,MELBOURNE GRAMMAR SCHOOL - WADHURST CAMPUS,144.973979970654,-37.8332299962747,3004,MELBOURNE
112,SIMONDS CATHOLIC COLLEGE - SIMONDS CATHOLIC COLLEGE ST BRIGIDS VCE CAMPUS,144.976489983714,-37.7918599981899,3068,FITZROY NORTH
113,SAINT IGNATIUS COLLEGE GEELONG,144.557899991159,-38.1886999963579,3222,DRYSDALE
114,SIMONDS CATHOLIC COLLEGE,144.952889977279,-37.8059599966642,3003,WEST MELBOURNE
115,CATHOLIC COLLEGE BENDIGO,144.273370019433,-36.7534300006129,3550,BENDIGO
116,PADUA COLLEGE - PADUA COLLEGE MORNINGTON CAMPUS,145.071999973289,-38.2182599953741,3931,MORNINGTON
117,ST MONICAS COLLEGE,145.031410009055,-37.6551800011032,3076,EPPING
118,CAROLINE CHISHOLM CATHOLIC COLLEGE,144.850099968295,-37.7858600015399,3019,BRAYBROOK
119,LAVALLA CATHOLIC COLLEGE,146.514249991342,-38.2008799997589,3844,TRARALGON
120,ST PETERS COLLEGE - ST PETERS COLLEGE CRANBOURNE EAST CAMPUS,145.319469994383,-38.1141499968875,3978,CLYDE NORTH
121,HALLAM SENIOR SECONDARY COLLEGE - HALLAM SENIOR COLLEGE / MISSION AUSTRALIA ANNEX,145.238569972209,-37.9823499984388,3177,DOVETON
122,SURF COAST SECONDARY COLLEGE,144.312309996473,-38.3217500729115,3228,TORQUAY
123,LAKEVIEW SENIOR COLLEGE,144.73706998429,-37.7356500035817,3023,CAROLINE SPRINGS
124,CROYDON MAROONDAH COLLEGE (INTERIM NAME) - CROYDON CAMPUS,145.282329983988,-37.7892699962861,3136,CROYDON
125,CROYDON MAROONDAH COLLEGE (INTERIM NAME) - MAROONDAH CAMPUS,145.261199987001,-37.7951199978515,3136,CROYDON
126,BORONIA K-12 COLLEGE - MOUNT VIEW CAMPUS,145.302439972706,-37.8596399961248,3155,BORONIA
127,CATHEDRAL COLLEGE WANGARATTA - THE CLOSE CAMPUS,146.321299975542,-36.3559199857295,3677,WANGARATTA
128,SACRED HEART COLLEGE - SACRED HEART COLLEGE SENIOR CAMPUS,146.009209932807,-36.0086599986276,3730,YARRAWONGA
129,THE ALPINE SCHOOL - DINNER PLAIN CAMPUS,147.245930021388,-37.0232800040559,3898,DINNER PLAIN
130,THE ALPINE SCHOOL - SNOWY RIVER CAMPUS,148.628639988065,-37.799379991205,3888,MARLO
131,THE ALPINE SCHOOL - GNURAD GUNDIDJ CAMPUS,142.953580011428,-38.1584099934551,3265,GLENORMISTON SOUTH
132,GREENSBOROUGH SECONDARY COLLEGE - BARJARG LODGE,145.976640013417,-36.9151000071149,3723,BARJARG
133,NORTHCOTE HIGH SCHOOL - BOHO SOUTH CAMP,145.783120017777,-36.7704399992458,3669,BOHO SOUTH
134,WESTALL SECONDARY COLLEGE - CAMP BALOOK,146.563979988193,-38.4120000007838,3844,MOUNT TASSIE
135,BRAUER SECONDARY COLLEGE - DUNKELD ANNEXE,142.345440012672,-37.6130600013668,3294,DUNKELD
136,MOUNT WAVERLEY SECONDARY COLLEGE - LOWER HOMEBUSH,143.52723999186,-37.0302299956471,3465,HOMEBUSH
137,MELBOURNE HIGH SCHOOL - MILLGROVE OUTDOOR EDUCATION CENTRE,145.643829955099,-37.7481199974773,3799,MILLGROVE
138,PRINCES HILL SECONDARY COLLEGE - MIRRIMBAH COUNTRY CENTRE,146.365769977392,-37.1076200068473,3723,SAWMILL SETTLEMENT
139,BELMONT HIGH SCHOOL - TANYBRYN CAMP,143.707719973718,-38.6569299919639,3249,TANYBRYN
140,GENAZZANO FCJ COLLEGE - ALL HALLOWS CAMPUS,145.086949986384,-37.8117299888942,3103,BALWYN
141,CORRYONG COLLEGE,147.910760010677,-36.192929990155,3707,CORRYONG
142,BALLARAT CHRISTIAN COLLEGE,143.843809994912,-37.5929100001157,3356,SEBASTOPOL
143,OAKLEIGH GREEK ORTHODOX COLLEGE OSHC -EXTEND,145.082879983827,-37.8963199931382,3166,HUGHESDALE
144,RICHMOND GIRLS SECONDARY COLLEGE,145.014329994812,-37.8225099979714,3121,RICHMOND
145,Sunshine West Secondary College,144.813889965808,-37.7930400001289,3020,SUNSHINE WEST
146,SAINT KILDA ALTERNATIVE HIGH SCHOOL,144.981259970674,-37.8581799939274,3182,ST KILDA
147,SPRINGVALE SECONDARY COLLEGE,145.1559799873,-37.9490099975078,3171,SPRINGVALE
148,ORBOST HIGH SCHOOL,148.466349995085,-37.7041099931486,3888,ORBOST
149,MARIAN COLLEGE,144.806129975727,-37.7877300005705,3020,SUNSHINE WEST
150,ELTHAM COLLEGE - CITY CAMPUS,144.955869982535,-37.8172599969378,3000,MELBOURNE
151,SANDRINGHAM COLLEGE - BEAUMARIS YEAR 7-10 CAMPUS,145.032939979618,-37.9776799922083,3193,BEAUMARIS
152,HUME CENTRAL SECONDARY COLLEGE - BLAIR STREET CAMPUS,144.928719985164,-37.6794000022285,3047,BROADMEADOWS
153,CAULFIELD GRAMMAR SCHOOL - MAIN CAMPUS,145.004889991471,-37.8773799916643,3183,ST KILDA EAST
154,KURNAI COLLEGE - CHURCHILL CAMPUS,146.426709966726,-38.3087900009033,3842,CHURCHILL
155,BELLARINE SECONDARY COLLEGE - DRYSDALE CAMPUS,144.557529992014,-38.1906599963452,3222,DRYSDALE
156,WOODMANS HILL SECONDARY COLLEGE,143.892280002926,-37.5591200010009,3350,BALLARAT EAST
157,WANGARATTA HIGH SCHOOL - EDWARDS STREET CAMPUS,146.307729972998,-36.3448899866564,3677,WANGARATTA
158,PENOLA CATHOLIC COLLEGE - GLENROY CAMPUS,144.907919995505,-37.7095600029983,3046,GLENROY
159,COLAC SECONDARY COLLEGE,143.590099993977,-38.3514999907141,3250,COLAC
160,Castlemaine High School,144.22750002004,-37.0505400004888,3450,CASTLEMAINE
161,COPPERFIELD COLLEGE - KINGS PARK JUNIOR CAMPUS,144.770749978896,-37.7315100028291,3021,KINGS PARK
162,CHRISTIAN BROTHERS COLLEGE,144.997010003807,-37.8593499970128,3183,ST KILDA EAST
163,WESTERN HEIGHTS SECONDARY COLLEGE - VINES ROAD CAMPUS,144.32896997953,-38.1228799967922,3215,HAMLYN HEIGHTS
164,COBURG HIGH SCHOOL,144.974999988663,-37.7394300027626,3058,COBURG
165,YUILLE PARK P-8 COMMUNITY COLLEGE,143.820560019509,-37.52749999823,3355,WENDOUREE
166,CROYDON SECONDARY COLLEGE,145.282319983989,-37.7892799962854,3136,CROYDON
167,NOBLE PARK SECONDARY COLLEGE,145.182369981358,-37.9702099954651,3174,NOBLE PARK
168,CHRISTADELPHIAN HERITAGE COLLEGE MELBOURNE,145.322249969286,-37.8594699975061,3154,THE BASIN
169,HAILEYBURY COLLEGE - BRIGHTON CAMPUS,145.006979991314,-37.9304499921358,3188,HAMPTON
170,HAILEYBURY GIRLS COLLEGE - BERWICK CAMPUS,145.363909979502,-38.0435799965588,3806,BERWICK
171,LYNDALE HIGH SCHOOL,145.206709968378,-37.9587699970812,3175,DANDENONG NORTH
172,DE LA SALLE COLLEGE,145.032189991875,-37.8576599934144,3144,MALVERN
173,BROOKSIDE P-9 COLLEGE,144.736539982236,-37.7463700016125,3023,CAROLINE SPRINGS
174,CORNISH COLLEGE,145.1487699785,-38.0491799946282,3175,BANGHOLME
175,CRANBOURNE HIGH SCHOOL,145.271029977194,-38.0753899962712,3977,CRANBOURNE NORTH
176,CORIO NORTH HIGH SCHOOL,144.363339958669,-38.0641499926949,3214,CORIO
177,BENDIGO SOUTH EAST 7-10 SECONDARY COLLEGE,144.297589983112,-36.7757900003415,3550,FLORA HILL
178,KNOX SECONDARY COLLEGE,145.258479978685,-37.8565099970435,3153,BAYSWATER
179,KURNAI COLLEGE CHURCHILL CAMPUS,146.425699967844,-38.3092900008314,3842,CHURCHILL
180,CLEELAND SECONDARY COLLEGE,145.214309973996,-37.9773499967234,3175,DANDENONG
181,FERNTREE GULLY SECONDARY COLLEGE,145.285139983438,-37.880129998046,3156,FERNTREE GULLY
182,MELTON SECONDARY COLLEGE,144.568219966272,-37.6817499949222,3337,MELTON WEST
183,TEMPLESTOWE HIGH SCHOOL,145.106260014466,-37.7712399969732,3107,TEMPLESTOWE LOWER
184,MELBOURNE COLLEGE OF TEXTILES,144.936809982771,-37.7348500021251,3044,PASCOE VALE SOUTH
185,TRAFALGAR SECONDARY COLLEGE,146.158299983939,-38.2145699985137,3824,TRAFALGAR
186,MOE HIGH SCHOOL,146.249309974887,-38.1817899999939,3825,MOE
187,WILLIAMSTOWN NORTH SECONDARY COLLEGE,144.886389987192,-37.8580400004533,3016,WILLIAMSTOWN
188,CAULFIELD PARK COMMUNITY SCHOOL,145.034169965748,-37.8739799906514,3161,CAULFIELD NORTH
189,BENDIGO SENIOR SECONDARY COLLEGE - NETSCHOOL CAMPUS,144.280520007644,-36.7592700021182,3550,BENDIGO
190,ANTONINE COLLEGE - ST JOSEPH CAMPUS,144.94273998906,-37.7411800035691,3044,PASCOE VALE SOUTH
191,ST PETERS COLLEGE - ST PETERS COLLEGE WEST CAMPUS,145.256869983996,-38.1083999984892,3977,CRANBOURNE WEST
192,SACRED HEART COLLEGE,146.009199932809,-36.0086599986268,3730,YARRAWONGA
193,MCCLELLAND SECONDARY COLLEGE - CAMP MAHAIKAH,146.279299977895,-36.9244000102909,3723,TOLMIE
194,WILLIAM RUTHVEN SECONDARY COLLEGE - MERRILANDS ROAD CAMPUS,145.002770001497,-37.6966700013977,3073,RESERVOIR
195,ALEXANDRA HIGH SCHOOL,145.701479978343,-37.1944899981061,3714,ALEXANDRA
196,ALTONA SECONDARY COLLEGE,144.8173699878,-37.8617899937903,3018,ALTONA
197,HURSTBRIDGE HIGH SCHOOL,145.187639986668,-37.6409600007856,3099,HURSTBRIDGE
198,BENDIGO COLLEGE OF ADVANCED EDUCATION,144.300699980208,-36.7795699995694,3550,FLORA HILL
199,BENDIGO EAST PRIMARY SCHOOL,144.29797999578,-36.7389300021336,3550,WHITE HILLS
200,BROADFORD SECONDARY COLLEGE,145.040029971231,-37.2043700058715,3658,BROADFORD
201,NEWBOROUGH SECONDARY COLLEGE,146.283200013327,-38.1787399964723,3825,NEWBOROUGH
202,DANDENONG VALLEY SECONDARY COLLEGE,145.214309973996,-37.9773499967234,3175,DANDENONG
203,CHRISTIAN COLLEGE HIGHTON - MAIN CAMPUS,144.313079984761,-38.1852300101292,3216,HIGHTON
204,CAREY BAPTIST GRAMMAR SCHOOL - KEW CAMPUS,145.047820011842,-37.8147699872217,3101,KEW
205,MELBOURNE GIRLS GRAMMAR - MERTON HALL CAMPUS,144.984809969941,-37.8316799970061,3004,MELBOURNE
206,GEELONG GRAMMAR SCHOOL - MAIN CAMPUS,144.399079969893,-38.0687999950813,3214,CORIO
207,BALLARAT CLARENDON COLLEGE - MAIN CAMPUS,143.833659980016,-37.5596400012631,3350,NEWINGTON
208,FLINDERS CHRISTIAN COMMUNITY COLLEGE - CARRUM DOWNS CAMPUS,145.180899967374,-38.1168799972685,3201,CARRUM DOWNS
209,BUCKLEY PARK SECONDARY COLLEGE,144.897759991209,-37.7471200015396,3040,ESSENDON
210,KINGS PARK SECONDARY COLLEGE KAMBALDA JUNIOR CAMPUS,144.769869978988,-37.7320700027731,3021,KINGS PARK
211,BRUNSWICK HIGH SCHOOL,144.956529978896,-37.7667900016698,3056,BRUNSWICK
212,BORONIA HIGH SCHOOL,145.280139976801,-37.8576299975581,3155,BORONIA
213,TOTTENHAM TECHNICAL SCHOOL,144.855139983931,-37.7904000009102,3019,BRAYBROOK
214,AUBURN HIGH SCHOOL,145.045069992578,-37.8398799911886,3123,HAWTHORN EAST
215,BALLAM PARK TECHNICAL SCHOOL,145.161529965639,-38.1451299951017,3199,FRANKSTON
216,PRAHRAN COLLEGE OF TECHNOLOGY,144.99263997436,-37.8520699966685,3181,WINDSOR
217,FIRBANK GRAMMAR SCHOOL,145.016239980636,-37.9584699919438,3191,SANDRINGHAM
218,FIRBANK GRAMMAR SCHOOL,144.997299999477,-37.9077799913324,3186,BRIGHTON
219,SHEPPARTON CHRISTIAN COLLEGE LTD,145.415979993751,-36.3538499925395,3630,SHEPPARTON
220,VICTORY LUTHERAN COLLEGE,146.847620041656,-36.1159899645916,3690,WEST WODONGA
221,TOORAK COLLEGE,145.093469974596,-38.1722499975698,3930,MOUNT ELIZA
222,MARYBOROUGH EDUCATION CENTRE - BALACLAVA ROAD CAMPUS,143.722869977467,-37.0421499990099,3465,MARYBOROUGH
223,BOORT SECONDARY COLLEGE,143.724310014297,-36.1151299952272,3537,BOORT
224,BOORT HIGH SCHOOL,143.724310014297,-36.1151299952272,3537,BOORT
225,BRAUER SECONDARY COLLEGE,142.458919940767,-38.3587099884405,3280,WARRNAMBOOL
226,WARRNAMBOOL TECHNICAL SCHOOL,142.458919940767,-38.3587099884405,3280,WARRNAMBOOL
227,STRATHMORE SECONDARY COLLEGE,144.926639988305,-37.7369500024444,3041,STRATHMORE
228,STRATHMORE HIGH SCHOOL,144.926639988305,-37.7369500024444,3041,STRATHMORE
229,COBURG NORTH SECONDARY COLLEGE,144.952089995246,-37.7337400041614,3058,COBURG
230,POINT COOK SENIOR SECONDARY COLLEGE,144.732819981849,-37.8867199972303,3030,POINT COOK
231,NOSSAL HIGH SCHOOL,145.336559963849,-38.0384999966144,3806,BERWICK
232,BARBARA TOLSON CENTRE  MELBOURNE GIRLS GRAMMAR,144.98585997085,-37.8308399970728,3141,SOUTH YARRA
233,HIGHVALE SECONDARY COLLEGE,145.176819986887,-37.865409992432,3150,GLEN WAVERLEY
234,YALLOURN SECONDARY COLLEGE,146.305979981172,-38.1717900031104,3825,NEWBOROUGH
235,YALLOURN HIGH SCHOOL,146.305979981172,-38.1717900031104,3825,NEWBOROUGH
236,MILDURA SENIOR COLLEGE,142.145390018045,-34.1980000322296,3500,MILDURA
237,Wanganui Park Secondary College,145.391899989357,-36.3570299938721,3630,SHEPPARTON
238,MONASH SECONDARY COLLEGE,145.145979959357,-37.9098499965742,3168,NOTTING HILL
239,MONBULK COLLEGE,145.427809979319,-37.8831699980465,3793,MONBULK
240,SCORESBY HIGH SCHOOL,145.236199981001,-37.8886399966939,3179,SCORESBY
241,THORNBURY DAREBIN SECONDARY COLLEGE,145.025209958113,-37.7565000013079,3071,THORNBURY
242,TIMBER TOP,146.304309988558,-37.1262400054224,3723,MERRIJIG
243,KURNAI COLLEGE MARYVALE CAMPUS,146.427639966704,-38.2240099974481,3840,MORWELL
244,WESTERN HEIGHTS SECONDARY COLLEGE,144.328059976582,-38.1239099967387,3215,HAMLYN HEIGHTS
245,WERRIBEE SECONDARY COLLEGE,144.66873997801,-37.9055399950353,3030,WERRIBEE
246,WERRIBEE HIGH SCHOOL,144.66873997801,-37.9055399950353,3030,WERRIBEE
247,WESTALL HIGH SCHOOL,145.13657997264,-37.9403099981133,3169,CLAYTON SOUTH
248,SAINT ARNAUD SECONDARY COLLEGE,143.250940027705,-36.6095500189203,3478,SAINT ARNAUD
249,MELBOURNE COLLEGE OF DECORATION,144.954029984357,-37.8126299967834,3000,MELBOURNE
250,PASCOE VALE GIRLS HIGH SCHOOL,144.935499991868,-37.7175600019283,3044,PASCOE VALE
251,PEMBROKE SECONDARY COLLEGE,145.324589975498,-37.7998500002992,3137,KILSYTH
252,NAYOOK SECONDARY SCHOOL,145.949869949326,-37.9220699985223,3832,NAYOOK
253,TARNEIT P-9 COLLEGE,144.679999969648,-37.8344299973524,3029,TARNEIT
254,PARKVILLE COLLEGE - MALMSBURY CAMPUS,144.395559997518,-37.1872099993795,3446,MALMSBURY
255,RINGWOOD SECONDARY COLLEGE - BINDAREE CAMP,145.731530019721,-38.3363599973747,3988,POOWONG
256,ALIA COLLEGE,145.045170001195,-37.8432299912162,3123,HAWTHORN EAST
257,AVILA COLLEGE,145.133250000441,-37.874669988477,3149,MOUNT WAVERLEY
258,RESERVOIR DISTRICT SECONDARY COLLEGE PRESTON EAST CAMPUS,145.035279984772,-37.7344300018619,3072,PRESTON
259,PRESTON EAST HIGH SCHOOL,145.035279984772,-37.7344300018619,3072,PRESTON
260,MELBOURNE GIRLS COLLEGE,145.014329994812,-37.8225099979714,3121,RICHMOND
261,PARKVILLE COLLEGE - PARKVILLE CAMPUS,144.944169957909,-37.7772099978905,3052,PARKVILLE
262,ALAMANDA K-9 COLLEGE,144.740559981209,-37.9080399988839,3030,POINT COOK
263,BENALLA COLLEGE - BENALLA COLLEGE CAMP,145.824789984854,-36.4446500051427,3725,STEWARTON
264,BENALLA COLLEGE - BENALLA COLLEGE CAMP,145.824789984854,-36.4446500051427,3725,STEWARTON
265,NATHALIA SECONDARY COLLEGE,145.208439983795,-36.0599000531713,3638,NATHALIA
266,ACADEMY OF MARY IMMACULATE,144.974409984788,-37.8037099961212,3065,FITZROY
267,ALBURY WODONGA COMMUNITY COLLEGE,146.889410111695,-36.1180099457832,3690,WODONGA
268,AQUINAS COLLEGE,145.234939988467,-37.8230599971996,3134,RINGWOOD
269,AVE MARIA COLLEGE,144.897960005149,-37.7566200016122,3040,ABERFELDIE
270,STAUGHTON COLLEGE,144.568689987378,-37.7083699991187,3338,MELTON SOUTH
271,Turning Point Campus,143.382959993836,-38.681949986797,3238,LAVERS HILL
272,SWINBURNE COLLEGE OF TECHNOLOGY,145.037919995733,-37.8223499885889,3122,HAWTHORN
273,SWINBURNE SENIOR SECONDARY COLLEGE,145.040819990144,-37.8231399877929,3122,HAWTHORN
274,SWINBURNE SECONDARY COLLEGE,145.040819990144,-37.8231399877929,3122,HAWTHORN
275,STAWELL COLLEGE WONGA CAMPUS,142.789869993381,-37.0626299699532,3380,STAWELL
276,MIRBOO NORTH HIGH SCHOOL,146.148819962711,-38.4001799949642,3871,MIRBOO NORTH
277,CASTERTON SECONDARY COLLEGE,141.387490062442,-37.588800018998,3311,CASTERTON
278,CASTERTON HIGH SCHOOL,141.387490062442,-37.588800018998,3311,CASTERTON
279,CHAFFEY SECONDARY COLLEGE,142.147990017832,-34.1957300323617,3500,MILDURA
280,TALLANGATTA SECONDARY COLLEGE,147.172670109096,-36.2204398041837,3700,TALLANGATTA
281,BROADMEADOWS TECHNICAL SCHOOL,144.928759987368,-37.6681799981615,3047,DALLAS
282,WODONGA SENIOR SECONDARY COLLEGE,146.881050030162,-36.1256099631965,3690,WODONGA
283,WODONGA TECHNICAL SCHOOL,146.890700015054,-36.1303999399625,3690,WODONGA
284,WODONGA WEST SECONDARY COLLEGE,146.879590094319,-36.1176299620332,3690,WODONGA
285,CHARLTON SECONDARY COLLEGE,143.359029984735,-36.2695699934093,3525,CHARLTON
286,CHARLTON HIGH SCHOOL,143.359029984735,-36.2695699934093,3525,CHARLTON
287,MYRTLEFORD SECONDARY COLLEGE,146.726259978304,-36.5487399872152,3737,MYRTLEFORD
288,MYRTLEFORD HIGH SCHOOL,146.726259978304,-36.5487399872152,3737,MYRTLEFORD
289,PORTLAND TECHNICAL SCHOOL,141.594820029203,-38.3588199978249,3305,PORTLAND
290,PAKENHAM SECONDARY COLLEGE,145.470999981931,-38.0689999982357,3810,PAKENHAM
291,PARKWOOD HIGH SCHOOL,145.238759992114,-37.7840099982224,3134,RINGWOOD NORTH
292,SEYMOUR COLLEGE - LOCO STREET CAMPUS,145.141529982809,-37.0298500067572,3660,SEYMOUR
293,COLAC HIGH SCHOOL,143.566259967801,-38.3359599891257,3250,COLAC
294,COLAC TECHNICAL SCHOOL,143.592089996874,-38.3490099908239,3250,COLAC
295,COBDEN TECHNICAL SCHOOL,143.06360996375,-38.3240399890935,3266,COBDEN
296,ROSANNA EAST HIGH SCHOOL,145.087039993,-37.7418999984668,3084,VIEWBANK
297,ROSEBUD SECONDARY COLLEGE,144.887449986453,-38.3676199956584,3939,ROSEBUD
298,HAILEYBURY BERWICK COLLEGE,145.364359979517,-38.0427499965852,3806,BERWICK
299,WILLIAM RUTHVEN SECONDARY COLLEGE - RADFORD ROAD CAMPUS,144.981389986748,-37.7100000040168,3073,RESERVOIR
300,ALTONA COLLEGE,144.816949987888,-37.861649993761,3018,ALTONA
301,TWO RIVERS COLLEGE A KOORIE PATHWAYS SCHOOL,142.138900036034,-34.2225000280246,3500,MILDURA
302,MERBEIN P-10 COLLEGE - PASCHENDALE AVENUE CAMPUS,142.020279997482,-34.158040011925,3505,MERBEIN
303,VICTORIA UNIVERSITY SECONDARY COLLEGE - BRIMBANK CAMPUS,144.785629976397,-37.7401000048881,3021,ST ALBANS
304,EDENHOPE COLLEGE,141.301260043862,-37.0334600100057,3318,EDENHOPE
305,RINGWOOD HIGH SCHOOL,145.239149981449,-37.816610000452,3134,RINGWOOD
306,RICHMOND TECHNICAL COLLEGE,145.00041998782,-37.8170699959844,3121,RICHMOND
307,SUNBURY POST PRIMARY SCHOOL,144.704489964082,-37.5840100004453,3429,SUNBURY
308,SUNBURY SECONDARY COLLEGE,144.728669954949,-37.5742799980128,3429,SUNBURY
309,SUNBURY HIGH SCHOOL,144.728669954949,-37.5742799980128,3429,SUNBURY
310,SUNBURY COLLEGE,144.728669954949,-37.5742799980128,3429,SUNBURY
311,Sunshine College - Senior Campus,144.829279962415,-37.7904499991558,3020,SUNSHINE
312,TEMPLESTOWE TECHNICAL SCHOOL,145.113760012286,-37.7792899975403,3108,DONCASTER
313,YARRAM SECONDARY COLLEGE,146.685459991965,-38.5665800158648,3971,YARRAM
314,YARRAM HIGH SCHOOL,146.685459991965,-38.5665800158648,3971,YARRAM
315,OUYEN SECONDARY COLLEGE,142.325980006802,-35.0628999821751,3490,OUYEN
316,BEAUFORT SECONDARY COLLEGE,143.382490000949,-37.4388399931979,3373,BEAUFORT
317,BEAUFORT HIGH SCHOOL,143.382490000949,-37.4388399931979,3373,BEAUFORT
318,SUNSHINE TECHNICAL SCHOOL,144.82875996248,-37.790679999122,3020,SUNSHINE
319,Sunshine College - West Campus,144.813889965808,-37.7930400001289,3020,SUNSHINE WEST
320,LILYDALE HEIGHTS SECONDARY COLLEGE,145.341409978579,-37.7458199981381,3140,LILYDALE
321,LILYDALE TECHNICAL SCHOOL,145.341409978579,-37.7458199981381,3140,LILYDALE
322,LILYDALE HEIGHTS COLLEGE,145.341409978579,-37.7458199981381,3140,LILYDALE
323,LILYDALE HIGH SCHOOL,145.343919976495,-37.7606999984062,3140,LILYDALE
324,YEA HIGH SCHOOL,145.408540012619,-37.2150100015112,3717,YEA
325,MURRUMBEENA HIGH SCHOOL,145.061809959622,-37.9042899937379,3163,MURRUMBEENA
326,WONTHAGGI SECONDARY COLLEGE DUDLEY CAMPUS,145.592089987171,-38.6076300001024,3995,WONTHAGGI
327,WONTHAGGI HIGH SCHOOL,145.592089987171,-38.6076300001024,3995,WONTHAGGI
328,HAWKESDALE SECONDARY COLLEGE,142.318199972333,-38.106509999796,3287,HAWKESDALE
329,IRYMPLE SECONDARY COLLEGE,142.164700066266,-34.2323300255489,3498,IRYMPLE
330,BELLARINE SECONDARY COLLEGE OCEAN GROVE CAMPUS,144.533479972973,-38.2587400011585,3226,OCEAN GROVE
331,HAMILTON COLLEGE,142.023760055899,-37.7367900118225,3300,HAMILTON
332,ARARAT SECONDARY COLLEGE,142.921960019935,-37.2859999662167,3377,ARARAT
333,ARARAT SECONDARY COLLEGE SENIOR SCHOOL CAMPUS,142.922370033268,-37.2923499632806,3377,ARARAT
334,ARARAT TECHNICAL SCHOOL,142.922370033268,-37.2923499632806,3377,ARARAT
335,EUMEMMERRING SECONDARY COLLEGE,145.260979973171,-38.0015099981154,3803,HALLAM
336,GREVILLEA PARK PRIMARY SCHOOL,143.820560019509,-37.52749999823,3355,WENDOUREE
337,BAIMBRIDGE COLLEGE,142.014630050814,-37.7333100092882,3300,HAMILTON
338,HAMILTON TECHNICAL SCHOOL,142.014630050814,-37.7333100092882,3300,HAMILTON
339,BALLARAT COLLEGE,143.832919980983,-37.5612400012259,3350,NEWINGTON
340,BALLARAT EAST HIGH SCHOOL,143.892650003873,-37.5590100010239,3350,BALLARAT EAST
341,BALLARAT GIRLS HIGH SCHOOL,143.864869982895,-37.5667899962974,3350,GOLDEN POINT
342,BALMORAL HIGH SCHOOL,141.831529986873,-37.2420700070731,3407,BALMORAL
343,WANGARATTA HIGH SCHOOL,146.307719972999,-36.3448999866557,3677,WANGARATTA
344,WANGARATTA SECONDARY COLLEGE,146.320139973884,-36.3545699856351,3677,WANGARATTA
345,WANGARATTA TECHNICAL SCHOOL,146.320139973884,-36.3545699856351,3677,WANGARATTA
346,OVENS COLLEGE,146.320139973884,-36.3545699856351,3677,WANGARATTA
347,WANTIRNA HIGH SCHOOL,145.229969983515,-37.8575999970687,3152,WANTIRNA
348,WARRAGUL SECONDARY COLLEGE,145.922369969003,-38.1651299990404,3820,WARRAGUL
349,WARRAGUL TECHNICAL SCHOOL,145.922369969003,-38.1651299990404,3820,WARRAGUL
350,WARRANDYTE HIGH SCHOOL,145.184219977488,-37.748269993217,3113,WARRANDYTE
351,WATERDALE HIGH SCHOOL,145.050419985288,-37.7331800008938,3081,HEIDELBERG WEST
352,LAKEVIEW SENIOR COLLEGE,144.740279984229,-37.7310200027694,3023,CAROLINE SPRINGS
353,WESLEY COLLEGE - ST KILDA ROAD JUNIOR CAMPUS,144.982679971903,-37.8538099959975,3004,MELBOURNE
354,ISLAMIC COLLEGE OF MELBOURNE,144.660379982951,-37.8542199961572,3029,TARNEIT
355,MOUNT ELIZA SECONDARY COLLEGE,145.093539972654,-38.1896999976818,3930,MOUNT ELIZA
356,MOUNT ELIZA HIGH SCHOOL,145.093539972654,-38.1896999976818,3930,MOUNT ELIZA
357,BAXTER TECHNICAL SCHOOL,145.182369958702,-38.2734599963328,3913,TYABB
358,MOUNT EVELYN TECHNICAL SCHOOL,145.384189967956,-37.7748799973129,3796,MOUNT EVELYN
359,YARRA HILLS SECONDARY COLLEGE - MOUNT EVELYN CAMPUS,145.384189967956,-37.7748799973129,3796,MOUNT EVELYN
360,MOUNT BEAUTY SECONDARY COLLEGE,147.167279986359,-36.7403099781436,3699,MOUNT BEAUTY
361,MOUNT BEAUTY HIGH SCHOOL,147.167279986359,-36.7403099781436,3699,MOUNT BEAUTY
362,ELTHAM COLLEGE PREPARATORY CENTRE,145.190909987628,-37.7000299983802,3095,RESEARCH
363,CAMPERDOWN COLLEGE WILSON STREET CAMPUS SECONDARY,143.145419968406,-38.2395699915509,3260,CAMPERDOWN
364,CAMPERDOWN HIGH SCHOOL,143.145419968406,-38.2395699915509,3260,CAMPERDOWN
365,MELTON HIGH SCHOOL,144.568219966272,-37.6817499949222,3337,MELTON WEST
366,MELBOURNE COLLEGE OF HAIRDRESSING,144.95291998755,-37.8126299967076,3003,WEST MELBOURNE
367,MELBOURNE COLLEGE OF PRINTING,144.947639966551,-37.802629996285,3051,NORTH MELBOURNE
368,PASCOE VALE GIRLS SECONDARY COLLEGE,144.935499991868,-37.7175600019283,3044,PASCOE VALE
369,MELBOURNE HIGH SCHOOL,144.995309960556,-37.8368299967569,3141,SOUTH YARRA
370,KEYSBOROUGH TECHNICAL SCHOOL,145.160559983869,-37.9819299960281,3173,KEYSBOROUGH
371,KORUMBURRA SECONDARY COLLEGE,145.818760004901,-38.3056799994395,3988,POOWONG EAST
372,KORUMBURRA HIGH SCHOOL,145.818760004901,-38.3056799994395,3988,POOWONG EAST
373,KURUNJANG POST PRIMARY SCHOOL,144.585959983135,-37.6729099950517,3337,KURUNJANG
374,KYABRAM SECONDARY COLLEGE,145.054589980869,-36.317350013223,3620,KYABRAM
375,KYNETON SECONDARY COLLEGE,144.458169984226,-37.2513300009215,3444,KYNETON
376,KYNETON TECHNICAL SCHOOL,144.458169984226,-37.2513300009215,3444,KYNETON
377,KYNETON HIGH SCHOOL,144.458169984226,-37.2513300009215,3444,KYNETON
378,LA TROBE HIGH SCHOOL,145.04708998856,-37.7267899996253,3083,BUNDOORA
379,LAWRENCE SECONDARY COLLEGE,145.139869997026,-37.877069987949,3149,MOUNT WAVERLEY
380,SYNDAL TECHNICAL SCHOOL,145.139869997026,-37.877069987949,3149,MOUNT WAVERLEY
381,LEONGATHA SECONDARY COLLEGE,145.961239986599,-38.4786899977839,3953,LEONGATHA
382,LEONGATHA TECHNICAL SCHOOL,145.953479987902,-38.4792899972255,3953,LEONGATHA
383,BAIRNSDALE HIGH SCHOOL,147.605699998906,-37.8253999893454,3875,BAIRNSDALE
384,BAIRNSDALE SECONDARY COLLEGE,147.60499999861,-37.828709988311,3875,BAIRNSDALE
385,BAIRNSDALE TECHNICAL SCHOOL,147.628479995152,-37.8242899921414,3875,BAIRNSDALE
386,BURWOOD HIGH SCHOOL,145.113200005772,-37.8487399879327,3125,BURWOOD
387,BURWOOD TECHNICAL SCHOOL,145.13263998867,-37.8462399842587,3125,BURWOOD
388,BACCHUS MARSH COLLEGE DARLEY CAMPUS,144.422919965374,-37.6537399960968,3340,DARLEY
389,BACCHUS MARSH SECONDARY COLLEGE MADDINGLEY CAMPUS,144.432639988259,-37.6865099959429,3340,MADDINGLEY
390,BACCHUS MARSH SECONDARY COLLEGE,144.432639988259,-37.6865099959429,3340,MADDINGLEY
391,SOUTH BARWON SECONDARY COLLEGE,144.324309975817,-38.1848500068649,3216,HIGHTON
392,FOSTER CONSOLIDATED SCHOOL,146.197409987218,-38.6517399960694,3960,FOSTER
393,FOSTER SECONDARY COLLEGE,146.197409987218,-38.6517399960694,3960,FOSTER
394,SOMERTON SECONDARY COLLEGE,144.928759987368,-37.6681799981615,3047,DALLAS
395,SPRINGVALE HIGH SCHOOL,145.1559799873,-37.9490099975078,3171,SPRINGVALE
396,WATSONIA HIGH SCHOOL,145.09625997042,-37.7142900009301,3088,GREENSBOROUGH
397,WATSONIA TECHNICAL SCHOOL,145.091809975704,-37.7095700005942,3088,GREENSBOROUGH
398,WATTLE PARK SECONDARY COLLEGE,145.102640006277,-37.8426299861667,3125,BURWOOD
399,UPPER YARRA SECONDARY COLLEGE,145.623929977574,-37.7921000043367,3797,YARRA JUNCTION
400,UPWEY HIGH SCHOOL,145.335479967997,-37.9043599967087,3158,UPWEY
401,VERMONT SECONDARY COLLEGE,145.199699990259,-37.8441199938849,3133,VERMONT
402,VERMONT HIGH SCHOOL,145.199699990259,-37.8441199938849,3133,VERMONT
403,BACCHUS MARSH SECONDARY COLLEGE DARLEY CAMPUS,144.422919965374,-37.6537399960968,3340,DARLEY
404,VICTORIAN COLLEGE OF THE ARTS SCHOOL,144.964769972798,-37.828229995614,3006,SOUTHBANK
405,VICTORIAN RAILWAYS TECHNICAL COLLEGE,144.880139989926,-37.8520699999912,3016,WILLIAMSTOWN NORTH
406,HAWTHORN SECONDARY COLLEGE,145.045069992578,-37.8398799911886,3123,HAWTHORN EAST
407,JOHN GARDINER HIGH SCHOOL,145.045069992578,-37.8398799911886,3123,HAWTHORN EAST
408,HEALESVILLE HIGH SCHOOL,145.530809938305,-37.6435899978117,3777,HEALESVILLE
409,BALLAM PARK SECONDARY COLLEGE,145.161529965639,-38.1451299951017,3199,FRANKSTON
410,BANYULE HIGH SCHOOL,145.080699999018,-37.7517899980917,3084,HEIDELBERG
411,BATMAN AUTOMOTIVE COLLEGE,144.95986999432,-37.7298500036687,3058,COBURG NORTH
412,BAYSIDE SECONDARY COLLEGE ALTONA NORTH CAMPUS,144.846669980383,-37.8369300016234,3025,ALTONA NORTH
413,BAYSIDE SECONDARY COLLEGE PAISLEY CAMPUS,144.863479973755,-37.8434599998054,3015,NEWPORT
414,PAISLEY SECONDARY COLLEGE,144.863479973755,-37.8434599998054,3015,NEWPORT
415,BAYSWATER SECONDARY COLLEGE,145.261999979008,-37.8390299971799,3153,BAYSWATER
416,BAYSWATER HIGH SCHOOL,145.261999979008,-37.8390299971799,3153,BAYSWATER
417,BELL PARK SECONDARY COLLEGE,144.334870007302,-38.1056799960749,3215,BELL PARK
418,QUEENSCLIFF HIGH SCHOOL,144.533479972973,-38.2587400011585,3226,OCEAN GROVE
419,BELLARINE SECONDARY COLLEGE QUEENSCLIFF CAMPUS,144.646809994874,-38.2684599947929,3225,QUEENSCLIFF
420,BENTLEIGH HIGH SCHOOL,145.061259994101,-37.9281799888479,3165,BENTLEIGH EAST
421,CHURCHILL NORTH SECONDARY COLLEGE,146.425699967844,-38.3092900008314,3842,CHURCHILL
422,CLAYTON TECHNICAL SCHOOL,145.127369952772,-37.9173499963354,3168,CLAYTON
423,COBRAM HIGH SCHOOL,145.654119947324,-35.9136100435027,3644,COBRAM
424,COBURG TECHNICAL SCHOOL,144.952089995246,-37.7337400041614,3058,COBURG
425,PARKDALE SECONDARY COLLEGE,145.093499982655,-37.9902999934507,3195,MORDIALLOC
426,PARKDALE HIGH SCHOOL,145.093499982655,-37.9902999934507,3195,MORDIALLOC
427,PARKWOOD SECONDARY COLLEGE,145.238759992114,-37.7840099982224,3134,RINGWOOD NORTH
428,SEYMOUR PRIMARY SCHOOL,145.138479971278,-37.0209600074903,3660,SEYMOUR
429,SEYMOUR COLLEGE - GRANT STREET CAMPUS,145.138479971278,-37.0209600074903,3660,SEYMOUR
430,SEYMOUR SPECIAL SCHOOL,145.130699976618,-37.0206800119516,3660,SEYMOUR
431,SEYMOUR COLLEGE - TALLAROOK STREET CAMPUS,145.130699976618,-37.0206800119516,3660,SEYMOUR
432,SEYMOUR TECHNICAL HIGH SCHOOL,145.141529982809,-37.0298500067572,3660,SEYMOUR
433,CHELTENHAM HIGH SCHOOL,145.06847999807,-37.9534599925007,3192,CHELTENHAM
434,PEMBROKE HIGH SCHOOL,145.324589975498,-37.7998500002992,3137,KILSYTH
435,YARRA HILLS SECONDARY COLLEGE - CAMBRIDGE CAMPUS,145.324589975498,-37.7998500002992,3137,KILSYTH
436,SHEPPARTON HIGH SCHOOL,145.415399976895,-36.3720499906161,3630,SHEPPARTON
437,SHEPPARTON SOUTH SECONDARY COLLEGE,145.4081499792,-36.3989399862809,3630,SHEPPARTON
438,SHEPPARTON SOUTH TECHNICAL SCHOOL,145.4081499792,-36.3989399862809,3630,SHEPPARTON
439,MCGUIRE COLLEGE,145.4081499792,-36.3989399862809,3630,SHEPPARTON
440,SHEPPARTON TECHNICAL SCHOOL,145.408199980579,-36.3673499920809,3630,SHEPPARTON
441,KINGS PARK HIGH SCHOOL,144.769869978988,-37.7320700027731,3021,KINGS PARK
442,COPPERFIELD COLLEGE KINGS PARK JUNIOR CAMPUS,144.769869978988,-37.7320700027731,3021,KINGS PARK
443,BRUNSWICK GIRLS HIGH SCHOOL,144.965419980053,-37.7695700032947,3056,BRUNSWICK
444,BRUNSWICK TECHNICAL SCHOOL,144.955419975997,-37.7676300015993,3056,BRUNSWICK
445,CALVARY BIBLE COLLEGE,145.284869986832,-37.7595699982783,3115,WONGA PARK
446,DROMANA SECONDARY COLLEGE,145.013579992855,-38.342639998123,3936,DROMANA
447,DROMANA TECHNICAL SCHOOL,145.013579992855,-38.342639998123,3936,DROMANA
448,DROUIN SECONDARY COLLEGE,145.85097997886,-38.1446599977639,3818,DROUIN
449,UPFIELD SECONDARY COLLEGE,144.930329988172,-37.6304100000335,3064,ROXBURGH PARK
450,ROXBURGH COLLEGE,144.930329988172,-37.6304100000335,3064,ROXBURGH PARK
451,Wanganui Park High School,145.391899989357,-36.3570299938721,3630,SHEPPARTON
452,WAVERLEY SECONDARY COLLEGE,145.106259994169,-37.8834599906693,3148,CHADSTONE
453,WAVERLEY HIGH SCHOOL,145.106259994169,-37.8834599906693,3148,CHADSTONE
454,WELLINGTON SECONDARY COLLEGE,145.169379981568,-37.9344699973448,3170,MULGRAVE
455,MOOMBA PARK SECONDARY COLLEGE,144.963760007287,-37.6962400027257,3060,FAWKNER
456,FAWKNER TECHNICAL SCHOOL,144.963760007287,-37.6962400027257,3060,FAWKNER
457,MOORABBIN CITY SECONDARY COLLEGE,145.059799995445,-37.9273599887424,3165,BENTLEIGH EAST
458,MOORABBIN TECHNICAL COLLEGE,145.050699980876,-37.9378999921821,3189,MOORABBIN
459,MORDIALLOC COLLEGE,145.092679992385,-38.0122399935298,3195,ASPENDALE
460,MORELAND HIGH SCHOOL,144.965980002885,-37.7517900012226,3058,COBURG
461,MORNINGTON HIGH SCHOOL,145.040559977473,-38.230539996288,3931,MORNINGTON
462,MORNINGTON SECONDARY COLLEGE,145.057759975969,-38.2167099973851,3931,MORNINGTON
463,MORWELL HIGH SCHOOL,146.405929989611,-38.2314499988812,3840,MORWELL
464,KURNAI COLLEGE MORWELL CAMPUS,146.405929989611,-38.2314499988812,3840,MORWELL
465,MORDIALLOC CHELSEA SECONDARY COLLEGE,145.092679992385,-38.0122399935298,3195,ASPENDALE
466,BALWYN HIGH SCHOOL,145.076769980666,-37.7978599921074,3104,BALWYN NORTH
467,CANAAN COLLEGE,146.092639950044,-36.3720699970564,3726,THOONA
468,CASTLEMAINE TECHNICAL COLLEGE,144.220979981831,-37.0634599991444,3450,CASTLEMAINE
469,CAULFIELD NORTH PRIMARY SCHOOL,145.021809986168,-37.871509992788,3161,CAULFIELD NORTH
470,CAULFIELD NORTH CENTRAL SCHOOL,145.021809986168,-37.871509992788,3161,CAULFIELD NORTH
471,CAULFIELD JUNIOR COLLEGE CAULFIELD NORTH CAMPUS,145.021809986168,-37.871509992788,3161,CAULFIELD NORTH
472,CHADSTONE HIGH SCHOOL,145.081809995818,-37.8798499919626,3145,MALVERN EAST
473,CHANDLER SECONDARY COLLEGE,145.182779979714,-37.9844299945814,3174,NOBLE PARK
474,KEYSBOROUGH SECONDARY COLLEGE,145.182779979714,-37.9844299945814,3174,NOBLE PARK
475,OAKWOOD SCHOOL - CAULFIELD PARK COMMUNITY CAMPUS,145.034169965748,-37.8739799906514,3161,CAULFIELD NORTH
476,CAULFIELD PRIMARY SCHOOL,145.020279972629,-37.8880399917853,3162,CAULFIELD SOUTH
477,CAULFIELD JUNIOR COLLEGE CAULFIELD CAMPUS,145.020279972629,-37.8880399917853,3162,CAULFIELD SOUTH
478,CAULFIELD SECONDARY COLLEGE,145.037779991887,-37.8852599919691,3145,CAULFIELD EAST
479,CAULFIELD HIGH SCHOOL,145.037779991887,-37.8852599919691,3145,CAULFIELD EAST
480,CAULFIELD TECHNICAL SCHOOL,145.045419973332,-37.8781799914499,3145,CAULFIELD EAST
481,ELTHAM HIGH SCHOOL,145.14172998045,-37.7244399991299,3095,ELTHAM
482,ESSENDON HIGH SCHOOL,144.902370011636,-37.7542900008981,3040,ESSENDON
483,EUMEMMERRING SECONDARY COLLEGE FOUNTAIN GATE CAMPUS,145.294869991791,-38.0056799965015,3805,NARRE WARREN
484,EUMEMMERRING SECONDARY COLLEGE,145.294869991791,-38.0056799965015,3805,NARRE WARREN
485,EUMEMMERRING SECONDARY COLLEGE HALLAM CAMPUS,145.260979973171,-38.0015099981154,3803,HALLAM
486,EUROA SECONDARY COLLEGE,145.564800004412,-36.7582000026198,3666,EUROA
487,EUROA HIGH SCHOOL,145.564800004412,-36.7582000026198,3666,EUROA
488,CLEELAND HIGH SCHOOL,145.214309973996,-37.9773499967234,3175,DANDENONG
489,FAWKNER SECONDARY COLLEGE,144.971859991186,-37.7027100033197,3060,FAWKNER
490,FAWKNER HIGH SCHOOL,144.971859991186,-37.7027100033197,3060,FAWKNER
491,JOHN FAWKNER SECONDARY COLLEGE,144.971859991186,-37.7027100033197,3060,FAWKNER
492,FERNTREE GULLY HIGH SCHOOL,145.285139983438,-37.880129998046,3156,FERNTREE GULLY
493,PATTERSON RIVER SECONDARY COLLEGE SEAFORD CAMPUS,145.136259976901,-38.0834599969752,3198,SEAFORD
494,SEAFORD-CARRUM SECONDARY COLLEGE,145.136259976901,-38.0834599969752,3198,SEAFORD
495,SEYMOUR EAST PRIMARY SCHOOL,145.155139971577,-37.0292900056938,3660,SEYMOUR
496,ELWOOD HIGH SCHOOL,144.985139985428,-37.881789991339,3184,ELWOOD
497,TRARALGON HEIGHTS SECONDARY COLLEGE,146.531259997563,-38.1909599999686,3844,TRARALGON
498,TRARALGON TECHNICAL SCHOOL,146.531259997563,-38.1909599999686,3844,TRARALGON
499,TRARALGON SECONDARY COLLEGE EAST CAMPUS,146.55097997862,-38.2034599995212,3844,TRARALGON
500,TRARALGON SECONDARY COLLEGE WEST CAMPUS,146.520419990455,-38.1909600011584,3844,TRARALGON
501,BUCKLEY PARK COLLEGE,144.897759991209,-37.7471200015396,3040,ESSENDON
502,DEER PARK SECONDARY COLLEGE,144.766509980681,-37.7590500027135,3023,DEER PARK
503,DEER PARK HIGH SCHOOL,144.766509980681,-37.7590500027135,3023,DEER PARK
504,VICTORIA UNIVERSITY SECONDARY COLLEGE - DEER PARK CAMPUS,144.766509980681,-37.7590500027135,3023,DEER PARK
505,DOOKIE AGRICULTURAL COLLEGE,145.702369950566,-36.3840099949903,3647,DOOKIE COLLEGE
506,DOOKIE AGRICULTURE COLLEGE HALL,145.705419951187,-36.3828999952007,3647,DOOKIE COLLEGE
507,DOVETON TECHNICAL SCHOOL,145.229029987396,-37.9956799978585,3177,DOVETON
508,BOX FOREST SECONDARY COLLEGE HADFIELD CAMPUS,144.946810007025,-37.7165100006938,3044,PASCOE VALE
509,HADFIELD SECONDARY COLLEGE,144.946810007025,-37.7165100006938,3044,PASCOE VALE
510,DONCASTER HIGH SCHOOL,145.138049987497,-37.7845799962496,3108,DONCASTER
511,MERRILANDS SECONDARY COLLEGE,145.004309998127,-37.6976300015092,3073,RESERVOIR
512,MERRILANDS HIGH SCHOOL,145.004309998127,-37.6976300015092,3073,RESERVOIR
513,MIRBOO NORTH SECONDARY COLLEGE,146.148819962711,-38.4001799949642,3871,MIRBOO NORTH
514,MITCHAM HIGH SCHOOL,145.191529986695,-37.8076299940922,3132,MITCHAM
515,MITCHAM TECHNICAL SCHOOL,145.18236999852,-37.8145699925009,3131,NUNAWADING
516,MONASH HIGH SCHOOL,145.145979959357,-37.9098499965742,3168,NOTTING HILL
517,MONBULK SECONDARY COLLEGE,145.427809979319,-37.8831699980465,3793,MONBULK
518,MONTEREY HIGH SCHOOL,145.14847998684,-38.1278999970933,3200,FRANKSTON NORTH
519,MONTEREY TECHNICAL SCHOOL,145.147369983342,-38.1251299969995,3200,FRANKSTON NORTH
520,MONTMORENCY HIGH SCHOOL,145.113479984534,-37.7134600011118,3094,MONTMORENCY
521,MOOROOLBARK HEIGHTS SECONDARY COLLEGE,145.314229980037,-37.7750799984219,3138,MOOROOLBARK
522,MOOROOLBARK COLLEGE,145.314229980037,-37.7750799984219,3138,MOOROOLBARK
523,MOOROOLBARK TECHNICAL SCHOOL,145.317779978725,-37.7813799987089,3138,MOOROOLBARK
524,NORTHLAND SECONDARY COLLEGE,145.025369976873,-37.7400700012169,3072,PRESTON
525,PRESTON EAST TECHNICAL SCHOOL,145.025369976873,-37.7400700012169,3072,PRESTON
526,NORTHERN COLLEGE OF THE ARTS AND TECHNOLOGY,145.025369976873,-37.7400700012169,3072,PRESTON
527,PRESTON GIRLS SECONDARY COLLEGE,145.006809984899,-37.741790001955,3072,PRESTON
528,PRESTON GIRLS HIGH SCHOOL,145.006809984899,-37.741790001955,3072,PRESTON
529,PRESTON INSTITUTE OF TECHNOLOGY,145.068759990956,-37.679570003821,3083,BUNDOORA
530,PRESTON SECONDARY COLLEGE,144.997370007533,-37.7417900033083,3072,PRESTON
531,PRESTON TECHNICAL SCHOOL,144.997370007533,-37.7417900033083,3072,PRESTON
532,MOORLEIGH SECONDARY COLLEGE,145.067919988996,-37.9367899883592,3165,BENTLEIGH EAST
533,PRINCES HILL HIGH SCHOOL,144.965139996625,-37.7831799983599,3054,PRINCES HILL
534,PRINCESS HILL HIGH SCHOOL,144.964309994708,-37.7837399973067,3054,PRINCES HILL
535,MOORLEIGH HIGH SCHOOL,145.067919988996,-37.9367899883592,3165,BENTLEIGH EAST
536,BOX FOREST SECONDARY COLLEGE GLENROY CAMPUS,144.924999992075,-37.7047000011322,3046,GLENROY
537,MORWELL TECHNICAL SCHOOL,146.418479971337,-38.2237399967657,3840,MORWELL
538,ESSENDON TECHNICAL SCHOOL,144.924029980671,-37.7562400013861,3040,ESSENDON
539,CANTERBURY GIRLS SECONDARY COLLEGE,145.069099994545,-37.8202899907188,3126,CANTERBURY
540,CANTERBURY GIRLS HIGH SCHOOL,145.069099994545,-37.8202899907188,3126,CANTERBURY
541,EAGLEHAWK TECHNICAL SCHOOL,144.261630025769,-36.7200600036331,3556,EAGLEHAWK
542,EAGLEHAWK HIGH SCHOOL,144.261630025769,-36.7200600036331,3556,EAGLEHAWK
543,EAST DONCASTER SECONDARY COLLEGE,145.158559987212,-37.7821299896517,3109,DONCASTER EAST
544,EMILY MCPHERSON COLLEGE,144.965699979995,-37.806509998543,3053,CARLTON
545,ENDEAVOUR HILLS SECONDARY COLLEGE,145.242369969917,-37.9790099986822,3802,ENDEAVOUR HILLS
546,EPPING HIGH SCHOOL,145.03342999392,-37.6440000021723,3076,EPPING
547,ERINBANK HIGH SCHOOL,144.906529993849,-37.6715100006671,3049,WESTMEADOWS
548,HOPPERS CROSSING SECONDARY COLLEGE,144.695359981039,-37.8712199936123,3029,HOPPERS CROSSING
549,HOPPERS CROSSING POST PRIMARY SCHOOL,144.695359981039,-37.8712199936123,3029,HOPPERS CROSSING
550,EXHIBITION HIGH SCHOOL,144.974869985158,-37.799569996127,3065,FITZROY
551,FAIRHILLS HIGH SCHOOL,145.25903997874,-37.8732099951861,3180,KNOXFIELD
552,TOTTENHAM COMMUNITY SECONDARY COLLEGE,144.855139983931,-37.7904000009102,3019,BRAYBROOK
553,TRAFALGAR HIGH SCHOOL,146.158299983939,-38.2145699985137,3824,TRAFALGAR
554,TORMORE SECONDARY COLLEGE,145.280139976801,-37.8576299975581,3155,BORONIA
555,DEBNEY PARK SECONDARY COLLEGE,144.93323995627,-37.7821499971751,3031,FLEMINGTON
556,MOUNT ALEXANDER 7-12 COLLEGE,144.93323995627,-37.7821499971751,3031,FLEMINGTON
557,GROVEDALE TECHNICAL SCHOOL,144.26013999585,-38.2067900157885,3216,WAURN PONDS
558,GROVEDALE HIGH SCHOOL,144.26013999585,-38.2067900157885,3216,WAURN PONDS
559,GROVEDALE COLLEGE,144.26013999585,-38.2067900157885,3216,WAURN PONDS
560,HAMPTON PARK SECONDARY COLLEGE,145.259879969656,-38.0348599962449,3976,HAMPTON PARK
561,AUSTRALIAN COUNTER DISASTER COLLEGE,144.590139963189,-37.4092899966896,3441,MOUNT MACEDON
562,AVONDALE SECONDARY COLLEGE,144.861259971593,-37.7651299991692,3034,AVONDALE HEIGHTS
563,AVONDALE HIGH SCHOOL,144.861259971593,-37.7651299991692,3034,AVONDALE HEIGHTS
564,HALLAM HIGH SCHOOL,145.260979973263,-38.0006799981103,3803,HALLAM
565,PETER LALOR SECONDARY COLLEGE,145.013159986931,-37.6669099999246,3075,LALOR
566,LALOR TECHNICAL SCHOOL,145.013159986931,-37.6669099999246,3075,LALOR
567,POINT GELLIBRAND GIRLS HIGH SCHOOL,144.884449989838,-37.8644300003609,3016,WILLIAMSTOWN
568,WILLIAMSTOWN HIGH SCHOOL BAYVIEW CAMPUS,144.884449989838,-37.8644300003609,3016,WILLIAMSTOWN
569,PRAHRAN SECONDARY COLLEGE,144.991159973653,-37.8517499965651,3181,WINDSOR
570,PRAHRAN HIGH SCHOOL,144.991159973653,-37.8517499965651,3181,WINDSOR
571,PYRAMID HILL COLLEGE,144.114589913724,-36.0506799457848,3575,PYRAMID HILL
572,PYRAMID HILL HIGHER ELEMENTARY SCHOOL,144.114589913724,-36.0506799457848,3575,PYRAMID HILL
573,HASTINGS SECONDARY COLLEGE,145.174030025211,-38.3090099969732,3915,HASTINGS
574,HASTINGS HIGH SCHOOL,145.174030025211,-38.3090099969732,3915,HASTINGS
575,HEATHERHILL SECONDARY COLLEGE,145.15041996988,-37.9706799962575,3172,SPRINGVALE SOUTH
576,HEATHERHILL HIGH SCHOOL,145.15041996988,-37.9706799962575,3172,SPRINGVALE SOUTH
577,HEATHMONT SECONDARY COLLEGE,145.232099976263,-37.8384299940977,3135,HEATHMONT
578,HEATHMONT COLLEGE,145.232099976263,-37.8384299940977,3135,HEATHMONT
579,EASTERN SECONDARY COLLEGE,145.238479984748,-37.8240099974514,3135,HEATHMONT
580,RINGWOOD TECHNICAL SCHOOL,145.238479984748,-37.8240099974514,3135,HEATHMONT
581,HEIDELBERG HIGH SCHOOL,145.039589951712,-37.7556800002897,3081,BELLFIELD
582,HEIDELBERG TECHNICAL SCHOOL,145.04430996547,-37.7503999995811,3081,HEIDELBERG WEST
583,HIGHVALE HIGH SCHOOL,145.176819986887,-37.865409992432,3150,GLEN WAVERLEY
584,HILLCREST SECONDARY COLLEGE,144.912369970791,-37.6812400021254,3047,BROADMEADOWS
585,BROADMEADOWS WEST TECHNICAL SCHOOL,144.912369970791,-37.6812400021254,3047,BROADMEADOWS
586,ALBERT PARK HIGH SCHOOL,144.947369969077,-37.8442899965248,3206,ALBERT PARK
587,BEECHWORTH SECONDARY COLLEGE,146.690759982383,-36.3472199822315,3747,BEECHWORTH
588,BEECHWORTH HIGH SCHOOL,146.690759982383,-36.3472199822315,3747,BEECHWORTH
589,WEEROONA COLLEGE BENDIGO,144.29797999578,-36.7389300021336,3550,WHITE HILLS
590,BENDIGO INSTITUTE OF TECHNOLOGY,144.288200010805,-36.7548500035934,3550,BENDIGO
591,BENDIGO SENIOR SECONDARY COLLEGE,144.279280015254,-36.7553000020119,3550,BENDIGO
592,BENDIGO HIGH SCHOOL,144.279280015254,-36.7553000020119,3550,BENDIGO
593,BERWICK SECONDARY COLLEGE,145.365439986598,-38.0313999965906,3806,BERWICK
594,BERWICK HIGH SCHOOL,145.365439986598,-38.0313999965906,3806,BERWICK
595,KINGS PARK SECONDARY COLLEGE DELAHEY SENIOR CAMPUS,144.772639979936,-37.7187400028776,3037,DELAHEY
596,JAMES HARRISON SECONDARY COLLEGE,144.382369959766,-38.1734599966193,3219,THOMSON
597,GEELONG EAST TECHNICAL SCHOOL,144.382369959766,-38.1734599966193,3219,THOMSON
598,BORONIA PRIMARY SCHOOL,145.29166997466,-37.8588799963692,3155,BORONIA
599,GISBORNE SECONDARY COLLEGE,144.584770017776,-37.4981099988851,3437,GISBORNE
600,GLADSTONE PARK HIGH SCHOOL,144.889999969738,-37.6897700006552,3043,GLADSTONE PARK
601,KOO-WEE-RUP HIGH SCHOOL,145.496809978064,-38.1959599978383,3981,KOO WEE RUP
602,BOX HILL SENIOR SECONDARY COLLEGE,145.111909993326,-37.8092399885987,3129,MONT ALBERT NORTH
603,DANDENONG HIGH SCHOOL,145.209169973816,-37.978039997371,3175,DANDENONG
604,COPPERFIELD COLLEGE DELAHEY SENIOR CAMPUS,144.772639979936,-37.7187400028776,3037,DELAHEY
605,KANIVA CONSOLIDATED SCHOOL,141.244310031931,-36.3806799759427,3419,KANIVA
606,SALE COLLEGE - GUTHRIDGE CAMPUS,147.083620020794,-38.0982399853062,3850,SALE
607,Castlemaine Secondary College- Junior Campus,144.22750002004,-37.0505400004888,3450,CASTLEMAINE
608,MOUNT WAVERLEY SECONDARY COLLEGE - MIDDLE SENIOR CAMPUS,145.132310001217,-37.8690899873775,3149,MOUNT WAVERLEY
609,GREYTHORN HIGH SCHOOL,145.096259959887,-37.801509989472,3104,BALWYN NORTH
610,DONVALE HIGH SCHOOL,145.177089998024,-37.8001299900456,3111,DONVALE
611,MOUNT SCOPUS MEMORIAL COLLEGE - FINK KARP IVANY CAMPUS,145.033689987035,-37.8995699927768,3162,CAULFIELD SOUTH
612,COBURG SENIOR HIGH SCHOOL,144.974999988663,-37.7394300027626,3058,COBURG
613,PRAHRAN HIGH SCHOOL,144.99168997356,-37.8517499966014,3181,WINDSOR
614,WESTALL SECONDARY COLLEGE,145.13657997264,-37.9403099981133,3169,CLAYTON SOUTH
615,BROOKSIDE P-9 COLLEGE,144.738199983052,-37.7454000017184,3023,CAROLINE SPRINGS
616,ST ARNAUD SECONDARY COLLEGE,143.250940027705,-36.6095500189203,3478,SAINT ARNAUD
617,GROVEDALE SECONDARY COLLEGE,144.26013999585,-38.2067900157885,3216,WAURN PONDS
618,HAMPTON HIGH SCHOOL,145.006529993155,-37.9326299921185,3188,HAMPTON
619,UPFIELD HIGH SCHOOL,144.930329988172,-37.6304100000335,3064,ROXBURGH PARK
620,FOSTER HIGH SCHOOL,146.201259989561,-38.6515099963507,3960,FOSTER
621,KARINGAL SECONDARY COLLEGE,145.146809986748,-38.1403999970547,3199,FRANKSTON
622,CRANBOURNE SECONDARY COLLEGE,145.286139967957,-38.1075899955221,3977,CRANBOURNE
623,WYNDHAM CENTRAL SECONDARY COLLEGE,144.653849967383,-37.8889299959334,3030,WERRIBEE
624,GEELONG HIGH SCHOOL,144.373729972453,-38.1530299959244,3219,EAST GEELONG
625,KEILOR DOWNS SECONDARY COLLEGE,144.811189987605,-37.7155200044653,3038,KEILOR DOWNS
626,RINGWOOD SECONDARY COLLEGE,145.239149981449,-37.816610000452,3134,RINGWOOD
627,SUNBURY DOWNS SECONDARY COLLEGE,144.704489964082,-37.5840100004453,3429,SUNBURY
628,Sunshine High School,144.829279962415,-37.7904499991558,3020,SUNSHINE
629,Sunshine West High School,144.813889965808,-37.7930400001289,3020,SUNSHINE WEST
630,LAKE BOLAC COLLEGE,142.835980010932,-37.720679990754,3351,LAKE BOLAC
631,MERBEIN HIGH SCHOOL,142.070980013775,-34.1695700318465,3505,MERBEIN
632,COBURG HIGH SCHOOL,144.972799992906,-37.74070000262,3058,COBURG
633,TALLANGATTA HIGH SCHOOL,147.172670109096,-36.2204398041837,3700,TALLANGATTA
634,COBRAM SECONDARY COLLEGE,145.654119947324,-35.9136100435027,3644,COBRAM
635,HAZEL GLEN COLLEGE ,145.122909958413,-37.5988700010483,3754,DOREEN
636,BRUNSWICK EAST HIGH SCHOOL,144.965419980053,-37.7695700032947,3056,BRUNSWICK
637,BUCKLEY PARK HIGH SCHOOL,144.897759991209,-37.7471200015396,3040,ESSENDON
638,KEW HIGH SCHOOL,145.063360000244,-37.7955499921706,3102,KEW EAST
639,MACLEOD HIGH SCHOOL,145.070979987669,-37.7245700022537,3085,MACLEOD
640,NORLANE HIGH SCHOOL,144.341389993569,-38.0827599973634,3214,NORLANE
641,YARRA HILLS SECONDARY COLLEGE - SENIOR CAMPUS,145.315759978263,-37.7886999986134,3138,MOOROOLBARK
642,HIGHVIEW CHRISTIAN COMMUNITY COLLEGE,143.736419979045,-37.0535299989382,3465,MARYBOROUGH
643,XAVIER COLLEGE,145.031110021843,-37.8138499890687,3122,HAWTHORN
644,ST COLUMBAS COLLEGE,144.914289987255,-37.7572000007281,3040,ESSENDON
645,VICTORIA UNIVERSITY SECONDARY COLLEGE - DEER PARK CAMPUS,144.767079980599,-37.758890002751,3023,DEER PARK
646,PAYIKA COLLEGE A KOORIE PATHWAYS SCHOOL (INTERIM NAME),143.562730037172,-35.3559199801717,3585,SWAN HILL
647,SUNSHINE COLLEGE - SUNSHINE WORK EDUCATION TRAINING UNIT,144.829219962443,-37.7902799991508,3020,SUNSHINE
648,DIMBOOLA MEMORIAL HIGH SCHOOL,142.034410011807,-36.4498399774756,3414,DIMBOOLA
649,BALLARAT CLARENDON COLLEGE - SECOND CAMPUS,143.851179980097,-37.5585199983728,3350,BALLARAT CENTRAL
650,KEON PARK TECHNICAL SCHOOL,145.010139987909,-37.6995700029207,3073,RESERVOIR
651,BORONIA K-12 COLLEGE - MOUNT VIEW CAMPUS,145.300979972936,-37.8598499960243,3155,BORONIA
652,KURUNJANG SECONDARY COLLEGE,144.585959983135,-37.6729099950517,3337,KURUNJANG
653,KYABRAM HIGH SCHOOL,145.054589980869,-36.317350013223,3620,KYABRAM
654,KYNETON HIGH SCHOOL,144.458169984226,-37.2513300009215,3444,KYNETON
655,LEONGATHA HIGH SCHOOL,145.961239986599,-38.4786899977839,3953,LEONGATHA
656,POINT GELLIBRAND GIRLS SECONDARY COLLEGE,144.884449989838,-37.8644300003609,3016,WILLIAMSTOWN
657,MARIBYRNONG SECONDARY COLLEGE,144.888239983361,-37.7795200010927,3032,MARIBYRNONG
658,EAGLEHAWK SECONDARY COLLEGE,144.261630025769,-36.7200600036331,3556,EAGLEHAWK
659,DONCASTER EAST HIGH SCHOOL,145.158559987212,-37.7821299896517,3109,DONCASTER EAST
660,WELLINGTON HIGH SCHOOL,145.169379981568,-37.9344699973448,3170,MULGRAVE
661,BENTLEIGH SECONDARY COLLEGE,145.059799995445,-37.9273599887424,3165,BENTLEIGH EAST
662,VICTORIAN COLLEGE OF THE ARTS SECONDARY SCHOOL,144.964769972798,-37.828229995614,3006,SOUTHBANK
663,MORNINGTON TECHNICAL SCHOOL,145.057759975969,-38.2167099973851,3931,MORNINGTON
664,ROCHESTER HIGH SCHOOL,144.698699987656,-36.3527799822742,3561,ROCHESTER
665,SYNDAL HIGH SCHOOL,145.139589997106,-37.8767899879279,3149,MOUNT WAVERLEY
666,KERANG TECHNICAL HIGH SCHOOL,143.913800009897,-35.7256499987633,3579,KERANG
667,MURRUMBEENA SECONDARY COLLEGE,145.061809959622,-37.9042899937379,3163,MURRUMBEENA
668,ROCHESTER SECONDARY COLLEGE,144.698699987656,-36.3527799822742,3561,ROCHESTER
669,SYNDAL SECONDARY COLLEGE,145.139589997106,-37.8767899879279,3149,MOUNT WAVERLEY
670,ROSEBUD HIGH SCHOOL,144.887449986453,-38.3676199956584,3939,ROSEBUD
671,YESODEI HATORAH COLLEGE,144.983609967665,-37.8728799931792,3184,ELWOOD
672,DEBNEY PARK HIGH SCHOOL,144.93323995627,-37.7821499971751,3031,FLEMINGTON
673,PAKENHAM HIGH TECHNICAL SCHOOL,145.470999981931,-38.0689999982357,3810,PAKENHAM
674,Edenbrook Secondary School,145.446509961986,-38.0798899985791,3810,PAKENHAM
675,Edenbrook Secondary College,145.446509961986,-38.0798899985791,3810,PAKENHAM
676,Footscray High School - Pilgrim Campus,144.897530003887,-37.8059899988892,3011,SEDDON
677,NUMURKAH SECONDARY COLLEGE,145.446269992096,-36.0799500338945,3636,NUMURKAH
678,EDGARS CREEK SECONDARY COLLEGE,145.005069986549,-37.6094900000125,3750,WOLLERT
679,RICHMOND HIGH SCHOOL - GRIFFITHS STREET CAMPUS,145.002799987369,-37.8174099971496,3121,RICHMOND
680,GLENROY SECONDARY COLLEGE,144.924999992075,-37.7047000011322,3046,GLENROY
681,HEATHMONT HIGH SCHOOL,145.232099976263,-37.8384299940977,3135,HEATHMONT
682,THOMASTOWN HIGH SCHOOL,145.001939956588,-37.6787200002292,3074,THOMASTOWN
683,ST KILDA ALTERNATIVE HIGH SCHOOL,144.981259970674,-37.8581799939274,3182,ST KILDA
684,NORTH SHEPPARTON SECONDARY COLLEGE,145.414029982742,-36.3662399914826,3630,SHEPPARTON
685,NORTHCOTE HIGH SCHOOL,144.989709972344,-37.7741600009848,3070,NORTHCOTE
686,TYRRELL COLLEGE,142.853200017828,-35.5090099548741,3533,SEA LAKE
687,Sunshine College - Ardeer Campus,144.795279980635,-37.7875000008347,3020,SUNSHINE WEST
688,ARDOCH HIGH SCHOOL,144.998200004577,-37.8595699970957,3181,BRIGHTON
689,ASHWOOD SECONDARY COLLEGE,145.103329995756,-37.86452998535,3147,ASHWOOD
690,BACCHUS MARSH SECONDARY COLLEGE,144.422919965374,-37.6537399960968,3340,DARLEY
691,BACCHUS MARSH COLLEGE MADDINGLEY CAMPUS,144.432639988259,-37.6865099959429,3340,MADDINGLEY
692,PRINCESS HILL SECONDARY COLLEGE,144.964309994708,-37.7837399973067,3054,PRINCES HILL
693,MOOROOLBARK HIGH SCHOOL,145.314229980037,-37.7750799984219,3138,MOOROOLBARK
694,Mooroopna Secondary College,145.351809971287,-36.3817700082267,3629,MOOROOPNA
695,YARRAWONGA HIGH SCHOOL,146.006809982751,-36.0217900025391,3730,YARRAWONGA
696,SEYMOUR COLLEGE - DELATITE ROAD CAMPUS,145.154709971649,-37.0293000056642,3660,SEYMOUR
697,ST KEVINS COLLEGE - GLENDALOUGH CAMPUS,145.020739995518,-37.8333399954781,3142,TOORAK
698,NHILL COLLEGE,141.658870017536,-36.3325899809309,3418,NHILL
699,ALPHINGTON GRAMMAR SCHOOL,145.036179970607,-37.7804199992093,3078,ALPHINGTON
700,KOONUNG SECONDARY COLLEGE,145.117559991119,-37.8021899919446,3129,MONT ALBERT NORTH
701,BRAEMAR COLLEGE,144.575699958497,-37.3631799974372,3441,MOUNT MACEDON
702,BRANDON PARK TECHNICAL SCHOOL,145.165419951432,-37.9056799948925,3150,WHEELERS HILL
703,BRAYBROOK COLLEGE,144.847539977558,-37.778260001319,3020,SUNSHINE NORTH
704,BRENTWOOD SECONDARY COLLEGE,145.166339967952,-37.899509994918,3150,GLEN WAVERLEY
705,BRIGHTON BAY SECONDARY COLLEGE,144.996530001143,-37.9028999902495,3186,BRIGHTON
706,BROADMEADOWS HIGH SCHOOL,144.93013998981,-37.6804000023317,3047,BROADMEADOWS
707,SEYMOUR COLLEGE - DELATITE ROAD CAMPUS,145.155139971577,-37.0292900056938,3660,SEYMOUR
708,GLENORMISTON AGRICULTURAL COLLEGE,142.953200010116,-38.1623499924561,3265,GLENORMISTON SOUTH
709,ALEXANDRA LADIES COLLEGE,142.03515005669,-37.727900013409,3300,HAMILTON
710,ARARAT COMMUNITY COLLEGE SECONDARY,142.921960019935,-37.2859999662167,3377,ARARAT
711,CARRUM DOWNS SECONDARY COLLEGE,145.197659991831,-38.0952899972967,3201,CARRUM DOWNS
712,Footscray High School Barkly Street Campus,144.894890001092,-37.7990899986667,3011,FOOTSCRAY
713,MATER CHRISTI COLLEGE,145.358889977227,-37.9106399963846,3160,BELGRAVE
714,NUNAWADING CHRISTIAN COLLEGE-SECONDARY,145.169019992958,-37.8225499906263,3131,NUNAWADING
715,TAYLORS SENIOR COLLEGE,144.960659970171,-37.8129499972384,3000,MELBOURNE
716,MARIAN COLLEGE,146.725359979918,-36.553339987177,3737,MYRTLEFORD
717,DANDENONG HIGH SCHOOL - BURREMAH GRASSMERE ANNEXE,145.229939987416,-37.9940699979118,3177,DOVETON
718,HUME CENTRAL SECONDARY COLLEGE - DIMBOOLA ROAD CAMPUS,144.913549968664,-37.6805200022013,3047,BROADMEADOWS
719,MACLEOD TECHNICAL SCHOOL,145.058479993348,-37.7290099994218,3085,MACLEOD
720,WARRNAMBOOL SECONDARY COLLEGE,142.49875995689,-38.3770699858668,3280,WARRNAMBOOL
721,WENDOUREE HIGH SCHOOL,143.833480015044,-37.5198499980052,3355,WENDOUREE
722,DONCASTER SECONDARY COLLEGE,145.138049987497,-37.7845799962496,3108,DONCASTER
723,CAMBERWELL HIGH SCHOOL,145.072819995822,-37.8301499930359,3126,CANTERBURY
724,DROUIN HIGH SCHOOL,145.85097997886,-38.1446599977639,3818,DROUIN
725,GEELONG TECHNICAL SCHOOL,144.324309975817,-38.1848500068649,3216,HIGHTON
726,SOUTH GIPPSLAND SECONDARY COLLEGE,146.197409987218,-38.6517399960694,3960,FOSTER
727,SOUTH MELBOURNE TECHNICAL SCHOOL,144.960139958037,-37.8426299963868,3206,ALBERT PARK
728,ST MARY MACKILLOP COLLEGE,143.556790068422,-35.3419099817094,3585,SWAN HILL
729,MERCY REGIONAL COLLEGE - OKEEFFE CAMPUS,142.928489997778,-38.1907199941442,3265,NOORAT
730,SIENA COLLEGE LTD,145.082579997743,-37.8336599867294,3124,CAMBERWELL
731,ST JOSEPHS COLLEGE,145.295089989559,-37.8904899948037,3156,FERNTREE GULLY
732,CATHOLIC COLLEGE SALE - SION CAMPUS,147.067290002579,-38.0985999830516,3850,SALE
733,WHITEFRIARS COLLEGE INC,145.19953999505,-37.791799993549,3111,DONVALE
734,YESODEI HATORAH COLLEGE - SENIOR CAMPUS,144.986509970351,-37.8711299933669,3184,ELWOOD
735,Footscray High School Kinnear Street Campus,144.894019989111,-37.7910599995577,3011,FOOTSCRAY
736,LOWANNA COLLEGE,146.285980020086,-38.1766799966646,3825,NEWBOROUGH
737,TWO RIVERS COLLEGE A KOORIE PATHWAYS SCHOOL,142.167830044046,-34.2047900305443,3500,MILDURA
738,CROYDON COMMUNITY SCHOOL - LEAPS AND BOUNDS CAMPUS,145.261399980306,-37.8372799971273,3153,BAYSWATER
739,LYNDALE SECONDARY COLLEGE - MONASH ADOLESCENT PSYCHIATRIC CENTRE,145.121429967425,-37.9208199959469,3168,CLAYTON
740,NEWCOMB SECONDARY COLLEGE - VICTORIAN SAILING WATER SAFETY SCHOOL,144.367419986333,-38.1457799964639,3220,GEELONG
741,PRINCES HILL SECONDARY COLLEGE,144.965029996612,-37.7834799983543,3054,PRINCES HILL
742,ST FRANCIS XAVIER COLLEGE,145.373099977953,-38.0519999972543,3807,BEACONSFIELD
743,CATHOLIC REGIONAL COLLEGE,144.739609984575,-37.728870002711,3023,CAROLINE SPRINGS
744,MACKILLOP CATHOLIC REGIONAL COLLEGE,144.665099984222,-37.9094999968154,3030,WERRIBEE
745,KOLBE CATHOLIC COLLEGE,144.909469974395,-37.6153200025176,3059,GREENVALE
746,BURWOOD HEIGHTS HIGH SCHOOL,145.162089986311,-37.8484599883076,3151,BURWOOD EAST
747,HOBSONS BAY SECONDARY COLLEGE,144.947369969077,-37.8442899965248,3206,ALBERT PARK
748,BUNDOORA SECONDARY COLLEGE,145.061979981086,-37.7075000005286,3083,BUNDOORA
749,GREENWOOD SECONDARY COLLEGE,145.061979981086,-37.7075000005286,3083,BUNDOORA
750,SWAN HILL TECHNICAL SCHOOL,143.562650037284,-35.3548499801597,3585,SWAN HILL
751,BILLANOOK COLLEGE,145.339869974239,-37.7873499972889,3138,MOOROOLBARK
752,DONALD HIGH SCHOOL,142.973959973126,-36.370780010607,3480,DONALD
753,WENDOUREE SECONDARY COLLEGE,143.833480015044,-37.5198499980052,3355,WENDOUREE
754,COHUNA SECONDARY COLLEGE,144.226429796874,-35.8134991945248,3568,COHUNA
755,COHUNA HIGH SCHOOL,144.226429796874,-35.8134991945248,3568,COHUNA
756,MERBEIN SECONDARY COLLEGE,142.070980013775,-34.1695700318465,3505,MERBEIN
757,CORIO COMMUNITY COLLEGE,144.352639967749,-38.0812399960948,3214,CORIO
758,COOMOORA SECONDARY COLLEGE,145.152089975394,-37.9815099954398,3172,SPRINGVALE SOUTH
759,CORIO BAY SENIOR COLLEGE,144.352639967749,-38.0812399960948,3214,CORIO
760,COOMOORA HIGH SCHOOL,145.152089975394,-37.9815099954398,3172,SPRINGVALE SOUTH
761,FRANKSTON TECHNICAL COLLEGE,145.127369994792,-38.1437399947325,3199,FRANKSTON
762,GALVIN PARK SECONDARY COLLEGE,144.653849967383,-37.8889299959334,3030,WERRIBEE
763,WERRIBEE TECHNICAL SCHOOL,144.653849967383,-37.8889299959334,3030,WERRIBEE
764,CRAIGIEBURN POST PRIMARY SCHOOL,144.935949982539,-37.6087499992821,3064,CRAIGIEBURN
765,GISBORNE HIGH TECHNICAL SCHOOL,144.584770017776,-37.4981099988851,3437,GISBORNE
766,GLADSTONE PARK SECONDARY COLLEGE,144.889999969738,-37.6897700006552,3043,GLADSTONE PARK
767,GLENFERN SECONDARY COLLEGE,145.302639978856,-37.8940099953519,3156,UPPER FERNTREE GULLY
768,FERNTREE GULLY TECHNICAL SCHOOL,145.302639978856,-37.8940099953519,3156,UPPER FERNTREE GULLY
769,GOLDEN SQUARE SECONDARY COLLEGE,144.258479983201,-36.7804000038093,3555,GOLDEN SQUARE
770,GOLDEN SQUARE HIGH SCHOOL,144.258479983201,-36.7804000038093,3555,GOLDEN SQUARE
771,LAKESIDE SECONDARY COLLEGE,144.980419985812,-37.7109600039565,3073,RESERVOIR
772,LAKESIDE HIGH SCHOOL,144.980419985812,-37.7109600039565,3073,RESERVOIR
773,MILDURA HIGH SCHOOL,142.145390018045,-34.1980000322296,3500,MILDURA
774,MILDURA SECONDARY COLLEGE,142.145390018045,-34.1980000322296,3500,MILDURA
775,GEELONG GRAMMAR SCHOOL,144.397369970025,-38.0703999949782,3214,CORIO
776,PORTLAND HIGH SCHOOL,141.600980044101,-38.3473500070922,3305,PORTLAND
777,PORTLAND SECONDARY COLLEGE,141.594820029203,-38.3588199978249,3305,PORTLAND
778,MILDURA TECHNICAL SCHOOL,142.157090030326,-34.1970700308853,3500,MILDURA
779,ALEXANDRA SECONDARY COLLEGE,145.701479978343,-37.1944899981061,3714,ALEXANDRA
780,ALTONA NORTH TECHNICAL SCHOOL,144.845419985106,-37.8415100015669,3025,ALTONA NORTH
781,ALTONA HIGH SCHOOL,144.8173699878,-37.8617899937903,3018,ALTONA
782,COLLINGWOOD SECONDARY COLLEGE,144.986259976151,-37.799849993908,3066,COLLINGWOOD
783,KANIVA SECONDARY COLLEGE,141.237650037666,-36.3853999746199,3419,KANIVA
784,KANIVA HIGH SCHOOL,141.237650037666,-36.3853999746199,3419,KANIVA
785,HAMILTON HIGH SCHOOL,142.014870052882,-37.7320700092942,3300,HAMILTON
786,BALLARAT NORTH TECHNICAL SCHOOL,143.892649983338,-37.5345699958725,3350,NERRINA
787,LONGERENONG AGRICULTURAL COLLEGE,142.302650011966,-36.6651299790489,3401,LONGERENONG
788,KANGAROO FLAT SECONDARY COLLEGE,144.234029997262,-36.7906800022763,3555,KANGAROO FLAT
789,KEILOR DOWNS POST PRIMARY SCHOOL,144.811189987605,-37.7155200044653,3038,KEILOR DOWNS
790,KEILOR HEIGHTS SECONDARY COLLEGE,144.872089983321,-37.7409600007552,3033,KEILOR EAST
791,KEILOR HEIGHTS HIGH SCHOOL,144.872089983321,-37.7409600007552,3033,KEILOR EAST
792,HAMILTON TECHNICAL SCHOOL,142.012650049123,-37.7337400081796,3300,HAMILTON
793,KINGSBURY TECHNICAL SCHOOL,145.028759989121,-37.7140100002875,3083,KINGSBURY
794,RESERVOIR DISTRICT SECONDARY COLLEGE KINGSBURY CAMPUS,145.028759989121,-37.7140100002875,3083,KINGSBURY
795,KNOX TECHNICAL SCHOOL,145.258479978685,-37.8565099970435,3153,BAYSWATER
796,KOO-WEE-RUP SECONDARY COLLEGE,145.496809978064,-38.1959599978383,3981,KOO WEE RUP
797,KOONUNG HIGH SCHOOL,145.117559991119,-37.8021899919446,3129,MONT ALBERT NORTH
798,LALOR NORTH SECONDARY COLLEGE,145.03412001498,-37.660770000324,3076,EPPING
799,LALOR NORTH HIGH SCHOOL,145.03412001498,-37.660770000324,3076,EPPING
800,LANGWARRIN SECONDARY COLLEGE,145.190179998035,-38.1592899971724,3910,LANGWARRIN
801,LANGWARRIN POST PRIMARY SCHOOL,145.190179998035,-38.1592899971724,3910,LANGWARRIN
802,ELISABETH MURDOCH COLLEGE,145.190179998035,-38.1592899971724,3910,LANGWARRIN
803,LALOR SECONDARY COLLEGE,145.030620001293,-37.6726600001578,3075,LALOR
804,LALOR HIGH SCHOOL,145.030620001293,-37.6726600001578,3075,LALOR
805,KANGAROO FLAT TECHNICAL SCHOOL,144.234029997262,-36.7906800022763,3555,KANGAROO FLAT
806,MONIVAE COLLEGE,142.049450058915,-37.7420400123,3300,HAMILTON
807,KEON PARK SECONDARY COLLEGE,145.010139987909,-37.6995700029207,3073,RESERVOIR
808,RED CLIFFS SECONDARY COLLEGE,142.195450004071,-34.2988000327304,3496,RED CLIFFS
809,RED CLIFFS HIGH SCHOOL,142.195450004071,-34.2988000327304,3496,RED CLIFFS
810,ST ARNAUD HIGH SCHOOL,143.250150028862,-36.6092900188703,3478,SAINT ARNAUD
811,STAWELL SECONDARY COLLEGE,142.789789995457,-37.0619499709442,3380,STAWELL
812,STAWELL HIGH SCHOOL,142.789789995457,-37.0619499709442,3380,STAWELL
813,SEA LAKE SECONDARY COLLEGE,142.853200017828,-35.5090099548741,3533,SEA LAKE
814,Ardeer Secondary College ,144.795279980635,-37.7875000008347,3020,SUNSHINE WEST
815,Ardeer High School,144.795279980635,-37.7875000008347,3020,SUNSHINE WEST
816,FLEMINGTON HIGH SCHOOL,144.917919990696,-37.7842900031436,3031,FLEMINGTON
817,FLINDERS PEAK SECONDARY COLLEGE,144.363339958669,-38.0641499926949,3214,CORIO
818,FLORA HILL HIGH SCHOOL,144.297589983112,-36.7757900003415,3550,FLORA HILL
819,FOOTSCRAY TECHNICAL COLLEGE,144.899870010635,-37.8045699980396,3011,FOOTSCRAY
820,FOOTSCRAY/YARRAVILLE SECONDARY COLLEGE,144.871259987623,-37.8229000012068,3013,YARRAVILLE
821,FOOTSCRAY HIGH SCHOOL,144.871259987623,-37.8229000012068,3013,YARRAVILLE
822,FOREST HILL SECONDARY COLLEGE  BLACKBURN SOUTH CAMPUS,145.149589997306,-37.8409599853968,3130,BLACKBURN SOUTH
823,BLACKBURN SOUTH HIGH SCHOOL,145.149589997306,-37.8409599853968,3130,BLACKBURN SOUTH
824,FOREST HILL SECONDARY COLLEGE BURWOOD HEIGHTS CAMPUS,145.162089986311,-37.8484599883076,3151,BURWOOD EAST
825,FOREST HILL SECONDARY  COLLEGE  NUNAWADING CAMPUS,145.167369988769,-37.8359599905953,3131,FOREST HILL
826,NUNAWADING HIGH SCHOOL,145.167369988769,-37.8359599905953,3131,FOREST HILL
827,FOOTSCRAY INSTITUTE OF TECHNOLOGY,144.899030004042,-37.7928999979101,3011,FOOTSCRAY
828,FOOTSCRAY TECHNICAL SCHOOL,144.893199997394,-37.7990099995511,3011,FOOTSCRAY
829,FOOTSCRAY GIRLS SECONDARY COLLEGE,144.896809998457,-37.7926299987573,3011,FOOTSCRAY
830,FOOTSCRAY GIRLS HIGH SCHOOL,144.896809998457,-37.7926299987573,3011,FOOTSCRAY
831,HAWKESDALE HIGH SCHOOL,142.318199972333,-38.106509999796,3287,HAWKESDALE
832,HEYWOOD DISTRICT SECONDARY COLLEGE,141.620499956714,-38.1292699858537,3304,HEYWOOD
833,HEYWOOD HIGH SCHOOL,141.620499956714,-38.1292699858537,3304,HEYWOOD
834,JOSEPH BANKS SECONDARY COLLEGE,145.238759970547,-37.9790099984314,3177,DOVETON
835,DOVETON HIGH SCHOOL,145.238759970547,-37.9790099984314,3177,DOVETON
836,KEALBA HIGH SCHOOL,144.820839974172,-37.7319300042208,3021,KEALBA
837,PATTERSON RIVER SECONDARY COLLEGE BONBEACH CAMPUS,145.125419980673,-38.0665099971222,3196,BONBEACH
838,BONBEACH SECONDARY COLLEGE,145.125419980673,-38.0665099971222,3196,BONBEACH
839,BORONIA HEIGHTS COLLEGE,145.300979972936,-37.8598499960243,3155,BORONIA
840,BORONIA HEIGHTS SECONDARY COLLEGE,145.300979972936,-37.8598499960243,3155,BORONIA
841,BORONIA TECHNICAL SCHOOL,145.300979972936,-37.8598499960243,3155,BORONIA
842,BORONIA K-12 COLLEGE - RANGEVIEW CAMPUS,145.29166997466,-37.8588799963692,3155,BORONIA
843,BOX FOREST SECONDARY COLLEGE SENIOR CAMPUS,144.927089996667,-37.7051300012774,3046,GLENROY
844,GLENROY TECHNICAL SCHOOL,144.927089996667,-37.7051300012774,3046,GLENROY
845,BOX HILL HIGH SCHOOL,145.137210005757,-37.8199999864114,3128,BOX HILL
846,BOX HILL TECHNICAL COLLEGE,145.111909993326,-37.8092399885987,3129,MONT ALBERT NORTH
847,J H BOYD DOMESTIC COLLEGE,144.961529975668,-37.825399996375,3006,SOUTHBANK
848,BRANDON PARK SECONDARY COLLEGE,145.165419951432,-37.9056799948925,3150,WHEELERS HILL
849,BRAYBROOK SECONDARY COLLEGE,144.847539977558,-37.778260001319,3020,SUNSHINE NORTH
850,BRAYBROOK HIGH SCHOOL,144.847539977558,-37.778260001319,3020,SUNSHINE NORTH
851,BRENTWOOD HIGH SCHOOL,145.166339967952,-37.899509994918,3150,GLEN WAVERLEY
852,BROADFORD HIGH SCHOOL,145.040029971231,-37.2043700058715,3658,BROADFORD
853,BLACKBURN HIGH SCHOOL,145.149890002615,-37.8103699882277,3130,BLACKBURN
854,BROADMEADOWS SECONDARY COLLEGE,144.93013998981,-37.6804000023317,3047,BROADMEADOWS
855,BRIGHTON TECHNICAL SCHOOL,144.996530001143,-37.9028999902495,3186,BRIGHTON
856,BRIGHTON SECONDARY COLLEGE,145.019119988323,-37.9201599899045,3187,BRIGHTON EAST
857,BRIGHTON HIGH SCHOOL,145.019119988323,-37.9201599899045,3187,BRIGHTON EAST
858,DAYLESFORD SECONDARY COLLEGE,144.151849961005,-37.33466999834,3460,DAYLESFORD
859,DAYLESFORD TECHNICAL SCHOOL,144.151849961005,-37.33466999834,3460,DAYLESFORD
860,DAYLESFORD HIGH SCHOOL,144.151849961005,-37.33466999834,3460,DAYLESFORD
861,MORTLAKE HIGH SCHOOL,142.810980007668,-38.0862399884911,3272,MORTLAKE
862,MORTLAKE P12 COLLEGE,142.810980007668,-38.0862399884911,3272,MORTLAKE
863,OUYEN HIGH SCHOOL,142.325980006802,-35.0628999821751,3490,OUYEN
864,ROBINVALE SECONDARY COLLEGE,142.77847999748,-34.5881799944358,3549,ROBINVALE
865,ROBINVALE HIGH SCHOOL,142.77847999748,-34.5881799944358,3549,ROBINVALE
866,SAINT ARNAUD HIGH SCHOOL,143.250940027705,-36.6095500189203,3478,SAINT ARNAUD
867,WYCHEPROOF HIGH SCHOOL,143.229030028864,-36.0798499642169,3527,WYCHEPROOF
868,ASHWOOD HIGH SCHOOL,145.103329995756,-37.86452998535,3147,ASHWOOD
869,ASPENDALE TECHNICAL SCHOOL,145.10083998906,-38.0203999951424,3195,ASPENDALE
870,SAINT ALBANS TECHNICAL SCHOOL,144.784589975545,-37.7404000048197,3021,ST ALBANS
871,DERRINALLUM SECONDARY COLLEGE,143.220420000762,-37.9465099923483,3325,DERRINALLUM
872,DERRINALLUM HIGH SCHOOL,143.220420000762,-37.9465099923483,3325,DERRINALLUM
873,DERRINALLUM P12 COLLEGE,143.220420000762,-37.9465099923483,3325,DERRINALLUM
874,WARRACKNABEAL SECONDARY COLLEGE,142.38941001291,-36.2627499815076,3393,WARRACKNABEAL
875,WARRACKNABEAL HIGH SCHOOL,142.38941001291,-36.2627499815076,3393,WARRACKNABEAL
876,HORSHAM COLLEGE,142.18409996788,-36.7116599715732,3400,HORSHAM
877,HORSHAM TECHNICAL SCHOOL,142.182369966112,-36.7123499704791,3400,HORSHAM
878,LAKE BOLAC SECONDARY COLLEGE,142.835980010932,-37.720679990754,3351,LAKE BOLAC
879,LAKE BOLAC HIGH SCHOOL,142.835980010932,-37.720679990754,3351,LAKE BOLAC
880,DIMBOOLA MEMORIAL SECONDARY COLLEGE,142.034410011807,-36.4498399774756,3414,DIMBOOLA
881,BLACKBURN SECONDARY COLLEGE KOONUNG ROAD,145.151529999754,-37.8065099883171,3130,BLACKBURN NORTH
882,BLACKBURN TECHNICAL SCHOOL,145.151529999754,-37.8065099883171,3130,BLACKBURN NORTH
883,CORRYONG SECONDARY COLLEGE,147.911530013658,-36.1920699902111,3707,CORRYONG
884,CORRYONG HIGH SCHOOL,147.911530013658,-36.1920699902111,3707,CORRYONG
885,CROYDON HIGH SCHOOL,145.282319983989,-37.7892799962854,3136,CROYDON
886,MELBA SECONDARY COLLEGE - JUNIOR CAMPUS,145.282319983989,-37.7892799962854,3136,CROYDON
887,DANDENONG HIGH SCHOOL - DANDENONG CAMPUS,145.209169973816,-37.978039997371,3175,DANDENONG
888,DANDENONG TECHNICAL SCHOOL,145.214309973996,-37.9773499967234,3175,DANDENONG
889,DAREBIN SECONDARY COLLEGE,145.008760023418,-37.7615100022111,3071,THORNBURY
890,NORTHCOTE TECHNICAL SCHOOL,145.008760023418,-37.7615100022111,3071,THORNBURY
891,GLEN WAVERLEY SECONDARY COLLEGE,145.162109993046,-37.8780999904927,3150,GLEN WAVERLEY
892,GLEN WAVERLEY HIGH SCHOOL,145.162109993046,-37.8780999904927,3150,GLEN WAVERLEY
893,MURRAYVILLE COMMUNITY COLLEGE,141.178200030436,-35.2656799334094,3512,MURRAYVILLE
894,MURTOA SECONDARY COLLEGE,142.475420026377,-36.6256799817672,3390,MURTOA
895,MURTOA HIGH SCHOOL,142.475420026377,-36.6256799817672,3390,MURTOA
896,SWAN HILL HIGH SCHOOL,143.553480060658,-35.3342899804531,3585,SWAN HILL
897,TERANG COLLEGE SENIOR CAMPUS,142.921259979716,-38.246239991046,3264,TERANG
898,TERANG HIGH SCHOOL,142.921259979716,-38.246239991046,3264,TERANG
899,WARRNAMBOOL NORTH SECONDARY COLLEGE,142.500419954514,-38.3778999859685,3280,WARRNAMBOOL
900,WARRNAMBOOL TECHNICAL SCHOOL,142.500419954514,-38.3778999859685,3280,WARRNAMBOOL
901,WEDDERBURN HIGH SCHOOL,143.619310008594,-36.4173499955438,3518,WEDDERBURN
902,WANTIRNA COLLEGE,145.229969983515,-37.8575999970687,3152,WANTIRNA
903,CREEKSIDE K-9 COLLEGE,144.738619984004,-37.7358200036873,3023,CAROLINE SPRINGS
904,McKinnon Secondary College - East Campus,145.064719972337,-37.9113899919819,3165,BENTLEIGH EAST
905,Wonthaggi Secondary College McBride Campus,145.598059999706,-38.6111099995473,3995,WONTHAGGI
906,ECHUCA HIGH SCHOOL,144.737649887296,-36.1184598703871,3564,ECHUCA
907,ECHUCA COLLEGE - CROFTON STREET CAMPUS,144.737649887296,-36.1184598703871,3564,ECHUCA
908,ECHUCA SECONDARY COLLEGE,144.732419980724,-36.1323899871248,3564,ECHUCA
909,ECHUCA TECHNICAL SCHOOL,144.732419980724,-36.1323899871248,3564,ECHUCA
910,ECHUCA COLLEGE,144.732419980724,-36.1323899871248,3564,ECHUCA
911,KAMBRYA COLLEGE,145.347409973255,-38.0536899994668,3806,BERWICK
912,OFFICER SECONDARY COLLEGE,145.410969960087,-38.0720199970332,3809,OFFICER
913,WHITTLESEA SECONDARY COLLEGE,145.120179963006,-37.5150499993364,3757,WHITTLESEA
914,SANDRINGHAM SECONDARY COLLEGE BEAUMARIS CAMPUS,145.031259976856,-37.978179992096,3193,BEAUMARIS
915,BEAUMARIS HIGH SCHOOL,145.031259976856,-37.978179992096,3193,BEAUMARIS
916,SANDRINGHAM SECONDARY COLLEGE HIGHETT CAMPUS,145.021259962034,-37.9559599922726,3191,SANDRINGHAM
917,MARYBOROUGH REGIONAL COLLEGE NOLAN STREET CAMPUS,143.741259975532,-37.0504000002249,3465,MARYBOROUGH
918,HIGHETT HIGH SCHOOL,145.021259962034,-37.9559599922726,3191,SANDRINGHAM
919,SANDRINGHAM COLLEGE HIGHETT CAMPUS,145.021259962034,-37.9559599922726,3191,SANDRINGHAM
920,SANDRINGHAM SECONDARY COLLEGE SANDRINGHAM CAMPUS,145.025419949278,-37.9562399925597,3191,SANDRINGHAM
921,SANDRINGHAM TECHNICAL SCHOOL,145.025419949278,-37.9562399925597,3191,SANDRINGHAM
922,SANDRINGHAM COLLEGE SANDRINGHAM CAMPUS,145.025419949278,-37.9562399925597,3191,SANDRINGHAM
923,BEAUMARIS SECONDARY COLLEGE,145.034079980339,-37.978399992291,3193,BEAUMARIS
924,COLAC SECONDARY COLLEGE MURRAY STREET CAMPUS,143.566259967801,-38.3359599891257,3250,COLAC
925,MARYBOROUGH DISTRICT SECONDARY COLLEGE,143.741259975532,-37.0504000002249,3465,MARYBOROUGH
926,MARYBOROUGH EDUCATION CENTRE NOLAN STREET CAMPUS,143.741259975532,-37.0504000002249,3465,MARYBOROUGH
927,MARYBOROUGH REGIONAL COLLEGE PALMERSTON STREET CAMPUS,143.734869973191,-37.044569999784,3465,MARYBOROUGH
928,MARYBOROUGH HIGH SCHOOL,143.734869973191,-37.044569999784,3465,MARYBOROUGH
929,MARYBOROUGH EDUCATION CENTRE PALMERSTON SECONDARY CAMPUS,143.734869973191,-37.044569999784,3465,MARYBOROUGH
930,MARYBOROUGH SPECIALIST SCHOOL,143.742369970699,-37.0467900002725,3465,MARYBOROUGH
931,MARYBOROUGH SPECIAL DEVELOPMENTAL SCHOOL,143.742369970699,-37.0467900002725,3465,MARYBOROUGH
932,MARYBOROUGH EDUCATION CENTRE CHRISTIAN STREET CAMPUS,143.742369970699,-37.0467900002725,3465,MARYBOROUGH
933,MOUNT ERIN SECONDARY COLLEGE,145.182369958702,-38.2734599963328,3913,TYABB
934,FOOTSCRAY CITY SECONDARY COLLEGE,144.893199997394,-37.7990099995511,3011,FOOTSCRAY
935,MOUNT CLEAR SECONDARY COLLEGE,143.876669991699,-37.6079699993056,3350,MOUNT CLEAR
936,MOUNT CLEAR TECHNICAL ANNEXE,143.876669991699,-37.6079699993056,3350,MOUNT CLEAR
937,MOUNT CLEAR COLLEGE,143.876669991699,-37.6079699993056,3350,MOUNT CLEAR
938,VIEWBANK COLLEGE,145.086589991155,-37.7411999984313,3084,VIEWBANK
939,Yarram Secondary College - Devon North Campus,146.647850008415,-38.5190300107395,3971,DEVON NORTH
940,Bass Coast College - San Remo Campus,145.390559982626,-38.5327799964296,3925,SAN REMO
941,PENOLA CATHOLIC COLLEGE,144.907909995505,-37.7095700029977,3046,GLENROY
942,EMMAUS COLLEGE,145.174109995297,-37.8477899921351,3133,VERMONT SOUTH
943,Cranbourne West Secondary College,145.245629977251,-38.1058399986919,3977,CRANBOURNE WEST
944,WILLIAM ANGLISS COLLEGE,144.952919988429,-37.8137399967145,3008,DOCKLANDS
945,SUNSHINE NORTH SECONDARY COLLEGE,144.84347998669,-37.7742900010189,3020,SUNSHINE NORTH
946,SUNSHINE NORTH TECHNICAL SCHOOL,144.84347998669,-37.7742900010189,3020,SUNSHINE NORTH
947,SUNSHINE COLLEGE - NORTH CAMPUS,144.84347998669,-37.7742900010189,3020,SUNSHINE NORTH
948,SUNSHINE COLLEGE - SUNSHINE TEACHING UNIT,144.837089979679,-37.7754000005922,3020,SUNSHINE NORTH
949,SUNSHINE COLLEGE - WESTERN REGION DEAF FACILITY,144.794029979928,-37.7867900007457,3020,SUNSHINE WEST
950,MARYBOROUGH EAST PRIMARY SCHOOL,143.747919965126,-37.0531800006639,3465,MARYBOROUGH
951,MARYBOROUGH EDUCATION CENTRE GILLIES STREET CAMPUS,143.747919965126,-37.0531800006639,3465,MARYBOROUGH
952,MARYBOROUGH EDUCATION CENTRE PALMERSTON JUNIOR CAMPUS,143.732649981322,-37.0470699996592,3465,MARYBOROUGH
953,COLAC SECONDARY COLLEGE HEARN STREET CAMPUS,143.587499988566,-38.3502599905436,3250,COLAC
954,BELL PARK HIGH SCHOOL,144.328059976582,-38.1239099967387,3215,HAMLYN HEIGHTS
955,MARYBOROUGH PRIMARY SCHOOL,143.732649981322,-37.0470699996592,3465,MARYBOROUGH
956,LOWANNA COLLEGE MOE CAMPUS,146.249309974887,-38.1817899999939,3825,MOE
957,LOWANNA COLLEGE NEWBOROUGH CAMPUS,146.29292000563,-38.1787399991894,3825,NEWBOROUGH
958,LOWANNA COLLEGE YALLOURN CAMPUS,146.305979983974,-38.1734600031207,3825,NEWBOROUGH
959,WARRNAMBOOL HIGH SCHOOL,142.49875995689,-38.3770699858668,3280,WARRNAMBOOL
960,WODONGA MIDDLE YEARS COLLEGE FELLTIMBER CAMPUS,146.879590094319,-36.1176299620332,3690,WODONGA
961,WARRNAMBOOL COLLEGE,142.4726199838,-38.3747799843326,3280,WARRNAMBOOL
962,PARADE COLLEGE,145.004699995024,-37.7440000018241,3072,PRESTON
963,RICHMOND SECONDARY COLLEGE,145.002799987369,-37.8174099971496,3121,RICHMOND
964,RICHMOND HIGH SCHOOL,145.002799987369,-37.8174099971496,3121,RICHMOND
965,FRANKSTON HIGH SCHOOL,145.129069970641,-38.1604699989527,3199,FRANKSTON
966,WILLIAMSTOWN HIGH SCHOOL,144.885539988595,-37.8649300004381,3016,WILLIAMSTOWN
967,WILLIAMSTOWN HIGH SCHOOL PASCO CAMPUS,144.885539988595,-37.8649300004381,3016,WILLIAMSTOWN
968,MCKINNON SECONDARY COLLEGE,145.064829972316,-37.9114099919896,3165,BENTLEIGH EAST
969,MCKINNON HIGH SCHOOL,145.064829972316,-37.9114099919896,3165,BENTLEIGH EAST
970,McKinnon Secondary College - McKinnon Campus,145.064829972316,-37.9114099919896,3165,BENTLEIGH EAST
971,MOUNT WAVERLEY SECONDARY COLLEGE,145.132310001217,-37.8690899873775,3149,MOUNT WAVERLEY
972,MOUNT WAVERLEY HIGH SCHOOL,145.132310001217,-37.8690899873775,3149,MOUNT WAVERLEY
973,CATHOLIC COLLEGE SALE,147.063780000942,-38.1087099828446,3850,SALE
974,WATTLE PARK HIGH SCHOOL,145.102640006277,-37.8426299861667,3125,BURWOOD
975,Greater Shepparton Secondary College Mooroopna Campus,145.351809971287,-36.3817700082267,3629,MOOROOPNA
976,Greater Shepparton Secondary College McGuire Campus,145.4081499792,-36.3989399862809,3630,SHEPPARTON
977,Greater Shepparton Secondary College Wanganui Park Campus,145.391899989357,-36.3570299938721,3630,SHEPPARTON
978,FITZROY SECONDARY COLLEGE,144.987469967564,-37.7849099988981,3068,FITZROY NORTH
979,FITZROY HIGH SCHOOL,144.987469967564,-37.7849099988981,3068,FITZROY NORTH
980,LAKES ENTRANCE SECONDARY COLLEGE,147.998409963963,-37.8713400140102,3909,LAKES ENTRANCE
981,LAKES ENTRANCE POST PRIMARY SCHOOL,147.998409963963,-37.8713400140102,3909,LAKES ENTRANCE
982,EMMANUEL COLLEGE,144.744219987202,-37.8835499979795,3030,POINT COOK
983,BALLARAT SECONDARY COLLEGE - WENDOUREE CAMPUS,143.834470014936,-37.5192199980644,3355,WENDOUREE
984,TRARALGON COLLEGE,146.519489991561,-38.1914300010919,3844,TRARALGON
985,MOUNT ROWAN SECONDARY COLLEGE,143.834470014936,-37.5192199980644,3355,WENDOUREE
986,RESERVOIR DISTRICT SECONDARY COLLEGE RESERVOIR CAMPUS,145.029769989049,-37.7222600014081,3073,RESERVOIR
987,RESERVOIR HIGH SCHOOL,145.029769989049,-37.7222600014081,3073,RESERVOIR
988,AITKEN COLLEGE,144.8906999793,-37.6277000023168,3059,GREENVALE
989,MOORABBIN CITY TECHNICAL HIGH SCHOOL,145.059799995445,-37.9273599887424,3165,BENTLEIGH EAST
990,MOOROOLBARK SECONDARY COLLEGE,145.317779978725,-37.7813799987089,3138,MOOROOLBARK
991,Mooroopna High School,145.351809971287,-36.3817700082267,3629,MOOROOPNA
992,Wonthaggi Technical Sschool,145.598059999706,-38.6111099995473,3995,WONTHAGGI
993,Wonthaggi Secondary College Senior Campus,145.598059999706,-38.6111099995473,3995,WONTHAGGI
994,Bass Coast College - Wonthaggi Campus,145.598059999706,-38.6111099995473,3995,WONTHAGGI
995,CANDLEBARK SCHOOL,144.684229978603,-37.3757999977838,3434,KERRIE
996,EAST PRESTON ISLAMIC COLLEGE,145.036219984662,-37.7339400019233,3072,PRESTON
997,ILIM COLLEGE OF AUSTRALIA,144.930079989094,-37.6686099972543,3047,DALLAS
998,VICTORY CHRISTIAN COLLEGE,144.313459983761,-36.7826099984259,3550,STRATHDALE
999,TERANG COLLEGE - 5-12 CAMPUS,142.921399979689,-38.2462699920546,3264,TERANG
1000,WESLEY COLLEGE - GLEN WAVERLEY CAMPUS,145.155319996593,-37.8747699890025,3150,GLEN WAVERLEY
1001,ISIK COLLEGE - EASTMEADOWS CAMPUS,144.935640008396,-37.6847000027337,3047,BROADMEADOWS
1002,ELTHAM COLLEGE - MAIN CAMPUS,145.192239990354,-37.7004299984748,3095,RESEARCH
1003,The Geelong College Middle School Campus,144.325519996864,-38.1444599976974,3220,NEWTOWN
1004,WONTHAGGI SECONDARY COLLEGE - DUDLEY CAMPUS,145.580709974972,-38.5922299992014,3995,SOUTH DUDLEY
1005,Bass Coast College - Dudley Campus,145.580709974972,-38.5922299992014,3995,SOUTH DUDLEY
1006,ASHWOOD HIGH SCHOOL,145.103329995756,-37.86452998535,3147,ASHWOOD
1007,BEACONHILLS COLLEGE - VILLAGE CAMPUS,145.357559981872,-38.0501899981552,3806,BERWICK
1008,PLENTY VALLEY CHRISTIAN COLLEGE,145.138799976088,-37.6134500012362,3754,DOREEN
1009,ST LEONARDS COLLEGE,145.007559989413,-37.9286199911642,3187,BRIGHTON EAST
1010,MARYMEDE CATHOLIC COLLEGE,145.091029982064,-37.6433000011278,3752,SOUTH MORANG
1011,ISIK COLLEGE - IBRAHIM DELLAL CAMPUS,144.790649977626,-37.7857600005107,3020,SUNSHINE WEST
1012,MINARET COLLEGE - MAIN CAMPUS,145.148629976681,-37.939029999938,3171,SPRINGVALE
1013,COLLINGWOOD COLLEGE,144.990499978076,-37.8029699942176,3066,COLLINGWOOD
1014,FLEMINGTON SECONDARY COLLEGE,144.917919990696,-37.7842900031436,3031,FLEMINGTON
1015,FLORA HILL SECONDARY COLLEGE,144.297589983112,-36.7757900003415,3550,FLORA HILL
1016,JAMIESON PARK SECONDARY COLLEGE,144.784589975545,-37.7404000048197,3021,ST ALBANS
1017,STATE BANK STAFF COLLEGE,145.150419973709,-38.1801299965487,3199,FRANKSTON SOUTH
1018,UPPER YARRA HIGH SCHOOL,145.623929977574,-37.7921000043367,3797,YARRA JUNCTION
1019,MORDIALLOC CHELSEA HIGH SCHOOL,145.092679992385,-38.0122399935298,3195,ASPENDALE
1020,QUEENS PARK SECONDARY COLLEGE,144.924029980671,-37.7562400013861,3040,ESSENDON
1021,WESTALL SECONDARY COLLEGE - WESTALL ENGLISH LANGUAGE CENTRE,145.136189972719,-37.9402099980858,3169,CLAYTON SOUTH
1022,YARRAWONGA SECONDARY COLLEGE,146.006809982751,-36.0217900025391,3730,YARRAWONGA
1023,RINGWOOD SECONDARY COLLEGE - BINDAREE CAMP,145.731530019721,-38.3363599973747,3988,POOWONG
1024,BAYVIEW COLLEGE,141.605950043392,-38.3452300143504,3305,PORTLAND
1025,NEWBOROUGH HIGH SCHOOL,146.29292000563,-38.1787399991894,3825,NEWBOROUGH
1026,YALLOURN TECHNICAL COLLEGE,146.305979983974,-38.1734600031207,3825,NEWBOROUGH
1027,LYNDALE SECONDARY COLLEGE,145.206709968378,-37.9587699970812,3175,DANDENONG NORTH
1028,LYNDHURST SECONDARY COLLEGE,145.271029977194,-38.0753899962712,3977,CRANBOURNE NORTH
1029,NORTH GEELONG SECONDARY COLLEGE,144.340789995808,-38.1099599954907,3215,NORTH GEELONG
1030,GEELONG NORTH HIGH SCHOOL,144.340789995808,-38.1099599954907,3215,NORTH GEELONG
1031,SHEPPARTON TECHNICAL SCHOOL,145.414029982742,-36.3662399914826,3630,SHEPPARTON
1032,NORWOOD SECONDARY COLLEGE,145.237609990577,-37.7997499962403,3134,RINGWOOD
1033,NORWOOD HIGH SCHOOL,145.237609990577,-37.7997499962403,3134,RINGWOOD
1034,ISIK COLLEGE - KEYSBOROUGH CAMPUS,145.161299981188,-38.005029998222,3173,KEYSBOROUGH
1035,HAILEYBURY GIRLS COLLEGE - BRIGHTON CAMPUS,145.007009991297,-37.9305599921386,3188,HAMPTON
1036,HILLCREST CHRISTIAN COLLEGE,145.363810002918,-38.0846699978056,3978,CLYDE NORTH
1037,BIALIK COLLEGE,145.043380002612,-37.8422599910873,3122,HAWTHORN
1038,SOPHIA MUNDI STEINER SCHOOL - SECONDARY CAMPUS,144.996099983673,-37.8069299936256,3067,ABBOTSFORD
1039,HAILEYBURY GIRLS COLLEGE - KEYSBOROUGH CAMPUS,145.144769984125,-37.9955299990205,3173,KEYSBOROUGH
1040,CHARLTON COLLEGE,143.359639985565,-36.2702999934516,3525,CHARLTON
1041,HERITAGE COLLEGE,145.316529967044,-38.0501999962876,3805,NARRE WARREN SOUTH
1042,YESODEI HATORAH COLLEGE,144.983499967648,-37.8732099931737,3184,ELWOOD
1043,XAVIER COLLEGE - BILLILLA ANNEX CAMPUS,145.001049992738,-37.9177199926508,3186,BRIGHTON
1044,XAVIER COLLEGE - BURKE HALL CAMPUS,145.013860006729,-37.8056599958347,3101,KEW
1045,THE KILMORE INTERNATIONAL SCHOOL - TKIS SUTHERLAND STREET CAMPUS,144.94904999337,-37.3007600022496,3764,KILMORE
1046,THE KILMORE INTERNATIONAL SCHOOL,144.953209993634,-37.3010100025352,3764,KILMORE
1047,CREEKSIDE K-9 COLLEGE,144.738039984252,-37.7344400036397,3023,CAROLINE SPRINGS
1048,WAVERLEY CHRISTIAN COLLEGE - WAVERLEY CHRISTIAN COLLEGE - NARRE WARREN SOUTH,145.299999985915,-38.0503699971353,3805,NARRE WARREN SOUTH
1049,CATHEDRAL COLLEGE WANGARATTA - MURDOCH ROAD CAMPUS,146.329919964747,-36.3859299885606,3677,WANGARATTA
1050,WAVERLEY CHRISTIAN COLLEGE,145.215309969575,-37.8801199951908,3152,WANTIRNA SOUTH
1051,MACLEOD COLLEGE,145.072219985438,-37.72473000234,3085,MACLEOD
1052,WEDDERBURN COLLEGE,143.618780007714,-36.4170099955084,3518,WEDDERBURN
1053,GENAZZANO FCJ COLLEGE,145.055790008093,-37.8089599887334,3101,KEW
1054,LEIBLER YAVNEH COLLEGE,145.00663000048,-37.8928599908793,3185,ELSTERNWICK
1055,WESLEY COLLEGE - ELSTERNWICK CAMPUS,145.009770001273,-37.8897399910753,3185,ELSTERNWICK
1056,"WESLEY COLLEGE - ST KILDA ROAD, MIDDLE AND SENIOR SCHOOL",144.982149969538,-37.8488199969302,3004,MELBOURNE
1057,HAILEYBURY COLLEGE - BERWICK CAMPUS,145.363129980586,-38.0440499965071,3806,BERWICK
1058,HAILEYBURY COLLEGE - KEYSBOROUGH CAMPUS,145.146439984784,-37.9959699981386,3173,KEYSBOROUGH
1059,BRUNSWICK SECONDARY COLLEGE - BRUNSWICK ENGLISH LANGUAGE CENTRE,144.95574996857,-37.771040000643,3056,BRUNSWICK
1060,GLEN EIRA COLLEGE - GLEN EIRA ENGLISH LANGUAGE CENTRE,145.038049993791,-37.8857099919904,3145,CAULFIELD EAST
1061,HUME CENTRAL SECONDARY COLLEGE - HUME CENTRAL ENGLISH LANGUAGE CAMPUS,144.93029998993,-37.6790400023341,3047,BROADMEADOWS
1062,WHEELERS HILL SECONDARY COLLEGE,145.181739977101,-37.9101299950497,3150,WHEELERS HILL
1063,WHEELERS HILL HIGH SCHOOL,145.181739977101,-37.9101299950497,3150,WHEELERS HILL
1064,WHITE HILLS SECONDARY COLLEGE,144.297649995854,-36.7387400031107,3550,WHITE HILLS
1065,WHITE HILLS TECHNICAL SCHOOL,144.297649995854,-36.7387400031107,3550,WHITE HILLS
1066,WEEROONA COLLEGE BENDIGO,144.297649995854,-36.7387400031107,3550,WHITE HILLS
1067,BELL PARK TECHNICAL SCHOOL,144.334870007302,-38.1056799960749,3215,BELL PARK
1068,QUEENSCLIFF HIGH SCHOOL,144.646809994874,-38.2684599947929,3225,QUEENSCLIFF
1069,BELMONT HIGH SCHOOL,144.330559974684,-38.1756500012196,3216,BELMONT
1070,MAROONDAH SECONDARY COLLEGE,145.262019986816,-37.795509997911,3136,CROYDON
1071,MAROONDAH HIGH SCHOOL,145.262019986816,-37.795509997911,3136,CROYDON
1072,MELBA SECONDARY COLLEGE - SENIOR CAMPUS,145.262019986816,-37.795509997911,3136,CROYDON
1073,MARYVALE HIGH SCHOOL,146.427639966704,-38.2240099974481,3840,MORWELL
1074,MATTHEW FLINDERS GIRLS SECONDARY COLLEGE,144.353209970437,-38.1495899975509,3220,GEELONG
1075,MATTHEWS FLINDERS GIRLS HIGH SCHOOL,144.353209970437,-38.1495899975509,3220,GEELONG
1076,STAWELL COLLEGE GOLD REEF CAMPUS,142.783760016964,-37.0567899715542,3380,STAWELL
1077,STAWELL TECHNICAL SCHOOL,142.781810019245,-37.057349971442,3380,STAWELL
1078,CAULFIELD JUNIOR COLLEGE,145.021569985145,-37.8720999917751,3161,CAULFIELD NORTH
1079,CHRISTIAN COLLEGE HIGHTON - BELMONT CAMPUS,144.323929971395,-38.1894900098683,3216,BELMONT
1080,CAMPERDOWN COLLEGE - BROOKE STREET,143.142359984395,-38.2350399913372,3260,CAMPERDOWN
1081,PENLEIGH AND ESSENDON GRAMMAR SCHOOL - ESSENDON CAMPUS,144.919089974813,-37.753600000033,3040,ESSENDON
1082,MOUNT SCOPUS MEMORIAL COLLEGE - GANDEL BESEN HOUSE CAMPUS,145.00196998334,-37.8740699914438,3183,ST KILDA EAST
1083,THE HAMILTON AND ALEXANDRA COLLEGE - JUNIOR CAMPUS,142.033320056896,-37.729200013314,3300,HAMILTON
1084,AUSTRALIAN INTERNATIONAL ACADEMY OF EDUCATION - KING KHALID COBURG CAMPUS,144.966129997536,-37.7363200021368,3058,COBURG
1085,ANTONINE COLLEGE - CEDAR CAMPUS,144.978229991313,-37.7467200030288,3058,COBURG
1086,MERBEIN P-10 COLLEGE - STURT HIGHWAY CAMPUS,142.027590033718,-34.2152600317122,3505,MERBEIN SOUTH
1087,SEYMOUR COLLEGE - GRANT STREET CAMPUS,145.141769983667,-37.0308000067798,3660,SEYMOUR
1088,ST MARYS SCHOOL - SECOND CAMPUS,144.996340000995,-37.8586999969629,3183,ST KILDA EAST
1089,BORONIA K-12 COLLEGE - RANGEVIEW CAMPUS,145.289419975046,-37.8589199972126,3155,BORONIA
1090,MERBEIN P-10 COLLEGE - JENNER STREET CAMPUS,142.050650009738,-34.1714500297167,3505,MERBEIN
1091,MERBEIN P-10 COLLEGE - PASCHENDALE AVENUE CAMPUS,142.016799991273,-34.1671900207905,3505,MERBEIN WEST
1092,TERANG COLLEGE - P-4 CAMPUS,142.907869986395,-38.2432299892252,3264,TERANG
1093,NEERIM SOUTH SECONDARY COLLEGE,145.956679988183,-38.0169399986049,3831,NEERIM SOUTH
1094,NEERIM DISTRICT SECONDARY COLLEGE,145.956679988183,-38.0169399986049,3831,NEERIM SOUTH
1095,NEERIM SOUTH HIGH SCHOOL,145.956679988183,-38.0169399986049,3831,NEERIM SOUTH
1096,NEWCOMB SECONDARY COLLEGE,144.395199972748,-38.1711299944519,3219,NEWCOMB
1097,NEWCOMB HIGH SCHOOL,144.395199972748,-38.1711299944519,3219,NEWCOMB
1098,NEWLANDS SECONDARY COLLEGE,144.975139987027,-37.73585000275,3058,COBURG
1099,NEWLANDS HIGH SCHOOL,144.975139987027,-37.73585000275,3058,COBURG
1100,Rubicon Outdoor Centre,145.821389981798,-37.2950000143261,3712,RUBICON
1101,NIDDRIE HIGH SCHOOL,144.878200014521,-37.7292900020981,3042,AIRPORT WEST
1102,NOBLE PARK NORTH HIGH SCHOOL,145.189309974165,-37.9428999957769,3174,NOBLE PARK NORTH
1103,NIDDRIE SECONDARY COLLEGE,144.886179976263,-37.7466800017488,3042,NIDDRIE
1104,NIDDRIE TECHNICAL SCHOOL,144.886179976263,-37.7466800017488,3042,NIDDRIE
1105,ROSEHILL SECONDARY COLLEGE,144.886179976263,-37.7466800017488,3042,NIDDRIE
1106,SAINT ALBANS SECONDARY COLLEGE,144.808409980865,-37.7455300024632,3021,ST ALBANS
1107,SAINT ALBANS HIGH SCHOOL,144.808409980865,-37.7455300024632,3021,ST ALBANS
1108,ST ALBANS SECONDARY COLLEGE,144.808409980865,-37.7455300024632,3021,ST ALBANS
1109,NUMURKAH HIGH SCHOOL,145.446269992096,-36.0799500338945,3636,NUMURKAH
1110,SALE COLLEGE GUTHRIDGE CAMPUS,147.083480021134,-38.0956799842795,3850,SALE
1111,SALE HIGH SCHOOL,147.083480021134,-38.0956799842795,3850,SALE
1112,SANDRINGHAM COLLEGE BEAUMARIS CAMPUS,145.031259976856,-37.978179992096,3193,BEAUMARIS
1113,SCORESBY SECONDARY COLLEGE,145.236199981001,-37.8886399966939,3179,SCORESBY
1114,Rubicon School Camp,145.821389981798,-37.2950000143261,3712,RUBICON
1115,Rubicon Outdoor Centre - Thornton Campus,145.821389981798,-37.2950000143261,3712,RUBICON
1116,Rubicon Outdoor School,145.821389981798,-37.2950000143261,3712,RUBICON
1117,WHITEHORSE TECHNICAL COLLEGE,145.125420005881,-37.8192899865931,3128,BOX HILL
1118,WHITTLESEA TECHNICAL SCHOOL,145.120179963006,-37.5150499993364,3757,WHITTLESEA
1119,CHANDLER HIGH SCHOOL,145.182779979714,-37.9844299945814,3174,NOBLE PARK
1120,ENDEAVOUR HILLS TECHNICAL SCHOOL,145.242369969917,-37.9790099986822,3802,ENDEAVOUR HILLS
1121,EPPING SECONDARY COLLEGE,145.03342999392,-37.6440000021723,3076,EPPING
1122,ERINBANK SECONDARY COLLEGE,144.906529993849,-37.6715100006671,3049,WESTMEADOWS
1123,SOMERVILLE SECONDARY COLLEGE,145.182369958702,-38.2734599963328,3913,TYABB
1124,MOUNT EVELYN SECONDARY COLLEGE,145.384189967956,-37.7748799973129,3796,MOUNT EVELYN
1125,BALMORAL K-12 COMMUNITY COLLEGE,141.783339952136,-37.2427600084127,3407,BALMORAL
1126,DANDENONG HIGH SCHOOL - CLEELAND CAMPUS,145.21334997406,-37.9782799966625,3175,DANDENONG
1127,OMEO HIGHER ELEMENTARY SCHOOL,147.597639971903,-37.0970699630791,3898,OMEO
1128,ORBOST SECONDARY COLLEGE,148.466349995085,-37.7041099931486,3888,ORBOST
1129,CATHOLIC REGIONAL COLLEGE NORTH KEILOR,144.805059986338,-37.6999400029535,3038,KEILOR LODGE
1130,CATHOLIC REGIONAL COLLEGE,144.771019982317,-37.6991200016463,3037,SYDENHAM
1131,CATHOLIC REGIONAL COLLEGE,144.550409996831,-37.6772499967066,3337,MELTON WEST
1132,CHELTENHAM SECONDARY COLLEGE,145.068679998002,-37.9537599925163,3192,CHELTENHAM
1133,CHRISTIAN COLLEGE INSTITUTE OF SENIOR EDUCATION - MAIN CAMPUS,144.303669991167,-38.187670014526,3216,WAURN PONDS
1134,CLONARD COLLEGE,144.330479956505,-38.1300799969356,3218,HERNE HILL
1135,ELWOOD COLLEGE,144.98519998636,-37.8823199913464,3184,ELWOOD
1136,EMERALD SECONDARY COLLEGE,145.458739962341,-37.9242699954765,3782,EMERALD
1137,Gilmore College for Girls,144.894890001092,-37.7990899986667,3011,FOOTSCRAY
1138,GROVEDALE COLLEGE,144.327439989566,-38.2104000162268,3216,GROVEDALE
1139,HOLMES SECONDARY COLLEGE,144.972279978442,-37.8102899970163,3000,MELBOURNE
1140,KILBREDA COLLEGE,145.065709986185,-37.9841499944999,3194,MENTONE
1141,KILLESTER COLLEGE,145.152019975881,-37.9590699962963,3171,SPRINGVALE
1142,KOO WEE RUP SECONDARY COLLEGE,145.495779977117,-38.1970899977726,3981,KOO WEE RUP
1143,KORUMBURRA SECONDARY COLLEGE,145.803900000503,-38.4438699972209,3950,KORUMBURRA
1144,LARA SECONDARY COLLEGE,144.411569972046,-38.0181799965959,3212,LARA
1145,LORETO COLLEGE,143.823469991058,-37.556859999597,3350,LAKE WENDOUREE
1146,LUTHER COLLEGE,145.272909986317,-37.7829599965909,3136,CROYDON HILLS
1147,MAZENOD COLLEGE,145.166139967258,-37.9151999970013,3170,MULGRAVE
1148,MENTONE GIRLS SECONDARY COLLEGE,145.053499999753,-37.9801799926358,3194,MENTONE
1149,MERCY COLLEGE,144.964559992449,-37.7304000029927,3058,COBURG NORTH
1150,MONTEREY SECONDARY COLLEGE,145.147719985171,-38.1261199970298,3200,FRANKSTON NORTH
1151,MONTMORENCY SECONDARY COLLEGE,145.113609985444,-37.7140800011246,3094,MONTMORENCY
1152,MOUNT LILYDALE MERCY COLLEGE,145.357749977207,-37.7507599973115,3140,LILYDALE
1153,NAGLE COLLEGE,147.587649987522,-37.8370999869919,3875,BAIRNSDALE
1154,NAZARETH COLLEGE,145.195459973389,-37.9402299971866,3174,NOBLE PARK NORTH
1155,OUR LADY OF SION COLLEGE,145.129920007203,-37.8183499868978,3128,BOX HILL
1156,PATTERSON RIVER SECONDARY COLLEGE,145.134739977163,-38.0834999968704,3198,SEAFORD
1157,SUNSHINE COLLEGE - NORTH SUNSHINE CAMPUS,144.840539985223,-37.774080000818,3020,SUNSHINE NORTH
1158,EMMANUEL COLLEGE - NOTRE DAME CAMPUS,144.744219987202,-37.8835499979795,3030,POINT COOK
1159,BELLARINE SECONDARY COLLEGE - OCEAN GROVE CAMPUS,144.541769969388,-38.2598400017175,3226,OCEAN GROVE
1160,AL-TAQWA COLLEGE - OLIVE BRANCH ANNEXE,144.695769982526,-37.8098899952607,3029,TARNEIT
1161,KURNAI COLLEGE - PRECINCT CAMPUS,146.424889967975,-38.3093800007717,3842,CHURCHILL
1162,LAVALLA CATHOLIC COLLEGE - PRESENTATION CAMPUS,146.286950000084,-38.1837099977796,3825,NEWBOROUGH
1163,PARADE COLLEGE - PRESTON CAMPUS,145.004879995024,-37.7437200018347,3072,PRESTON
1164,WESTERN HEIGHTS SECONDARY COLLEGE - QUAMBY CAMPUS,144.333059969626,-38.1246099970718,3215,HAMLYN HEIGHTS
1165,RESERVOIR HIGH SCHOOL - RESERVOIR CAMPUS,145.029769989049,-37.7222600014081,3073,RESERVOIR
1166,LYNALL HALL COMMUNITY SCHOOL - RICHMOND CAMPUS,145.001819986481,-37.8179499960858,3121,RICHMOND
1167,PADUA COLLEGE - ROSEBUD CAMPUS,144.907299985345,-38.3729599970428,3939,ROSEBUD
1168,CAROLINE CHISHOLM CATHOLIC COLLEGE - SACRED HEART CAMPUS,144.849549968329,-37.7864300015061,3019,BRAYBROOK
1169,SANDRINGHAM COLLEGE - SANDRINGHAM YEAR 7-10 CAMPUS,145.021469953537,-37.9510299922566,3190,HIGHETT
1170,SANDRINGHAM COLLEGE - SENIOR CAMPUS,145.023349955592,-37.9566699924204,3191,SANDRINGHAM
1171,ESSENDON EAST KEILOR DISTRICT COLLEGE - SENIOR CAMPUS,144.901930011615,-37.7551900008737,3040,ESSENDON
1172,ESSENDON KEILOR COLLEGE - ESSENDON CAMPUS,144.901930011615,-37.7551900008737,3040,ESSENDON
1173,MILL PARK SECONDARY COLLEGE - SENIOR CAMPUS,145.063449997639,-37.6449499982403,3076,EPPING
1174,Castlemaine Secondary College - Senior Campus,144.214529969542,-37.077069999809,3450,CASTLEMAINE
1175,CAMBERWELL GIRLS GRAMMAR SCHOOL - SENIOR SCHOOL,145.059709995403,-37.8182099880602,3123,HAWTHORN EAST
1176,LAVALLA CATHOLIC COLLEGE - ST PAULS CAMPUS,146.515949995257,-38.1907800008233,3844,TRARALGON
1177,OZFORD COLLEGE - ENGLISH LANGUAGE CENTRE,144.965559960234,-37.8137399975782,3004,MELBOURNE
1178,COPPERFIELD COLLEGE - SYDENHAM JUNIOR CAMPUS,144.758079976221,-37.702260002792,3037,SYDENHAM
1179,HUME CENTRAL SECONDARY COLLEGE - TOWN PARK CAMPUS,144.91535996536,-37.6804400023242,3047,BROADMEADOWS
1180,ISIK COLLEGE - MEADOW FAIR CAMPUS,144.921739973228,-37.6714500007032,3047,BROADMEADOWS
1181,FRANKSTON HIGH SCHOOL - VCE CAMPUS,145.129069970641,-38.1604699989527,3199,FRANKSTON
1182,WANGARATTA HIGH SCHOOL - CUSACK STREET CAMPUS,146.313409974904,-36.3641099852001,3677,WANGARATTA
1183,ST KEVINS COLLEGE - WATERFORD CAMPUS,144.997589983847,-37.821329995817,3121,RICHMOND
1184,TRARALGON COLLEGE - WEST CAMPUS,146.519489991561,-38.1914300010919,3844,TRARALGON
1185,ST BERNARDS COLLEGE,144.883199980487,-37.7493900015629,3040,ESSENDON WEST
1186,KENSINGTON COMMUNITY HIGH SCHOOL,144.925579967975,-37.7879100006883,3031,KENSINGTON
1187,MOUNT ST JOSEPH GIRLS COLLEGE,144.811669984565,-37.8638999934172,3018,ALTONA
1188,SACRED HEART GIRLS COLLEGE,145.08607998663,-37.9021599933948,3166,HUGHESDALE
1189,ST BEDES COLLEGE,145.068209989978,-37.9911599947151,3194,MENTONE
1190,ST BRIGIDS COLLEGE,142.207939991356,-36.7173099739645,3400,HORSHAM
1191,ST JOHNS REGIONAL COLLEGE,145.226259984484,-37.9902299976324,3175,DANDENONG
1192,ST JOSEPHS COLLEGE,144.331870006139,-38.15018999815,3220,NEWTOWN
1193,ST JOSEPHS COLLEGE,144.743369865395,-36.1181498667705,3564,ECHUCA
1194,SYDNEY ROAD COMMUNITY SCHOOL,144.961879976654,-37.7696900030534,3056,BRUNSWICK
1195,ASSUMPTION COLLEGE,144.947629991585,-37.3010100021543,3764,KILMORE
1196,CATHOLIC COLLEGE,146.862399962703,-36.129610017804,3690,WEST WODONGA
1197,CATHOLIC LADIES COLLEGE LTD,145.143559994547,-37.711529999176,3095,ELTHAM
1198,FCJ COLLEGE,145.975389960143,-36.5527700027019,3672,BENALLA
1199,GALEN CATHOLIC COLLEGE,146.310539973232,-36.3387499858239,3677,WANGARATTA
1200,ST KEVINS COLLEGE,145.024699996606,-37.8353999937625,3142,TOORAK
1201,JOHN PAUL COLLEGE,145.138869985678,-38.1355699964764,3199,FRANKSTON
1202,EMMANUEL COLLEGE INC - SECOND CAMPUS,142.481489978318,-38.3735999848412,3280,WARRNAMBOOL
1203,ST FRANCIS XAVIER COLLEGE - JUNIOR CAMPUS,145.339039981818,-38.0706799979865,3806,BERWICK
1204,LOYOLA COLLEGE,145.080729980292,-37.7033999997929,3087,WATSONIA
1205,MARIAN COLLEGE,142.937770003333,-37.2847399661568,3377,ARARAT
1206,MARIST-SION COLLEGE,145.915259967954,-38.1590299964889,3820,WARRAGUL
1207,MARY MACKILLOP CATHOLIC REGIONAL COLLEGE,145.963539983594,-38.4667299978772,3953,LEONGATHA
1208,DANDENONG HIGH SCHOOL - MYUNA SECONDARY TEACHING UNIT,145.231159978117,-37.9858199979454,3177,DOVETON
1209,FOUNTAIN GATE SECONDARY COLLEGE,145.295379991747,-38.0052799965346,3805,NARRE WARREN
1210,GLENEAGLES SECONDARY COLLEGE,145.276559989442,-37.9746099950335,3802,ENDEAVOUR HILLS
1211,HALLAM SENIOR SECONDARY COLLEGE,145.26118997428,-38.0001999981219,3803,HALLAM
1212,OUR LADY OF THE SACRED HEART SCHOOL,142.053090013739,-34.1668400308232,3505,MERBEIN
1213,RED ROCK CHRISTIAN COLLEGE,144.706029993708,-37.5190899981445,3429,SUNBURY
1214,SHOLEM ALEICHEM COLLEGE,145.001209990577,-37.8822799914425,3185,ELSTERNWICK
1215,TARRINGTON LUTHERAN SCHOOL,142.094270052869,-37.7662200139755,3301,TARRINGTON
1216,TRINITY ANGLICAN COLLEGE WODONGA,146.945820003521,-36.170509939428,3691,BARANDUDA
1217,GIPPSLAND GRAMMAR - SECOND CAMPUS,147.066140001049,-38.1126399840506,3850,SALE
1218,FIRBANK GRAMMAR SCHOOL - SECOND CAMPUS,144.997039999514,-37.9078499913151,3186,BRIGHTON
1219,GOOD SHEPHERD COLLEGE - SECOND CAMPUS,142.032020056967,-37.7309600132515,3300,HAMILTON
1220,SACRED HEART COLLEGE,144.340149995751,-38.1494999976906,3220,NEWTOWN
1221,SACRED HEART COLLEGE,144.458819983954,-37.2528900009744,3444,KYNETON
1222,SANTA MARIA COLLEGE,145.002479994544,-37.7703600028357,3070,NORTHCOTE
1223,SOMERVILLE SECONDARY COLLEGE,145.168599971273,-38.2272599960958,3912,SOMERVILLE
1224,ST HELENA SECONDARY COLLEGE,145.139909976875,-37.6868700007704,3095,ELTHAM NORTH
1225,FIRBANK GRAMMAR SCHOOL - SANDRINGHAM CAMPUS,145.016039981744,-37.957799992926,3191,SANDRINGHAM
1226,MERCY REGIONAL COLLEGE,143.139569995897,-38.2349899911671,3260,CAMPERDOWN
1227,OUR LADY OF THE SACRED HEART COLLEGE,145.039939961086,-37.9257199933677,3204,BENTLEIGH
1228,PRESENTATION COLLEGE WINDSOR,144.994719996393,-37.8576299968453,3181,WINDSOR
1229,EDENHOPE SECONDARY COLLEGE,141.301260043862,-37.0334600100057,3318,EDENHOPE
1230,WAVERLEY CHRISTIAN COLLEGE,145.215209964931,-37.8770499961648,3152,WANTIRNA SOUTH
1231,RUTHERGLEN HIGH SCHOOL,146.452100006446,-36.0625600075128,3685,RUTHERGLEN
1232,TAWONGA SECONDARY SCHOOL,147.167639986322,-36.7401299781702,3699,MOUNT BEAUTY
1233,TIMBARRA P-9 COLLEGE,145.322229969822,-38.0163799984766,3806,BERWICK
1234,ALTONA P-9 COLLEGE,144.816949987888,-37.861649993761,3018,ALTONA
1235,CRANBOURNE EAST SECONDARY COLLEGE,145.306029974768,-38.1049399968927,3977,CRANBOURNE EAST
1236,MERBEIN P-10 COLLEGE - SECONDARY CAMPUS,142.071400012767,-34.1688800318656,3505,MERBEIN
1237,MERBEIN P-10 COLLEGE - JENNER STREET CAMPUS,142.05223001157,-34.1705400297994,3505,MERBEIN
1238,MERBEIN P-10 COLLEGE - STURT HIGHWAY CAMPUS,142.012230017874,-34.2177600328683,3505,MERBEIN SOUTH
1239,ALBERT PARK COLLEGE,144.947359968024,-37.8447899965271,3206,ALBERT PARK
1240,SON CENTRE CHRISTIAN COLLEGE,143.546500046746,-35.377549978299,3585,SWAN HILL
1241,YARRA HILLS SECONDARY COLLEGE - SENIOR CAMPUS,145.315839978229,-37.7888799986201,3138,MOOROOLBARK
1242,DOVETON COLLEGE,145.243059974517,-37.9905399988014,3177,DOVETON
1243,SURF COAST SECONDARY COLLEGE,144.323859982281,-38.3041900565636,3228,TORQUAY
1244,TARNEIT SENIOR COLLEGE,144.680409968692,-37.8333499973732,3029,TARNEIT
1245,WALLAN SECONDARY COLLEGE,144.981469976219,-37.4183900002029,3756,WALLAN
1246,WARRAGUL REGIONAL COLLEGE,145.925489968449,-38.1651999982664,3820,WARRAGUL
1247,WESTERN PORT SECONDARY COLLEGE,145.17638001989,-38.3081699971308,3915,HASTINGS
1248,MARCELLIN COLLEGE,145.082669982166,-37.7747799933702,3105,BULLEEN
1249,OUR LADY OF MERCY COLLEGE,145.067589967618,-37.7579300002279,3084,HEIDELBERG
1250,TAYLORS LAKES SECONDARY COLLEGE,144.794399986382,-37.7074100022784,3038,TAYLORS LAKES
1251,TEMPLESTOWE COLLEGE,145.122309996103,-37.7674299960565,3107,TEMPLESTOWE LOWER
1252,NOTRE DAME COLLEGE,145.407639976882,-36.374709991089,3630,SHEPPARTON
1253,SALESIAN COLLEGE,145.100260005294,-37.8827199902511,3148,CHADSTONE
1254,SALESIAN COLLEGE,144.739039982337,-37.5726299967014,3429,SUNBURY
1255,ST PATRICKS COLLEGE,143.831559980373,-37.5597000011297,3350,NEWINGTON
1256,FRANKSTON HIGH SCHOOL - 7-10 CAMPUS,145.128949974472,-38.162189998955,3199,FRANKSTON
1257,CHRISTIAN BROTHERS COLLEGE - BALACLAVA,144.996789981755,-37.8693599940597,3183,BALACLAVA
1258,BALLARAT SECONDARY COLLEGE - BARKLY SENIOR CAMPUS,143.868739978476,-37.564299996529,3350,BALLARAT EAST
1259,CRUSOE 7-10 SECONDARY COLLEGE - BENDIGO TEACHING UNIT,144.291309984216,-36.7653999998641,3550,KENNINGTON
1260,"PRESHIL, THE MARGARET LYTTLE MEMORIAL SCHOOL - BLACKHALL-KALIMNA PRESHIL SENIOR SCHOOL",145.049480009752,-37.8129499883245,3101,KEW
1261,DROUIN SECONDARY COLLEGE - BLACKWOOD ANNEXE,145.8388099672,-38.2553499985713,3818,HALLORA
1262,EMMAUS COLLEGE - BURWOOD CAMPUS,145.096390004731,-37.8483899847718,3125,BURWOOD
1263,YARRA HILLS SECONDARY COLLEGE - CAMBRIDGE CAMPUS,145.324109975953,-37.7965000002449,3137,KILSYTH
1264,CATHOLIC REGIONAL COLLEGE,144.799089994193,-37.7388900037911,3021,ST ALBANS
1265,BRUNSWICK SECONDARY COLLEGE - CENTRAL TEACHING UNIT,144.945960008606,-37.7586900038977,3055,BRUNSWICK WEST
1266,KEYSBOROUGH SECONDARY COLLEGE - ACACIA CAMPUS,145.182599979733,-37.9845499945697,3173,KEYSBOROUGH
1267,CAROLINE CHISHOLM CATHOLIC COLLEGE - CHRIST THE KING CAMPUS,144.86177998819,-37.7865800023375,3019,BRAYBROOK
1268,COBURG SENIOR HIGH SCHOOL - COBURG TEACHING UNIT,144.973739990774,-37.7404200026826,3058,COBURG
1269,COLLINGWOOD COLLEGE - COLLINGWOOD ALTERNATIVE SCHOOL,144.985639978982,-37.8023899938813,3066,COLLINGWOOD
1270,ST MONICAS COLLEGE - DALTON ROAD CAMPUS,145.031680009009,-37.6551700011218,3076,EPPING
1271,COPPERFIELD COLLEGE - DELAHEY SENIOR CAMPUS,144.772429979895,-37.7194600028678,3037,DELAHEY
1272,BENALLA COLLEGE - DUNLOP CAMPUS,145.990639955077,-36.5487800017813,3672,BENALLA
1273,TRARALGON COLLEGE - EAST CAMPUS,146.553089979358,-38.2025799986737,3844,TRARALGON
1274,BALLARAT SECONDARY COLLEGE - EAST CAMPUS,143.892280002926,-37.5591200010009,3350,BALLARAT EAST
1275,ESSENDON EAST KEILOR DISTRICT COLLEGE - EAST KEILOR CAMPUS,144.869709987868,-37.7397100005856,3033,KEILOR EAST
1276,ESSENDON KEILOR COLLEGE - EAST KEILOR CAMPUS,144.869709987868,-37.7397100005856,3033,KEILOR EAST
1277,ROWVILLE SECONDARY COLLEGE - EASTERN CAMPUS,145.264809992452,-37.9208999968831,3178,ROWVILLE
1278,WODONGA MIDDLE YEARS COLLEGE - FELLTIMBER CAMPUS,146.862119988029,-36.1271800057668,3690,WEST WODONGA
1279,MOUNT ERIN SECONDARY COLLEGE - FRANKSTON CAMPUS,145.146629967042,-38.1741199962497,3199,FRANKSTON SOUTH
1280,TRARALGON COLLEGE - HAZELWOOD ESTATE,146.380290012621,-38.3108600014695,3840,HAZELWOOD
1281,KEYSBOROUGH SECONDARY COLLEGE - BANKSIA CAMPUS,145.15983996964,-37.9670199958862,3172,SPRINGVALE SOUTH
1282,RESERVOIR HIGH SCHOOL - HEIDELBERG SECONDARY TEACHING UNIT,145.029579989076,-37.7223100013954,3073,RESERVOIR
1283,HORSHAM COLLEGE - HORSHAM HIGH CAMPUS,142.18409996788,-36.7116599715732,3400,HORSHAM
1284,WODONGA MIDDLE YEARS COLLEGE - HUON CAMPUS,146.890560012025,-36.1308399399546,3690,WODONGA
1285,DAMASCUS COLLEGE,143.870349988443,-37.6114599989236,3350,MOUNT CLEAR
1286,EMMANUEL COLLEGE INC - EMMANUEL COLLEGE INC.,142.477359989306,-38.3709699835853,3280,WARRNAMBOOL
1287,MOUNT WAVERLEY SECONDARY COLLEGE - JUNIOR CAMPUS,145.130660001873,-37.8657299862428,3149,MOUNT WAVERLEY
1288,PENLEIGH AND ESSENDON GRAMMAR SCHOOL - KEILOR EAST CAMPUS,144.870340003574,-37.7321500015815,3033,KEILOR EAST
1289,DE LA SALLE COLLEGE - KINNOULL CAMPUS,145.031929994154,-37.8555199923833,3144,MALVERN
1290,CATHOLIC COLLEGE BENDIGO - LA VALLA CAMPUS,144.338599992755,-36.770720000002,3551,JUNORTOUN
1291,SALE COLLEGE - MACALISTER CAMPUS,147.068010004183,-38.1089199841713,3850,SALE
1292,The Geelong College - The Geelong College Senior School,144.340099995453,-38.1524099987051,3220,NEWTOWN
1293,GIPPSLAND GRAMMAR - MAIN CAMPUS,147.06463000865,-38.0936499838161,3850,SALE
1294,FIRBANK GRAMMAR SCHOOL - MAIN CAMPUS,144.99694000072,-37.9061199902975,3186,BRIGHTON
1295,NEWHAVEN COLLEGE - MAIN CAMPUS,145.354129961653,-38.5103399987406,3925,NEWHAVEN
1296,METHODIST LADIES COLLEGE - MALLACOOTA CAMPUS,149.819390170278,-37.4806204720965,3892,MALLACOOTA
1297,KURNAI COLLEGE - MORWELL CAMPUS,146.432789973232,-38.2287899978607,3840,MORWELL
1298,YARRA HILLS SECONDARY COLLEGE - MOUNT EVELYN CAMPUS,145.383389968104,-37.7747899972563,3796,MOUNT EVELYN
1299,ESSENDON EAST KEILOR DISTRICT COLLEGE - NIDDRIE CAMPUS,144.879120008277,-37.7300700021655,3042,AIRPORT WEST
1300,ESSENDON KEILOR COLLEGE - NIDDRIE CAMPUS,144.879120008277,-37.7300700021655,3042,AIRPORT WEST
1301,STAR OF THE SEA COLLEGE,144.996780001772,-37.8967299912284,3186,BRIGHTON
1302,MACKILLOP CATHOLIC REGIONAL COLLEGE - ST MARYS CAMPUS,144.696339991058,-37.9534400001857,3030,WERRIBEE SOUTH
1303,THOMAS CARR COLLEGE,144.702059980391,-37.8476799939175,3029,TARNEIT
1304,TRINITY COLLEGE COLAC INC,143.576939977272,-38.3520299898922,3250,COLAC
1305,VICTORIA UNIVERSITY SECONDARY COLLEGE - BRIMBANK CAMPUS,144.785959976318,-37.7403000049116,3021,ST ALBANS
1306,SWIFTS CREEK SCHOOL (INTERIM NAME) - SECONDARY CAMPUS,147.724039957791,-37.2668299761898,3896,SWIFTS CREEK
1307,MERBEIN P-10 COLLEGE - SECONDARY CAMPUS,142.071320012741,-34.1693500318642,3505,MERBEIN
1308,CHRISTIAN COLLEGE INSTITUTE OF SENIOR EDUCATION - ARTS/TECHNOLOGY CENTRE VILLA PALOMA CAMPUS,144.300579965949,-38.2044000164254,3216,WAURN PONDS
1309,HERITAGE COLLEGE - OFFICER CAMPUS,145.416719986067,-38.0543399963277,3809,OFFICER
1310,ST ALOYSIUS COLLEGE,144.942869953435,-37.7928899958989,3051,NORTH MELBOURNE
1311,ST JAMES  COLLEGE,145.071369988527,-37.9264599895326,3165,BENTLEIGH EAST
1312,WOODLEIGH SCHOOL - SENIOR CAMPUS,145.174649973062,-38.1925999983016,3911,LANGWARRIN SOUTH
1313,DIAMOND VALLEY COLLEGE,145.167399985667,-37.6728299995832,3089,DIAMOND CREEK
1314,Footscray City College,144.894019989111,-37.7910599995577,3011,FOOTSCRAY
1315,BACCHUS MARSH COLLEGE,144.433059986279,-37.6856299949652,3340,MADDINGLEY
1316,MULLAUNA SECONDARY COLLEGE,145.19015998799,-37.8071099939941,3132,MITCHAM
1317,SOUTH OAKLEIGH SECONDARY COLLEGE,145.089769990775,-37.9223199917736,3167,OAKLEIGH SOUTH
1318,NEW GENERATION COLLEGE,144.963529960502,-37.8145199974443,3000,MELBOURNE
1319,COMMUNITY COLLEGE GIPPSLAND LTD,145.926229996809,-38.1782200014004,3820,WARRAGUL
1320,SEYMOUR COLLEGE - LOCO STREET CAMPUS,145.141119982881,-37.0298300077288,3660,SEYMOUR
1321,GOOD SHEPHERD COLLEGE - MAIN CAMPUS,142.041490052744,-37.7708200090265,3300,HAMILTON
1322,HORSHAM COLLEGE - MC KENZIE CREEK CAMPUS,142.176250018968,-36.7827899935706,3401,MCKENZIE CREEK
1323,CROYDON COMMUNITY SCHOOL - RECONNECTING YOUTH CAMPUS,145.166539957086,-37.9070499949785,3150,WHEELERS HILL
1324,THE HAMILTON AND ALEXANDRA COLLEGE - SENIOR CAMPUS,142.024220056782,-37.7371900118507,3300,HAMILTON
1325,ST JOSEPHS COLLEGE MILDURA,142.153460016566,-34.1887300316249,3500,MILDURA
1326,ST MARY OF THE ANGELS COLLEGE,145.20874998498,-36.0576600531784,3638,NATHALIA
1327,NOTRE DAME COLLEGE - EMMAUS CAMPUS,145.40795997618,-36.3247700027896,3631,SHEPPARTON NORTH
1328,CROYDON COMMUNITY SCHOOL,145.278929983565,-37.7984199971061,3136,CROYDON
1329,LYNALL HALL COMMUNITY SCHOOL,145.002259987564,-37.8164799961068,3121,RICHMOND
1330,GLEN EIRA COLLEGE,145.038009993799,-37.8856999919876,3145,CAULFIELD EAST
1331,METHODIST LADIES COLLEGE -KINDLE,145.038440023477,-37.8147099865772,3122,HAWTHORN
1332,Elevation Secondary College,144.890519972487,-37.5983500011218,3064,CRAIGIEBURN
1333,Homestead Senior Secondary College,144.768900007624,-37.9139999958336,3030,POINT COOK
1334,Greater Otway Applied Learning School,143.382959993836,-38.681949986797,3238,LAVERS HILL
1335,ARARAT SECONDARY COLLEGE MIDDLE SCHOOL CAMPUS,142.921960019935,-37.2859999662167,3377,ARARAT
1336,STOTTS COLLEGES,144.970559974605,-37.8115399969065,3000,MELBOURNE
1337,CARRANBALLAC P-9 COLLEGE BOARDWALK CAMPUS,144.741949987503,-37.8844299978318,3030,POINT COOK
1338,THE GRANGE SECONDARY COLLEGE,144.675699981771,-37.8590099952155,3029,HOPPERS CROSSING
1339,SALE COLLEGE MACALISTER CAMPUS,147.06237000315,-38.109009983738,3850,SALE
1340,MACALISTER SECONDARY COLLEGE,147.06237000315,-38.109009983738,3850,SALE
1341,LA TROBE SECONDARY COLLEGE,145.058479993348,-37.7290099994218,3085,MACLEOD
1342,MACROBERTSON GIRLS HIGH SCHOOL,144.971859967733,-37.8358899961462,3004,MELBOURNE
1343,MAFFRA SECONDARY COLLEGE,146.982420029661,-37.9648899857022,3860,MAFFRA
1344,MAFFRA HIGH SCHOOL,146.982420029661,-37.9648899857022,3860,MAFFRA
1345,OVERNEWTON ANGLICAN COMMUNITY COLLEGE - TAYLORS LAKES CAMPUS,144.773279982874,-37.690260001744,3038,TAYLORS LAKES
1346,CAMPERDOWN COLLEGE - WILSON STREET,143.145439968387,-38.2397299915531,3260,CAMPERDOWN
1347,NEWHAVEN COLLEGE - PHILLIP ISLAND TOURIST ROAD CAMPUS,145.272329989684,-38.4883299978958,3923,RHYLL
1348,YUILLE PARK P-8 COMMUNITY COLLEGE - YUILLE CAMPUS,143.824460016489,-37.5209799974378,3355,WENDOUREE
1349,BACCHUS MARSH GRAMMAR,144.431599993048,-37.6902499958972,3340,MADDINGLEY
1350,CHARLTON COLLEGE - CHARLTON COLLEGE (CLUSTER),143.347259993242,-36.2742199917133,3525,CHARLTON
1351,KARDINIA INTERNATIONAL COLLEGE,144.328000006071,-38.1098699966488,3215,BELL POST HILL
1352,KINGS COLLEGE,142.506179958964,-38.3620999852092,3280,WARRNAMBOOL
1353,ST ANTHONYS COPTIC ORTHODOX COLLEGE,145.157969976037,-38.1201199957015,3200,FRANKSTON NORTH
1354,ST JOHNS GREEK ORTHODOX COLLEGE,144.998750004704,-37.7472300024366,3072,PRESTON
1355,ST MARYS COPTIC ORTHODOX COLLEGE,144.931219992277,-37.6558200002524,3048,COOLAROO
1356,AL SIRAAT COLLEGE,145.037539984355,-37.6242499993313,3076,EPPING
1357,FRAYNE COLLEGE,146.939939999078,-36.173879941001,3691,BARANDUDA
1358,XAVIER COLLEGE - KOSTKA HALL CAMPUS,144.994029997942,-37.9270599932277,3186,BRIGHTON
1359,ST AUGUSTINES COLLEGE,145.044719991306,-36.3095400084952,3620,KYABRAM
1360,CRUSOE 7-10 SECONDARY COLLEGE,144.233669995528,-36.7886500022399,3555,KANGAROO FLAT
1361,MCCLELLAND SECONDARY COLLEGE,145.158449968048,-38.146319994896,3199,FRANKSTON
1362,ALKIRA SECONDARY COLLEGE,145.30871998785,-38.0731299998841,3977,CRANBOURNE NORTH
1363,SUZANNE CORY HIGH SCHOOL,144.700749978676,-37.8938499981146,3030,WERRIBEE
1364,AVENUES EDUCATION,145.034449974242,-37.933039992036,3188,HAMPTON EAST
1365,WESTERN ENGLISH LANGUAGE SCHOOL - WYNDHAM SECONDARY CAMPUS,144.653629967419,-37.8889499959189,3030,WERRIBEE
1366,CRAIGIEBURN SECONDARY COLLEGE,144.935949982539,-37.6087499992821,3064,CRAIGIEBURN
1367,CRANBOURNE HIGH SCHOOL,145.286139967957,-38.1075899955221,3977,CRANBOURNE
1368,KEALBA SECONDARY COLLEGE,144.820839974172,-37.7319300042208,3021,KEALBA
1369,ST MARYS COLLEGE,145.140929967981,-37.0198800066527,3660,SEYMOUR
1370,POINT COOK PREP - YEAR 9 COLLEGE,144.725699982354,-37.8935799957928,3030,POINT COOK
1371,ACACIA COLLEGE,145.075509973555,-37.5990199997835,3754,MERNDA
1372,THOMASTOWN SECONDARY COLLEGE,145.001939956588,-37.6787200002292,3074,THOMASTOWN
1373,THORNBURY HIGH SCHOOL,145.025209958113,-37.7565000013079,3071,THORNBURY
1374,TIMBERTOP SCHOOL,146.304309988558,-37.1262400054224,3723,MERRIJIG
1375,COLBINNABIN STATE SCHOOL,144.745019996953,-36.5955200019446,3559,COLBINABBIN
1376,BALLARAT EAST SECONDARY COLLEGE,143.892650003873,-37.5590100010239,3350,BALLARAT EAST
1377,BALLARAT HIGH SCHOOL,143.818210000204,-37.5545199982478,3355,LAKE GARDENS
1378,THE ALPINE SCHOOL,147.245700021404,-37.0234600040392,3898,DINNER PLAIN
1379,CAROLINE SPRINGS COLLEGE,144.738199983052,-37.7454000017184,3023,CAROLINE SPRINGS
1380,HUME CENTRAL SECONDARY COLLEGE BLAIR STREET CAMPUS,144.929169986142,-37.678880002256,3047,BROADMEADOWS
1381,HUME CENTRAL SECONDARY COLLEGE DIMBOOLA ROAD CAMPUS,144.91361996856,-37.6813800022115,3047,BROADMEADOWS
1382,SAINT ARNAUD HIGH SCHOOL,143.250150028862,-36.6092900188703,3478,SAINT ARNAUD
